{
"type": "FeatureCollection",
"name": "graph_points",
"crs": { "type": "name", "properties": { "name": "urn:ogc:def:crs:OGC:1.3:CRS84" } },
"features": [
{ "type": "Feature", "properties": { "point_id": 0, "connected_edge_ids": [ 0 ], "degree": 1 }, "geometry": { "type": "Point", "coordinates": [ -91.357322281655826, 39.718132121614758 ] } },
{ "type": "Feature", "properties": { "point_id": 1, "connected_edge_ids": [ 0, 2, 3 ], "degree": 3 }, "geometry": { "type": "Point", "coordinates": [ -91.300112138352844, 39.751946149744896 ] } },
{ "type": "Feature", "properties": { "point_id": 2, "connected_edge_ids": [ 1 ], "degree": 1 }, "geometry": { "type": "Point", "coordinates": [ -91.309595742802358, 40.014016014773809 ] } },
{ "type": "Feature", "properties": { "point_id": 3, "connected_edge_ids": [ 1, 5, 7, 8 ], "degree": 4 }, "geometry": { "type": "Point", "coordinates": [ -91.298031753591729, 39.754743945616134 ] } },
{ "type": "Feature", "properties": { "point_id": 4, "connected_edge_ids": [ 2, 7, 4, 6 ], "degree": 4 }, "geometry": { "type": "Point", "coordinates": [ -91.298125488048427, 39.753309541829879 ] } },
{ "type": "Feature", "properties": { "point_id": 5, "connected_edge_ids": [ 3, 5, 4 ], "degree": 3 }, "geometry": { "type": "Point", "coordinates": [ -91.300018445242728, 39.753380554232322 ] } },
{ "type": "Feature", "properties": { "point_id": 6, "connected_edge_ids": [ 8, 6, 9 ], "degree": 3 }, "geometry": { "type": "Point", "coordinates": [ -91.296232534588228, 39.75323850085779 ] } },
{ "type": "Feature", "properties": { "point_id": 7, "connected_edge_ids": [ 9, 98, 99 ], "degree": 3 }, "geometry": { "type": "Point", "coordinates": [ -89.647392501620487, 39.742330574194341 ] } },
{ "type": "Feature", "properties": { "point_id": 8, "connected_edge_ids": [ 10 ], "degree": 1 }, "geometry": { "type": "Point", "coordinates": [ -90.632295485332492, 41.47946913627824 ] } },
{ "type": "Feature", "properties": { "point_id": 9, "connected_edge_ids": [ 10, 12, 13 ], "degree": 3 }, "geometry": { "type": "Point", "coordinates": [ -90.497833432390919, 41.457925540588143 ] } },
{ "type": "Feature", "properties": { "point_id": 10, "connected_edge_ids": [ 11 ], "degree": 1 }, "geometry": { "type": "Point", "coordinates": [ -90.512507909229683, 41.51904671914869 ] } },
{ "type": "Feature", "properties": { "point_id": 11, "connected_edge_ids": [ 13, 11, 15, 16 ], "degree": 4 }, "geometry": { "type": "Point", "coordinates": [ -90.495783115994044, 41.459277756985813 ] } },
{ "type": "Feature", "properties": { "point_id": 12, "connected_edge_ids": [ 12, 15, 14 ], "degree": 3 }, "geometry": { "type": "Point", "coordinates": [ -90.495895485267383, 41.457842325286983 ] } },
{ "type": "Feature", "properties": { "point_id": 13, "connected_edge_ids": [ 16, 14, 17 ], "degree": 3 }, "geometry": { "type": "Point", "coordinates": [ -90.493957542726719, 41.457759080720855 ] } },
{ "type": "Feature", "properties": { "point_id": 14, "connected_edge_ids": [ 17, 29, 30 ], "degree": 3 }, "geometry": { "type": "Point", "coordinates": [ -90.333934050650385, 41.440700889054909 ] } },
{ "type": "Feature", "properties": { "point_id": 15, "connected_edge_ids": [ 18 ], "degree": 1 }, "geometry": { "type": "Point", "coordinates": [ -90.363689352951056, 41.578856023662937 ] } },
{ "type": "Feature", "properties": { "point_id": 16, "connected_edge_ids": [ 18, 21, 26, 27 ], "degree": 4 }, "geometry": { "type": "Point", "coordinates": [ -90.341694980952781, 41.537553278082619 ] } },
{ "type": "Feature", "properties": { "point_id": 17, "connected_edge_ids": [ 21, 19, 20, 22 ], "degree": 4 }, "geometry": { "type": "Point", "coordinates": [ -90.343750540461187, 41.536203420791338 ] } },
{ "type": "Feature", "properties": { "point_id": 18, "connected_edge_ids": [ 19 ], "degree": 1 }, "geometry": { "type": "Point", "coordinates": [ -90.349685804895742, 41.535024480646314 ] } },
{ "type": "Feature", "properties": { "point_id": 19, "connected_edge_ids": [ 26, 20, 23, 25 ], "degree": 4 }, "geometry": { "type": "Point", "coordinates": [ -90.341810620875307, 41.536117871584338 ] } },
{ "type": "Feature", "properties": { "point_id": 20, "connected_edge_ids": [ 22, 23, 24 ], "degree": 3 }, "geometry": { "type": "Point", "coordinates": [ -90.341926256076832, 41.534682467057237 ] } },
{ "type": "Feature", "properties": { "point_id": 21, "connected_edge_ids": [ 30, 24, 32, 33 ], "degree": 4 }, "geometry": { "type": "Point", "coordinates": [ -90.331881091128409, 41.442050461570709 ] } },
{ "type": "Feature", "properties": { "point_id": 22, "connected_edge_ids": [ 27, 25, 28 ], "degree": 3 }, "geometry": { "type": "Point", "coordinates": [ -90.339755026628367, 41.5374676977113 ] } },
{ "type": "Feature", "properties": { "point_id": 23, "connected_edge_ids": [ 28, 156, 157 ], "degree": 3 }, "geometry": { "type": "Point", "coordinates": [ -89.023578090275052, 41.905216075954449 ] } },
{ "type": "Feature", "properties": { "point_id": 24, "connected_edge_ids": [ 29, 32, 31 ], "degree": 3 }, "geometry": { "type": "Point", "coordinates": [ -90.33199677425884, 41.440615199702336 ] } },
{ "type": "Feature", "properties": { "point_id": 25, "connected_edge_ids": [ 33, 31, 34, 35 ], "degree": 4 }, "geometry": { "type": "Point", "coordinates": [ -90.330059502583651, 41.440529481098828 ] } },
{ "type": "Feature", "properties": { "point_id": 26, "connected_edge_ids": [ 34, 37, 39 ], "degree": 3 }, "geometry": { "type": "Point", "coordinates": [ -90.328122235626424, 41.440443733244415 ] } },
{ "type": "Feature", "properties": { "point_id": 27, "connected_edge_ids": [ 35, 37, 36, 38 ], "degree": 4 }, "geometry": { "type": "Point", "coordinates": [ -90.32823799274027, 41.439008477011747 ] } },
{ "type": "Feature", "properties": { "point_id": 28, "connected_edge_ids": [ 39, 36, 40 ], "degree": 3 }, "geometry": { "type": "Point", "coordinates": [ -90.326184973388735, 41.440357956139259 ] } },
{ "type": "Feature", "properties": { "point_id": 29, "connected_edge_ids": [ 38, 94, 96 ], "degree": 3 }, "geometry": { "type": "Point", "coordinates": [ -89.669646012883334, 40.741177688041631 ] } },
{ "type": "Feature", "properties": { "point_id": 30, "connected_edge_ids": [ 40, 131, 132 ], "degree": 3 }, "geometry": { "type": "Point", "coordinates": [ -89.384725054718601, 41.400948110252173 ] } },
{ "type": "Feature", "properties": { "point_id": 31, "connected_edge_ids": [ 41, 53, 54 ], "degree": 3 }, "geometry": { "type": "Point", "coordinates": [ -90.074374548741943, 38.616591997389285 ] } },
{ "type": "Feature", "properties": { "point_id": 32, "connected_edge_ids": [ 41 ], "degree": 1 }, "geometry": { "type": "Point", "coordinates": [ -90.275238748245627, 38.486551978475447 ] } },
{ "type": "Feature", "properties": { "point_id": 33, "connected_edge_ids": [ 42 ], "degree": 1 }, "geometry": { "type": "Point", "coordinates": [ -90.182731747027347, 38.617434621381946 ] } },
{ "type": "Feature", "properties": { "point_id": 34, "connected_edge_ids": [ 42, 44, 45 ], "degree": 3 }, "geometry": { "type": "Point", "coordinates": [ -90.149580268378415, 38.634567489012099 ] } },
{ "type": "Feature", "properties": { "point_id": 35, "connected_edge_ids": [ 43, 64, 65, 66 ], "degree": 4 }, "geometry": { "type": "Point", "coordinates": [ -90.046050014091051, 38.757652522880079 ] } },
{ "type": "Feature", "properties": { "point_id": 36, "connected_edge_ids": [ 43 ], "degree": 1 }, "geometry": { "type": "Point", "coordinates": [ -90.171065910940342, 38.763612467266448 ] } },
{ "type": "Feature", "properties": { "point_id": 37, "connected_edge_ids": [ 44 ], "degree": 1 }, "geometry": { "type": "Point", "coordinates": [ -90.178584935367581, 38.646009051376822 ] } },
{ "type": "Feature", "properties": { "point_id": 38, "connected_edge_ids": [ 45, 46, 47, 48 ], "degree": 4 }, "geometry": { "type": "Point", "coordinates": [ -90.142129339463693, 38.634213924063332 ] } },
{ "type": "Feature", "properties": { "point_id": 39, "connected_edge_ids": [ 46, 49, 51 ], "degree": 3 }, "geometry": { "type": "Point", "coordinates": [ -90.14026661849843, 38.634125462603158 ] } },
{ "type": "Feature", "properties": { "point_id": 40, "connected_edge_ids": [ 47, 51, 52 ], "degree": 3 }, "geometry": { "type": "Point", "coordinates": [ -90.140151615498979, 38.635558540073568 ] } },
{ "type": "Feature", "properties": { "point_id": 41, "connected_edge_ids": [ 48, 49, 50 ], "degree": 3 }, "geometry": { "type": "Point", "coordinates": [ -90.140381616989686, 38.63269238511581 ] } },
{ "type": "Feature", "properties": { "point_id": 42, "connected_edge_ids": [ 54, 50, 55 ], "degree": 3 }, "geometry": { "type": "Point", "coordinates": [ -90.074258282095954, 38.618025012128207 ] } },
{ "type": "Feature", "properties": { "point_id": 43, "connected_edge_ids": [ 52, 75, 76, 77 ], "degree": 4 }, "geometry": { "type": "Point", "coordinates": [ -90.032565474067582, 38.670683184198388 ] } },
{ "type": "Feature", "properties": { "point_id": 44, "connected_edge_ids": [ 53, 55, 56 ], "degree": 3 }, "geometry": { "type": "Point", "coordinates": [ -90.072396056074382, 38.617935527274774 ] } },
{ "type": "Feature", "properties": { "point_id": 45, "connected_edge_ids": [ 56, 57, 58 ], "degree": 3 }, "geometry": { "type": "Point", "coordinates": [ -90.070417490709076, 38.619279025532691 ] } },
{ "type": "Feature", "properties": { "point_id": 46, "connected_edge_ids": [ 57, 59, 60 ], "degree": 3 }, "geometry": { "type": "Point", "coordinates": [ -90.068555237455968, 38.619189482759111 ] } },
{ "type": "Feature", "properties": { "point_id": 47, "connected_edge_ids": [ 58, 60, 61, 62 ], "degree": 4 }, "geometry": { "type": "Point", "coordinates": [ -90.068438852643695, 38.620622492162155 ] } },
{ "type": "Feature", "properties": { "point_id": 48, "connected_edge_ids": [ 59, 62, 63 ], "degree": 3 }, "geometry": { "type": "Point", "coordinates": [ -90.066692988764075, 38.619099911904904 ] } },
{ "type": "Feature", "properties": { "point_id": 49, "connected_edge_ids": [ 77, 61, 78 ], "degree": 3 }, "geometry": { "type": "Point", "coordinates": [ -90.030819161773721, 38.669160093318332 ] } },
{ "type": "Feature", "properties": { "point_id": 50, "connected_edge_ids": [ 63, 209, 210, 211 ], "degree": 4 }, "geometry": { "type": "Point", "coordinates": [ -88.956603146689176, 38.338941364585615 ] } },
{ "type": "Feature", "properties": { "point_id": 51, "connected_edge_ids": [ 64, 69, 71, 72 ], "degree": 4 }, "geometry": { "type": "Point", "coordinates": [ -90.044184260377307, 38.757562611887863 ] } },
{ "type": "Feature", "properties": { "point_id": 52, "connected_edge_ids": [ 65, 72, 67, 73 ], "degree": 4 }, "geometry": { "type": "Point", "coordinates": [ -90.044067176441914, 38.758995610380403 ] } },
{ "type": "Feature", "properties": { "point_id": 53, "connected_edge_ids": [ 66, 69, 68, 70 ], "degree": 4 }, "geometry": { "type": "Point", "coordinates": [ -90.04430133971546, 38.756129613453766 ] } },
{ "type": "Feature", "properties": { "point_id": 54, "connected_edge_ids": [ 67 ], "degree": 1 }, "geometry": { "type": "Point", "coordinates": [ -90.045347660449181, 38.76625052540065 ] } },
{ "type": "Feature", "properties": { "point_id": 55, "connected_edge_ids": [ 71, 73, 68, 74 ], "degree": 4 }, "geometry": { "type": "Point", "coordinates": [ -90.042318511260802, 38.757472672762781 ] } },
{ "type": "Feature", "properties": { "point_id": 56, "connected_edge_ids": [ 70, 80, 81 ], "degree": 3 }, "geometry": { "type": "Point", "coordinates": [ -90.028486695416731, 38.674801854595358 ] } },
{ "type": "Feature", "properties": { "point_id": 57, "connected_edge_ids": [ 74, 82, 83 ], "degree": 3 }, "geometry": { "type": "Point", "coordinates": [ -89.909742452682849, 38.752447963013843 ] } },
{ "type": "Feature", "properties": { "point_id": 58, "connected_edge_ids": [ 75, 78, 79 ], "degree": 3 }, "geometry": { "type": "Point", "coordinates": [ -90.030701957397497, 38.670593070430982 ] } },
{ "type": "Feature", "properties": { "point_id": 59, "connected_edge_ids": [ 76, 80, 79 ], "degree": 3 }, "geometry": { "type": "Point", "coordinates": [ -90.03058474842463, 38.672026047545948 ] } },
{ "type": "Feature", "properties": { "point_id": 60, "connected_edge_ids": [ 81, 83, 84, 85 ], "degree": 4 }, "geometry": { "type": "Point", "coordinates": [ -89.907996748527594, 38.750923129408349 ] } },
{ "type": "Feature", "properties": { "point_id": 61, "connected_edge_ids": [ 82, 85, 86, 87 ], "degree": 4 }, "geometry": { "type": "Point", "coordinates": [ -89.907877001835175, 38.752355996783422 ] } },
{ "type": "Feature", "properties": { "point_id": 62, "connected_edge_ids": [ 84, 86, 88, 89 ], "degree": 4 }, "geometry": { "type": "Point", "coordinates": [ -89.906011555688693, 38.752264002427324 ] } },
{ "type": "Feature", "properties": { "point_id": 63, "connected_edge_ids": [ 87, 89, 90, 91 ], "degree": 4 }, "geometry": { "type": "Point", "coordinates": [ -89.905891767827669, 38.753696868035888 ] } },
{ "type": "Feature", "properties": { "point_id": 64, "connected_edge_ids": [ 88, 91, 92 ], "degree": 3 }, "geometry": { "type": "Point", "coordinates": [ -89.904146114244867, 38.752171979945622 ] } },
{ "type": "Feature", "properties": { "point_id": 65, "connected_edge_ids": [ 90, 103, 111 ], "degree": 3 }, "geometry": { "type": "Point", "coordinates": [ -89.643737655450906, 39.740705714418006 ] } },
{ "type": "Feature", "properties": { "point_id": 66, "connected_edge_ids": [ 92, 229, 230, 231 ], "degree": 4 }, "geometry": { "type": "Point", "coordinates": [ -88.584000892273082, 39.091830468113869 ] } },
{ "type": "Feature", "properties": { "point_id": 67, "connected_edge_ids": [ 96, 93, 97 ], "degree": 3 }, "geometry": { "type": "Point", "coordinates": [ -89.667728648223729, 40.741082025428661 ] } },
{ "type": "Feature", "properties": { "point_id": 68, "connected_edge_ids": [ 94, 93, 95 ], "degree": 3 }, "geometry": { "type": "Point", "coordinates": [ -89.6697739192592, 40.739743913960901 ] } },
{ "type": "Feature", "properties": { "point_id": 69, "connected_edge_ids": [ 95, 118, 119 ], "degree": 3 }, "geometry": { "type": "Point", "coordinates": [ -89.532956186879602, 40.634908406897615 ] } },
{ "type": "Feature", "properties": { "point_id": 70, "connected_edge_ids": [ 97, 119, 120 ], "degree": 3 }, "geometry": { "type": "Point", "coordinates": [ -89.532825712721007, 40.63634193472695 ] } },
{ "type": "Feature", "properties": { "point_id": 71, "connected_edge_ids": [ 98, 103, 100, 101, 102 ], "degree": 5 }, "geometry": { "type": "Point", "coordinates": [ -89.645501750698756, 39.742234629959519 ] } },
{ "type": "Feature", "properties": { "point_id": 72, "connected_edge_ids": [ 99, 102, 104, 105, 106 ], "degree": 5 }, "geometry": { "type": "Point", "coordinates": [ -89.645375132472978, 39.743667575411529 ] } },
{ "type": "Feature", "properties": { "point_id": 73, "connected_edge_ids": [ 111, 100, 110, 112, 113 ], "degree": 5 }, "geometry": { "type": "Point", "coordinates": [ -89.643611004815227, 39.742138657218938 ] } },
{ "type": "Feature", "properties": { "point_id": 74, "connected_edge_ids": [ 101, 106, 110, 109 ], "degree": 4 }, "geometry": { "type": "Point", "coordinates": [ -89.644493059281714, 39.742903119301538 ] } },
{ "type": "Feature", "properties": { "point_id": 75, "connected_edge_ids": [ 104, 113, 109, 108, 114 ], "degree": 5 }, "geometry": { "type": "Point", "coordinates": [ -89.643484349139882, 39.743571600706865 ] } },
{ "type": "Feature", "properties": { "point_id": 76, "connected_edge_ids": [ 105, 108, 107 ], "degree": 3 }, "geometry": { "type": "Point", "coordinates": [ -89.645248509208713, 39.745100521551656 ] } },
{ "type": "Feature", "properties": { "point_id": 77, "connected_edge_ids": [ 107, 116, 117 ], "degree": 3 }, "geometry": { "type": "Point", "coordinates": [ -89.599842508010241, 39.892491887021023 ] } },
{ "type": "Feature", "properties": { "point_id": 78, "connected_edge_ids": [ 112, 114, 115 ], "degree": 3 }, "geometry": { "type": "Point", "coordinates": [ -89.641593570846752, 39.743475597495973 ] } },
{ "type": "Feature", "properties": { "point_id": 79, "connected_edge_ids": [ 115, 122, 125 ], "degree": 3 }, "geometry": { "type": "Point", "coordinates": [ -89.592489643072341, 39.804307779232722 ] } },
{ "type": "Feature", "properties": { "point_id": 80, "connected_edge_ids": [ 116, 122, 121 ], "degree": 3 }, "geometry": { "type": "Point", "coordinates": [ -89.597947870655773, 39.89239521967437 ] } },
{ "type": "Feature", "properties": { "point_id": 81, "connected_edge_ids": [ 117, 121, 123 ], "degree": 3 }, "geometry": { "type": "Point", "coordinates": [ -89.597820039799927, 39.893828207668534 ] } },
{ "type": "Feature", "properties": { "point_id": 82, "connected_edge_ids": [ 118, 120, 124 ], "degree": 3 }, "geometry": { "type": "Point", "coordinates": [ -89.531041871004163, 40.634810689554314 ] } },
{ "type": "Feature", "properties": { "point_id": 83, "connected_edge_ids": [ 123, 147, 148 ], "degree": 3 }, "geometry": { "type": "Point", "coordinates": [ -89.416023548520087, 40.111902337221622 ] } },
{ "type": "Feature", "properties": { "point_id": 84, "connected_edge_ids": [ 124, 126, 127 ], "degree": 3 }, "geometry": { "type": "Point", "coordinates": [ -89.482323400633362, 40.620792177253627 ] } },
{ "type": "Feature", "properties": { "point_id": 85, "connected_edge_ids": [ 125, 258, 259, 260 ], "degree": 4 }, "geometry": { "type": "Point", "coordinates": [ -88.307154928451084, 40.120999673449774 ] } },
{ "type": "Feature", "properties": { "point_id": 86, "connected_edge_ids": [ 126, 128, 130 ], "degree": 3 }, "geometry": { "type": "Point", "coordinates": [ -89.480409534197776, 40.620693697120387 ] } },
{ "type": "Feature", "properties": { "point_id": 87, "connected_edge_ids": [ 127, 128, 129 ], "degree": 3 }, "geometry": { "type": "Point", "coordinates": [ -89.480541035275834, 40.619260238917057 ] } },
{ "type": "Feature", "properties": { "point_id": 88, "connected_edge_ids": [ 129, 140, 142 ], "degree": 3 }, "geometry": { "type": "Point", "coordinates": [ -89.417296366078205, 40.181083006895136 ] } },
{ "type": "Feature", "properties": { "point_id": 89, "connected_edge_ids": [ 130, 182, 183 ], "degree": 3 }, "geometry": { "type": "Point", "coordinates": [ -89.028772826006673, 40.539012692053284 ] } },
{ "type": "Feature", "properties": { "point_id": 90, "connected_edge_ids": [ 131, 134, 136 ], "degree": 3 }, "geometry": { "type": "Point", "coordinates": [ -89.382790122894491, 41.40084809361521 ] } },
{ "type": "Feature", "properties": { "point_id": 91, "connected_edge_ids": [ 132, 134, 133, 135 ], "degree": 4 }, "geometry": { "type": "Point", "coordinates": [ -89.382925068404177, 41.399413816339113 ] } },
{ "type": "Feature", "properties": { "point_id": 92, "connected_edge_ids": [ 136, 133, 137 ], "degree": 3 }, "geometry": { "type": "Point", "coordinates": [ -89.380855196565633, 41.400748047785136 ] } },
{ "type": "Feature", "properties": { "point_id": 93, "connected_edge_ids": [ 135 ], "degree": 1 }, "geometry": { "type": "Point", "coordinates": [ -89.326472862698211, 41.256685106176768 ] } },
{ "type": "Feature", "properties": { "point_id": 94, "connected_edge_ids": [ 137, 166, 167, 168 ], "degree": 4 }, "geometry": { "type": "Point", "coordinates": [ -89.061149440657701, 41.369396924487596 ] } },
{ "type": "Feature", "properties": { "point_id": 95, "connected_edge_ids": [ 138 ], "degree": 1 }, "geometry": { "type": "Point", "coordinates": [ -89.425524561096935, 40.112399155027582 ] } },
{ "type": "Feature", "properties": { "point_id": 96, "connected_edge_ids": [ 138, 144, 145 ], "degree": 3 }, "geometry": { "type": "Point", "coordinates": [ -89.419692153054314, 40.113534106457159 ] } },
{ "type": "Feature", "properties": { "point_id": 97, "connected_edge_ids": [ 140, 139, 141 ], "degree": 3 }, "geometry": { "type": "Point", "coordinates": [ -89.417428323045399, 40.179650001915789 ] } },
{ "type": "Feature", "properties": { "point_id": 98, "connected_edge_ids": [ 142, 139, 143 ], "degree": 3 }, "geometry": { "type": "Point", "coordinates": [ -89.415394341568472, 40.180983572925257 ] } },
{ "type": "Feature", "properties": { "point_id": 99, "connected_edge_ids": [ 145, 141, 146 ], "degree": 3 }, "geometry": { "type": "Point", "coordinates": [ -89.417660090222469, 40.114867667226299 ] } },
{ "type": "Feature", "properties": { "point_id": 100, "connected_edge_ids": [ 143, 149, 150 ], "degree": 3 }, "geometry": { "type": "Point", "coordinates": [ -89.333077758210621, 40.182412450695978 ] } },
{ "type": "Feature", "properties": { "point_id": 101, "connected_edge_ids": [ 147, 144, 146 ], "degree": 3 }, "geometry": { "type": "Point", "coordinates": [ -89.417791917994876, 40.113434712187569 ] } },
{ "type": "Feature", "properties": { "point_id": 102, "connected_edge_ids": [ 148, 150, 151, 152 ], "degree": 4 }, "geometry": { "type": "Point", "coordinates": [ -89.331309498928036, 40.180878831511336 ] } },
{ "type": "Feature", "properties": { "point_id": 103, "connected_edge_ids": [ 149, 152, 153 ], "degree": 3 }, "geometry": { "type": "Point", "coordinates": [ -89.331175816109123, 40.182311746762124 ] } },
{ "type": "Feature", "properties": { "point_id": 104, "connected_edge_ids": [ 151, 153, 154 ], "degree": 3 }, "geometry": { "type": "Point", "coordinates": [ -89.329273879358638, 40.182211014156152 ] } },
{ "type": "Feature", "properties": { "point_id": 105, "connected_edge_ids": [ 154, 189, 190 ], "degree": 3 }, "geometry": { "type": "Point", "coordinates": [ -89.021133838477155, 40.440631016604065 ] } },
{ "type": "Feature", "properties": { "point_id": 106, "connected_edge_ids": [ 155 ], "degree": 1 }, "geometry": { "type": "Point", "coordinates": [ -88.993950002480759, 42.493776277111913 ] } },
{ "type": "Feature", "properties": { "point_id": 107, "connected_edge_ids": [ 155, 179, 180 ], "degree": 3 }, "geometry": { "type": "Point", "coordinates": [ -88.963421387713069, 42.249650903111252 ] } },
{ "type": "Feature", "properties": { "point_id": 108, "connected_edge_ids": [ 156, 159, 160 ], "degree": 3 }, "geometry": { "type": "Point", "coordinates": [ -89.021629741726187, 41.905110553572158 ] } },
{ "type": "Feature", "properties": { "point_id": 109, "connected_edge_ids": [ 157, 159, 158 ], "degree": 3 }, "geometry": { "type": "Point", "coordinates": [ -89.023434800656489, 41.906650725741294 ] } },
{ "type": "Feature", "properties": { "point_id": 110, "connected_edge_ids": [ 158, 176, 177 ], "degree": 3 }, "geometry": { "type": "Point", "coordinates": [ -88.963711845128771, 42.246780556774198 ] } },
{ "type": "Feature", "properties": { "point_id": 111, "connected_edge_ids": [ 160, 161, 162 ], "degree": 3 }, "geometry": { "type": "Point", "coordinates": [ -89.017733062260717, 41.904899420607542 ] } },
{ "type": "Feature", "properties": { "point_id": 112, "connected_edge_ids": [ 161, 163, 165 ], "degree": 3 }, "geometry": { "type": "Point", "coordinates": [ -89.015784731347352, 41.904793810025502 ] } },
{ "type": "Feature", "properties": { "point_id": 113, "connected_edge_ids": [ 162, 163, 164 ], "degree": 3 }, "geometry": { "type": "Point", "coordinates": [ -89.0159281739992, 41.903359171771534 ] } },
{ "type": "Feature", "properties": { "point_id": 114, "connected_edge_ids": [ 167, 164, 173, 174 ], "degree": 4 }, "geometry": { "type": "Point", "coordinates": [ -89.059074370462696, 41.370725915097282 ] } },
{ "type": "Feature", "properties": { "point_id": 115, "connected_edge_ids": [ 165, 277, 278 ], "degree": 3 }, "geometry": { "type": "Point", "coordinates": [ -88.05651576799356, 41.81020931773368 ] } },
{ "type": "Feature", "properties": { "point_id": 116, "connected_edge_ids": [ 166, 173, 170, 172 ], "degree": 4 }, "geometry": { "type": "Point", "coordinates": [ -89.059215845581832, 41.369292028073794 ] } },
{ "type": "Feature", "properties": { "point_id": 117, "connected_edge_ids": [ 168, 170, 169, 171 ], "degree": 4 }, "geometry": { "type": "Point", "coordinates": [ -89.059357314944023, 41.367858142843851 ] } },
{ "type": "Feature", "properties": { "point_id": 118, "connected_edge_ids": [ 174, 172, 169, 175 ], "degree": 4 }, "geometry": { "type": "Point", "coordinates": [ -89.05728225626288, 41.369187102495921 ] } },
{ "type": "Feature", "properties": { "point_id": 119, "connected_edge_ids": [ 171, 199, 200 ], "degree": 3 }, "geometry": { "type": "Point", "coordinates": [ -89.003507164148076, 40.541939963216841 ] } },
{ "type": "Feature", "properties": { "point_id": 120, "connected_edge_ids": [ 175, 240, 241 ], "degree": 3 }, "geometry": { "type": "Point", "coordinates": [ -88.200403922635914, 41.485686270252373 ] } },
{ "type": "Feature", "properties": { "point_id": 121, "connected_edge_ids": [ 180, 176, 178, 181 ], "degree": 4 }, "geometry": { "type": "Point", "coordinates": [ -88.961608767060127, 42.248109256466485 ] } },
{ "type": "Feature", "properties": { "point_id": 122, "connected_edge_ids": [ 179, 177, 178 ], "degree": 3 }, "geometry": { "type": "Point", "coordinates": [ -88.963566619412887, 42.248215728722109 ] } },
{ "type": "Feature", "properties": { "point_id": 123, "connected_edge_ids": [ 181, 283, 284 ], "degree": 3 }, "geometry": { "type": "Point", "coordinates": [ -88.026449778337422, 42.056656039435374 ] } },
{ "type": "Feature", "properties": { "point_id": 124, "connected_edge_ids": [ 182, 185, 187 ], "degree": 3 }, "geometry": { "type": "Point", "coordinates": [ -89.026861804669537, 40.53890737765083 ] } },
{ "type": "Feature", "properties": { "point_id": 125, "connected_edge_ids": [ 183, 185, 184, 186 ], "degree": 4 }, "geometry": { "type": "Point", "coordinates": [ -89.027002276575573, 40.53747448497198 ] } },
{ "type": "Feature", "properties": { "point_id": 126, "connected_edge_ids": [ 187, 184, 188 ], "degree": 3 }, "geometry": { "type": "Point", "coordinates": [ -89.024950788982011, 40.538802034441723 ] } },
{ "type": "Feature", "properties": { "point_id": 127, "connected_edge_ids": [ 186, 191, 192 ], "degree": 3 }, "geometry": { "type": "Point", "coordinates": [ -89.02029135932338, 40.449227813596551 ] } },
{ "type": "Feature", "properties": { "point_id": 128, "connected_edge_ids": [ 199, 188, 198 ], "degree": 3 }, "geometry": { "type": "Point", "coordinates": [ -89.003648111676355, 40.540507093589021 ] } },
{ "type": "Feature", "properties": { "point_id": 129, "connected_edge_ids": [ 189, 193, 194 ], "degree": 3 }, "geometry": { "type": "Point", "coordinates": [ -89.019225463358438, 40.440525593733597 ] } },
{ "type": "Feature", "properties": { "point_id": 130, "connected_edge_ids": [ 190, 193, 195 ], "degree": 3 }, "geometry": { "type": "Point", "coordinates": [ -89.019085026149085, 40.441958388178158 ] } },
{ "type": "Feature", "properties": { "point_id": 131, "connected_edge_ids": [ 191, 196, 197 ], "degree": 3 }, "geometry": { "type": "Point", "coordinates": [ -89.018382755488119, 40.449122377451545 ] } },
{ "type": "Feature", "properties": { "point_id": 132, "connected_edge_ids": [ 192, 195, 196 ], "degree": 3 }, "geometry": { "type": "Point", "coordinates": [ -89.018523220903333, 40.447689577320162 ] } },
{ "type": "Feature", "properties": { "point_id": 133, "connected_edge_ids": [ 194, 270, 271 ], "degree": 3 }, "geometry": { "type": "Point", "coordinates": [ -88.285078047979269, 40.148470464997402 ] } },
{ "type": "Feature", "properties": { "point_id": 134, "connected_edge_ids": [ 197, 203, 204, 205 ], "degree": 4 }, "geometry": { "type": "Point", "coordinates": [ -88.952052452635428, 40.53764326314397 ] } },
{ "type": "Feature", "properties": { "point_id": 135, "connected_edge_ids": [ 200, 198, 201 ], "degree": 3 }, "geometry": { "type": "Point", "coordinates": [ -89.001737087466211, 40.540401400259498 ] } },
{ "type": "Feature", "properties": { "point_id": 136, "connected_edge_ids": [ 203, 201, 202 ], "degree": 3 }, "geometry": { "type": "Point", "coordinates": [ -88.953821387780636, 40.539182516953247 ] } },
{ "type": "Feature", "properties": { "point_id": 137, "connected_edge_ids": [ 205, 202, 206 ], "degree": 3 }, "geometry": { "type": "Point", "coordinates": [ -88.951910473274154, 40.539076072467537 ] } },
{ "type": "Feature", "properties": { "point_id": 138, "connected_edge_ids": [ 204, 206, 207 ], "degree": 3 }, "geometry": { "type": "Point", "coordinates": [ -88.949999564477594, 40.538969599178699 ] } },
{ "type": "Feature", "properties": { "point_id": 139, "connected_edge_ids": [ 207, 245, 253 ], "degree": 3 }, "geometry": { "type": "Point", "coordinates": [ -88.196692351282621, 41.484017421246293 ] } },
{ "type": "Feature", "properties": { "point_id": 140, "connected_edge_ids": [ 208 ], "degree": 1 }, "geometry": { "type": "Point", "coordinates": [ -89.216166174986498, 37.024763288874787 ] } },
{ "type": "Feature", "properties": { "point_id": 141, "connected_edge_ids": [ 208, 216, 217 ], "degree": 3 }, "geometry": { "type": "Point", "coordinates": [ -88.997687270520117, 37.596925332859449 ] } },
{ "type": "Feature", "properties": { "point_id": 142, "connected_edge_ids": [ 209, 212, 214 ], "degree": 3 }, "geometry": { "type": "Point", "coordinates": [ -88.954749491333928, 38.338835033028104 ] } },
{ "type": "Feature", "properties": { "point_id": 143, "connected_edge_ids": [ 210, 214, 215 ], "degree": 3 }, "geometry": { "type": "Point", "coordinates": [ -88.954611816500616, 38.34026689595018 ] } },
{ "type": "Feature", "properties": { "point_id": 144, "connected_edge_ids": [ 211, 212, 213 ], "degree": 3 }, "geometry": { "type": "Point", "coordinates": [ -88.954887160796574, 38.337403169854959 ] } },
{ "type": "Feature", "properties": { "point_id": 145, "connected_edge_ids": [ 213, 223, 224 ], "degree": 3 }, "geometry": { "type": "Point", "coordinates": [ -88.931445417497997, 38.271265471529226 ] } },
{ "type": "Feature", "properties": { "point_id": 146, "connected_edge_ids": [ 231, 215, 232 ], "degree": 3 }, "geometry": { "type": "Point", "coordinates": [ -88.582275026779243, 39.090287007516693 ] } },
{ "type": "Feature", "properties": { "point_id": 147, "connected_edge_ids": [ 216, 218, 221, 222 ], "degree": 4 }, "geometry": { "type": "Point", "coordinates": [ -88.995716601359462, 37.598251686518523 ] } },
{ "type": "Feature", "properties": { "point_id": 148, "connected_edge_ids": [ 217, 218, 219 ], "degree": 3 }, "geometry": { "type": "Point", "coordinates": [ -88.997551802311577, 37.598357413466374 ] } },
{ "type": "Feature", "properties": { "point_id": 149, "connected_edge_ids": [ 221, 219, 220 ], "degree": 3 }, "geometry": { "type": "Point", "coordinates": [ -88.997416328870841, 37.599789493366515 ] } },
{ "type": "Feature", "properties": { "point_id": 150, "connected_edge_ids": [ 224, 220, 225, 226 ], "degree": 4 }, "geometry": { "type": "Point", "coordinates": [ -88.929731538806664, 38.269726919936197 ] } },
{ "type": "Feature", "properties": { "point_id": 151, "connected_edge_ids": [ 222 ], "degree": 1 }, "geometry": { "type": "Point", "coordinates": [ -88.685052073099413, 37.137763418951202 ] } },
{ "type": "Feature", "properties": { "point_id": 152, "connected_edge_ids": [ 223, 226, 227 ], "degree": 3 }, "geometry": { "type": "Point", "coordinates": [ -88.929593505933923, 38.271158760520862 ] } },
{ "type": "Feature", "properties": { "point_id": 153, "connected_edge_ids": [ 225, 227, 228 ], "degree": 3 }, "geometry": { "type": "Point", "coordinates": [ -88.927741599749623, 38.271052021609528 ] } },
{ "type": "Feature", "properties": { "point_id": 154, "connected_edge_ids": [ 228 ], "degree": 1 }, "geometry": { "type": "Point", "coordinates": [ -87.984130508035861, 38.228840854869098 ] } },
{ "type": "Feature", "properties": { "point_id": 155, "connected_edge_ids": [ 229, 232, 233 ], "degree": 3 }, "geometry": { "type": "Point", "coordinates": [ -88.582128588617877, 39.091718517393595 ] } },
{ "type": "Feature", "properties": { "point_id": 156, "connected_edge_ids": [ 230, 233, 234 ], "degree": 3 }, "geometry": { "type": "Point", "coordinates": [ -88.581982144686307, 39.093150027482487 ] } },
{ "type": "Feature", "properties": { "point_id": 157, "connected_edge_ids": [ 234, 235, 236 ], "degree": 3 }, "geometry": { "type": "Point", "coordinates": [ -88.508222402705258, 39.150652605275162 ] } },
{ "type": "Feature", "properties": { "point_id": 158, "connected_edge_ids": [ 235, 238, 239 ], "degree": 3 }, "geometry": { "type": "Point", "coordinates": [ -88.506348699557677, 39.150539511797682 ] } },
{ "type": "Feature", "properties": { "point_id": 159, "connected_edge_ids": [ 236, 238, 237 ], "degree": 3 }, "geometry": { "type": "Point", "coordinates": [ -88.508074382663438, 39.152084044490643 ] } },
{ "type": "Feature", "properties": { "point_id": 160, "connected_edge_ids": [ 260, 237, 261, 262 ], "degree": 4 }, "geometry": { "type": "Point", "coordinates": [ -88.305410243213956, 40.119451812810681 ] } },
{ "type": "Feature", "properties": { "point_id": 161, "connected_edge_ids": [ 239 ], "degree": 1 }, "geometry": { "type": "Point", "coordinates": [ -87.533228255507183, 39.439701348571916 ] } },
{ "type": "Feature", "properties": { "point_id": 162, "connected_edge_ids": [ 240, 245, 242, 243, 244 ], "degree": 5 }, "geometry": { "type": "Point", "coordinates": [ -88.198468494707853, 41.485568377857398 ] } },
{ "type": "Feature", "properties": { "point_id": 163, "connected_edge_ids": [ 241, 244, 246, 247, 248 ], "degree": 5 }, "geometry": { "type": "Point", "coordinates": [ -88.198309249353613, 41.487001417305066 ] } },
{ "type": "Feature", "properties": { "point_id": 164, "connected_edge_ids": [ 253, 242, 252, 254, 255 ], "degree": 5 }, "geometry": { "type": "Point", "coordinates": [ -88.196533073265968, 41.485450456291218 ] } },
{ "type": "Feature", "properties": { "point_id": 165, "connected_edge_ids": [ 243, 248, 252, 251 ], "degree": 4 }, "geometry": { "type": "Point", "coordinates": [ -88.197421151522249, 41.486225939573067 ] } },
{ "type": "Feature", "properties": { "point_id": 166, "connected_edge_ids": [ 246, 255, 251, 250, 256 ], "degree": 5 }, "geometry": { "type": "Point", "coordinates": [ -88.196373788761548, 41.486883493170048 ] } },
{ "type": "Feature", "properties": { "point_id": 167, "connected_edge_ids": [ 247, 250, 249 ], "degree": 3 }, "geometry": { "type": "Point", "coordinates": [ -88.198149997512814, 41.488434458587868 ] } },
{ "type": "Feature", "properties": { "point_id": 168, "connected_edge_ids": [ 249, 300, 301 ], "degree": 3 }, "geometry": { "type": "Point", "coordinates": [ -88.0318318622774, 41.700430758090228 ] } },
{ "type": "Feature", "properties": { "point_id": 169, "connected_edge_ids": [ 254, 256, 257 ], "degree": 3 }, "geometry": { "type": "Point", "coordinates": [ -88.194438334657633, 41.486765539863406 ] } },
{ "type": "Feature", "properties": { "point_id": 170, "connected_edge_ids": [ 257, 306, 307 ], "degree": 3 }, "geometry": { "type": "Point", "coordinates": [ -87.966298210267581, 41.539035576206018 ] } },
{ "type": "Feature", "properties": { "point_id": 171, "connected_edge_ids": [ 258, 262, 263, 264 ], "degree": 4 }, "geometry": { "type": "Point", "coordinates": [ -88.305256169019785, 40.120883510571367 ] } },
{ "type": "Feature", "properties": { "point_id": 172, "connected_edge_ids": [ 259, 264, 265, 266 ], "degree": 4 }, "geometry": { "type": "Point", "coordinates": [ -88.305102088668718, 40.122315209212772 ] } },
{ "type": "Feature", "properties": { "point_id": 173, "connected_edge_ids": [ 261, 263, 266, 267 ], "degree": 4 }, "geometry": { "type": "Point", "coordinates": [ -88.303357415745381, 40.120767319094803 ] } },
{ "type": "Feature", "properties": { "point_id": 174, "connected_edge_ids": [ 265, 268, 269 ], "degree": 3 }, "geometry": { "type": "Point", "coordinates": [ -88.285541639947169, 40.144175386190561 ] } },
{ "type": "Feature", "properties": { "point_id": 175, "connected_edge_ids": [ 267 ], "degree": 1 }, "geometry": { "type": "Point", "coordinates": [ -88.282626062912939, 40.118055656588588 ] } },
{ "type": "Feature", "properties": { "point_id": 176, "connected_edge_ids": [ 268, 272, 273 ], "degree": 3 }, "geometry": { "type": "Point", "coordinates": [ -88.283642301314032, 40.14405889628258 ] } },
{ "type": "Feature", "properties": { "point_id": 177, "connected_edge_ids": [ 269, 272, 274 ], "degree": 3 }, "geometry": { "type": "Point", "coordinates": [ -88.283487739125405, 40.145490585904831 ] } },
{ "type": "Feature", "properties": { "point_id": 178, "connected_edge_ids": [ 270, 275, 276 ], "degree": 3 }, "geometry": { "type": "Point", "coordinates": [ -88.283178596212537, 40.148353967839277 ] } },
{ "type": "Feature", "properties": { "point_id": 179, "connected_edge_ids": [ 271, 274, 275 ], "degree": 3 }, "geometry": { "type": "Point", "coordinates": [ -88.283333170758354, 40.146922276423396 ] } },
{ "type": "Feature", "properties": { "point_id": 180, "connected_edge_ids": [ 273 ], "degree": 1 }, "geometry": { "type": "Point", "coordinates": [ -87.531359845262998, 40.117270014588044 ] } },
{ "type": "Feature", "properties": { "point_id": 181, "connected_edge_ids": [ 276, 312, 370 ], "degree": 3 }, "geometry": { "type": "Point", "coordinates": [ -87.745069579776526, 41.562500406318335 ] } },
{ "type": "Feature", "properties": { "point_id": 182, "connected_edge_ids": [ 277, 280, 282 ], "degree": 3 }, "geometry": { "type": "Point", "coordinates": [ -88.054571618482967, 41.810089214864142 ] } },
{ "type": "Feature", "properties": { "point_id": 183, "connected_edge_ids": [ 278, 280, 279, 281 ], "degree": 4 }, "geometry": { "type": "Point", "coordinates": [ -88.054734538921522, 41.808655870589867 ] } },
{ "type": "Feature", "properties": { "point_id": 184, "connected_edge_ids": [ 282, 279, 285 ], "degree": 3 }, "geometry": { "type": "Point", "coordinates": [ -88.052627475638431, 41.809969082687836 ] } },
{ "type": "Feature", "properties": { "point_id": 185, "connected_edge_ids": [ 281, 303, 304 ], "degree": 3 }, "geometry": { "type": "Point", "coordinates": [ -88.030852940534956, 41.709029669428418 ] } },
{ "type": "Feature", "properties": { "point_id": 186, "connected_edge_ids": [ 283, 347, 348, 349 ], "degree": 4 }, "geometry": { "type": "Point", "coordinates": [ -87.870397183208638, 41.996376102866584 ] } },
{ "type": "Feature", "properties": { "point_id": 187, "connected_edge_ids": [ 284, 290, 291 ], "degree": 3 }, "geometry": { "type": "Point", "coordinates": [ -88.027850193013734, 41.958566151789285 ] } },
{ "type": "Feature", "properties": { "point_id": 188, "connected_edge_ids": [ 285, 294, 296, 297 ], "degree": 4 }, "geometry": { "type": "Point", "coordinates": [ -88.025064897451898, 41.828471214574151 ] } },
{ "type": "Feature", "properties": { "point_id": 189, "connected_edge_ids": [ 291, 286, 289, 292 ], "degree": 4 }, "geometry": { "type": "Point", "coordinates": [ -88.02606582168049, 41.957012047700125 ] } },
{ "type": "Feature", "properties": { "point_id": 190, "connected_edge_ids": [ 286, 287, 288 ], "degree": 3 }, "geometry": { "type": "Point", "coordinates": [ -88.028177814670741, 41.955699051413802 ] } },
{ "type": "Feature", "properties": { "point_id": 191, "connected_edge_ids": [ 290, 289, 287 ], "degree": 3 }, "geometry": { "type": "Point", "coordinates": [ -88.028014007200369, 41.957132600515394 ] } },
{ "type": "Feature", "properties": { "point_id": 192, "connected_edge_ids": [ 294, 288, 293 ], "degree": 3 }, "geometry": { "type": "Point", "coordinates": [ -88.026845972327081, 41.830025105770211 ] } },
{ "type": "Feature", "properties": { "point_id": 193, "connected_edge_ids": [ 292, 309, 310, 311 ], "degree": 4 }, "geometry": { "type": "Point", "coordinates": [ -87.923738043837659, 41.908768731946722 ] } },
{ "type": "Feature", "properties": { "point_id": 194, "connected_edge_ids": [ 297, 293, 298 ], "degree": 3 }, "geometry": { "type": "Point", "coordinates": [ -88.024901323792378, 41.829904552757164 ] } },
{ "type": "Feature", "properties": { "point_id": 195, "connected_edge_ids": [ 295, 333, 335, 336 ], "degree": 4 }, "geometry": { "type": "Point", "coordinates": [ -87.873793221970004, 42.152551413143385 ] } },
{ "type": "Feature", "properties": { "point_id": 196, "connected_edge_ids": [ 295 ], "degree": 1 }, "geometry": { "type": "Point", "coordinates": [ -87.950570569923386, 42.492468249967757 ] } },
{ "type": "Feature", "properties": { "point_id": 197, "connected_edge_ids": [ 296, 298, 299 ], "degree": 3 }, "geometry": { "type": "Point", "coordinates": [ -88.022956681952152, 41.829783970430086 ] } },
{ "type": "Feature", "properties": { "point_id": 198, "connected_edge_ids": [ 299, 317, 318 ], "degree": 3 }, "geometry": { "type": "Point", "coordinates": [ -87.923867975768189, 41.856803804897602 ] } },
{ "type": "Feature", "properties": { "point_id": 199, "connected_edge_ids": [ 300, 303, 302 ], "degree": 3 }, "geometry": { "type": "Point", "coordinates": [ -88.031016110822605, 41.707596512573645 ] } },
{ "type": "Feature", "properties": { "point_id": 200, "connected_edge_ids": [ 301, 307, 308 ], "degree": 3 }, "geometry": { "type": "Point", "coordinates": [ -87.966134112280272, 41.540468399853225 ] } },
{ "type": "Feature", "properties": { "point_id": 201, "connected_edge_ids": [ 304, 302, 305 ], "degree": 3 }, "geometry": { "type": "Point", "coordinates": [ -88.028911638671119, 41.708909192773099 ] } },
{ "type": "Feature", "properties": { "point_id": 202, "connected_edge_ids": [ 305, 338, 339 ], "degree": 3 }, "geometry": { "type": "Point", "coordinates": [ -87.905485674536465, 41.76181461240509 ] } },
{ "type": "Feature", "properties": { "point_id": 203, "connected_edge_ids": [ 306, 312, 308 ], "degree": 3 }, "geometry": { "type": "Point", "coordinates": [ -87.964197575152184, 41.540346968527338 ] } },
{ "type": "Feature", "properties": { "point_id": 204, "connected_edge_ids": [ 309, 313, 315 ], "degree": 3 }, "geometry": { "type": "Point", "coordinates": [ -87.92179138564822, 41.908646613030982 ] } },
{ "type": "Feature", "properties": { "point_id": 205, "connected_edge_ids": [ 310, 315, 316 ], "degree": 3 }, "geometry": { "type": "Point", "coordinates": [ -87.921625508964951, 41.91007994878052 ] } },
{ "type": "Feature", "properties": { "point_id": 206, "connected_edge_ids": [ 311, 313, 314 ], "degree": 3 }, "geometry": { "type": "Point", "coordinates": [ -87.921957255536014, 41.907213279411572 ] } },
{ "type": "Feature", "properties": { "point_id": 207, "connected_edge_ids": [ 314, 325, 326 ], "degree": 3 }, "geometry": { "type": "Point", "coordinates": [ -87.917821749980334, 41.875191955895318 ] } },
{ "type": "Feature", "properties": { "point_id": 208, "connected_edge_ids": [ 316, 346, 350 ], "degree": 3 }, "geometry": { "type": "Point", "coordinates": [ -87.870453787563392, 41.979052391156038 ] } },
{ "type": "Feature", "properties": { "point_id": 209, "connected_edge_ids": [ 317, 319, 320 ], "degree": 3 }, "geometry": { "type": "Point", "coordinates": [ -87.921922761981122, 41.856681695130725 ] } },
{ "type": "Feature", "properties": { "point_id": 210, "connected_edge_ids": [ 318, 319, 321 ], "degree": 3 }, "geometry": { "type": "Point", "coordinates": [ -87.92175701108782, 41.858114946777143 ] } },
{ "type": "Feature", "properties": { "point_id": 211, "connected_edge_ids": [ 339, 320, 341, 342 ], "degree": 4 }, "geometry": { "type": "Point", "coordinates": [ -87.903377226161155, 41.763125315839986 ] } },
{ "type": "Feature", "properties": { "point_id": 212, "connected_edge_ids": [ 321, 322, 323 ], "degree": 3 }, "geometry": { "type": "Point", "coordinates": [ -87.918153486980174, 41.872325409744484 ] } },
{ "type": "Feature", "properties": { "point_id": 213, "connected_edge_ids": [ 326, 322, 324, 327 ], "degree": 4 }, "geometry": { "type": "Point", "coordinates": [ -87.916041947230724, 41.873636480982057 ] } },
{ "type": "Feature", "properties": { "point_id": 214, "connected_edge_ids": [ 325, 323, 324 ], "degree": 3 }, "geometry": { "type": "Point", "coordinates": [ -87.917987621876193, 41.873758681767931 ] } },
{ "type": "Feature", "properties": { "point_id": 215, "connected_edge_ids": [ 327, 396, 397 ], "degree": 3 }, "geometry": { "type": "Point", "coordinates": [ -87.64926688926532, 41.875371872006291 ] } },
{ "type": "Feature", "properties": { "point_id": 216, "connected_edge_ids": [ 346, 328, 344, 345 ], "degree": 4 }, "geometry": { "type": "Point", "coordinates": [ -87.872235259629818, 41.980608683015525 ] } },
{ "type": "Feature", "properties": { "point_id": 217, "connected_edge_ids": [ 328 ], "degree": 1 }, "geometry": { "type": "Point", "coordinates": [ -87.895618615159037, 41.98208126253391 ] } },
{ "type": "Feature", "properties": { "point_id": 218, "connected_edge_ids": [ 329, 330, 331 ], "degree": 3 }, "geometry": { "type": "Point", "coordinates": [ -87.876081390591992, 42.149806916447524 ] } },
{ "type": "Feature", "properties": { "point_id": 219, "connected_edge_ids": [ 335, 329, 332, 334 ], "degree": 4 }, "geometry": { "type": "Point", "coordinates": [ -87.873960658541819, 42.151117727240454 ] } },
{ "type": "Feature", "properties": { "point_id": 220, "connected_edge_ids": [ 333, 330, 332 ], "degree": 3 }, "geometry": { "type": "Point", "coordinates": [ -87.875914000757007, 42.15124060278346 ] } },
{ "type": "Feature", "properties": { "point_id": 221, "connected_edge_ids": [ 348, 331, 355 ], "degree": 3 }, "geometry": { "type": "Point", "coordinates": [ -87.86828099972557, 41.997686579196731 ] } },
{ "type": "Feature", "properties": { "point_id": 222, "connected_edge_ids": [ 336, 334, 337 ], "degree": 3 }, "geometry": { "type": "Point", "coordinates": [ -87.872007323209587, 42.150994822247718 ] } },
{ "type": "Feature", "properties": { "point_id": 223, "connected_edge_ids": [ 337, 361, 369 ], "degree": 3 }, "geometry": { "type": "Point", "coordinates": [ -87.749997535009442, 41.968508613333071 ] } },
{ "type": "Feature", "properties": { "point_id": 224, "connected_edge_ids": [ 338, 341, 340 ], "degree": 3 }, "geometry": { "type": "Point", "coordinates": [ -87.903543128191657, 41.761692238269006 ] } },
{ "type": "Feature", "properties": { "point_id": 225, "connected_edge_ids": [ 342, 340, 343 ], "degree": 3 }, "geometry": { "type": "Point", "coordinates": [ -87.901600588629037, 41.761569834856154 ] } },
{ "type": "Feature", "properties": { "point_id": 226, "connected_edge_ids": [ 343, 362, 363, 364 ], "degree": 4 }, "geometry": { "type": "Point", "coordinates": [ -87.874572234217169, 41.758420078013799 ] } },
{ "type": "Feature", "properties": { "point_id": 227, "connected_edge_ids": [ 350, 344, 351 ], "degree": 3 }, "geometry": { "type": "Point", "coordinates": [ -87.870286691161311, 41.980485777128635 ] } },
{ "type": "Feature", "properties": { "point_id": 228, "connected_edge_ids": [ 345, 351, 352 ], "degree": 3 }, "geometry": { "type": "Point", "coordinates": [ -87.870119587906814, 41.98191916528193 ] } },
{ "type": "Feature", "properties": { "point_id": 229, "connected_edge_ids": [ 347, 355, 353 ], "degree": 3 }, "geometry": { "type": "Point", "coordinates": [ -87.868448178384739, 41.996253166985859 ] } },
{ "type": "Feature", "properties": { "point_id": 230, "connected_edge_ids": [ 349, 353, 354 ], "degree": 3 }, "geometry": { "type": "Point", "coordinates": [ -87.868615350186829, 41.994819756967331 ] } },
{ "type": "Feature", "properties": { "point_id": 231, "connected_edge_ids": [ 352, 356, 357 ], "degree": 3 }, "geometry": { "type": "Point", "coordinates": [ -87.867836680237218, 41.984663004695719 ] } },
{ "type": "Feature", "properties": { "point_id": 232, "connected_edge_ids": [ 354, 359, 360 ], "degree": 3 }, "geometry": { "type": "Point", "coordinates": [ -87.867502346422654, 41.987529790829967 ] } },
{ "type": "Feature", "properties": { "point_id": 233, "connected_edge_ids": [ 361, 356, 360, 358 ], "degree": 4 }, "geometry": { "type": "Point", "coordinates": [ -87.865720803346917, 41.985973421129501 ] } },
{ "type": "Feature", "properties": { "point_id": 234, "connected_edge_ids": [ 357, 359, 358 ], "degree": 3 }, "geometry": { "type": "Point", "coordinates": [ -87.8676695167578, 41.986096396670462 ] } },
{ "type": "Feature", "properties": { "point_id": 235, "connected_edge_ids": [ 362, 365, 367 ], "degree": 3 }, "geometry": { "type": "Point", "coordinates": [ -87.87262983598751, 41.758297238171394 ] } },
{ "type": "Feature", "properties": { "point_id": 236, "connected_edge_ids": [ 363, 367, 368 ], "degree": 3 }, "geometry": { "type": "Point", "coordinates": [ -87.872463310128452, 41.759730270563857 ] } },
{ "type": "Feature", "properties": { "point_id": 237, "connected_edge_ids": [ 364, 365, 366 ], "degree": 3 }, "geometry": { "type": "Point", "coordinates": [ -87.872796355039426, 41.756864207794841 ] } },
{ "type": "Feature", "properties": { "point_id": 238, "connected_edge_ids": [ 366, 390, 391 ], "degree": 3 }, "geometry": { "type": "Point", "coordinates": [ -87.687243659761577, 41.622278766147552 ] } },
{ "type": "Feature", "properties": { "point_id": 239, "connected_edge_ids": [ 368, 407, 408 ], "degree": 3 }, "geometry": { "type": "Point", "coordinates": [ -87.646859619111936, 41.846335118792219 ] } },
{ "type": "Feature", "properties": { "point_id": 240, "connected_edge_ids": [ 397, 369, 401, 403 ], "degree": 4 }, "geometry": { "type": "Point", "coordinates": [ -87.647150230208112, 41.876678541406335 ] } },
{ "type": "Feature", "properties": { "point_id": 241, "connected_edge_ids": [ 370, 371, 372 ], "degree": 3 }, "geometry": { "type": "Point", "coordinates": [ -87.733696976493988, 41.576201939937867 ] } },
{ "type": "Feature", "properties": { "point_id": 242, "connected_edge_ids": [ 371, 375, 378, 379 ], "degree": 4 }, "geometry": { "type": "Point", "coordinates": [ -87.731759862200235, 41.576076999969203 ] } },
{ "type": "Feature", "properties": { "point_id": 243, "connected_edge_ids": [ 372, 375, 373, 374 ], "degree": 4 }, "geometry": { "type": "Point", "coordinates": [ -87.733528049878629, 41.577634516164274 ] } },
{ "type": "Feature", "properties": { "point_id": 244, "connected_edge_ids": [ 373, 376, 380 ], "degree": 3 }, "geometry": { "type": "Point", "coordinates": [ -87.731421923709561, 41.578942148837797 ] } },
{ "type": "Feature", "properties": { "point_id": 245, "connected_edge_ids": [ 374, 376, 377 ], "degree": 3 }, "geometry": { "type": "Point", "coordinates": [ -87.733359116376334, 41.579067094265937 ] } },
{ "type": "Feature", "properties": { "point_id": 246, "connected_edge_ids": [ 377, 383, 384 ], "degree": 3 }, "geometry": { "type": "Point", "coordinates": [ -87.690201497615234, 41.613808908786034 ] } },
{ "type": "Feature", "properties": { "point_id": 247, "connected_edge_ids": [ 378, 381, 382 ], "degree": 3 }, "geometry": { "type": "Point", "coordinates": [ -87.729822754794583, 41.575952030815635 ] } },
{ "type": "Feature", "properties": { "point_id": 248, "connected_edge_ids": [ 379, 380, 381 ], "degree": 3 }, "geometry": { "type": "Point", "coordinates": [ -87.729653749808193, 41.577384601582061 ] } },
{ "type": "Feature", "properties": { "point_id": 249, "connected_edge_ids": [ 382, 394, 395 ], "degree": 3 }, "geometry": { "type": "Point", "coordinates": [ -87.684081700804029, 41.583097279533639 ] } },
{ "type": "Feature", "properties": { "point_id": 250, "connected_edge_ids": [ 383, 385, 386 ], "degree": 3 }, "geometry": { "type": "Point", "coordinates": [ -87.688263423823003, 41.613683308296352 ] } },
{ "type": "Feature", "properties": { "point_id": 251, "connected_edge_ids": [ 384, 386, 387, 388 ], "degree": 4 }, "geometry": { "type": "Point", "coordinates": [ -87.688093480477008, 41.615115879851167 ] } },
{ "type": "Feature", "properties": { "point_id": 252, "connected_edge_ids": [ 385, 388, 392 ], "degree": 3 }, "geometry": { "type": "Point", "coordinates": [ -87.686325356962143, 41.613557678607656 ] } },
{ "type": "Feature", "properties": { "point_id": 253, "connected_edge_ids": [ 390, 387, 389 ], "degree": 3 }, "geometry": { "type": "Point", "coordinates": [ -87.687413637770788, 41.620846185081888 ] } },
{ "type": "Feature", "properties": { "point_id": 254, "connected_edge_ids": [ 391, 389, 393 ], "degree": 3 }, "geometry": { "type": "Point", "coordinates": [ -87.685305357551414, 41.62215311996556 ] } },
{ "type": "Feature", "properties": { "point_id": 255, "connected_edge_ids": [ 395, 392, 398 ], "degree": 3 }, "geometry": { "type": "Point", "coordinates": [ -87.681974491113962, 41.58440410893764 ] } },
{ "type": "Feature", "properties": { "point_id": 256, "connected_edge_ids": [ 393, 425, 426 ], "degree": 3 }, "geometry": { "type": "Point", "coordinates": [ -87.627318055898229, 41.715111545594013 ] } },
{ "type": "Feature", "properties": { "point_id": 257, "connected_edge_ids": [ 394, 398, 399 ], "degree": 3 }, "geometry": { "type": "Point", "coordinates": [ -87.682144484925061, 41.582971590771642 ] } },
{ "type": "Feature", "properties": { "point_id": 258, "connected_edge_ids": [ 396, 401, 400, 402 ], "degree": 4 }, "geometry": { "type": "Point", "coordinates": [ -87.64732164670221, 41.875245618695772 ] } },
{ "type": "Feature", "properties": { "point_id": 259, "connected_edge_ids": [ 399, 431, 432 ], "degree": 3 }, "geometry": { "type": "Point", "coordinates": [ -87.587057513956026, 41.578209475808137 ] } },
{ "type": "Feature", "properties": { "point_id": 260, "connected_edge_ids": [ 403, 400, 404, 406 ], "degree": 4 }, "geometry": { "type": "Point", "coordinates": [ -87.64537641115642, 41.87511933607265 ] } },
{ "type": "Feature", "properties": { "point_id": 261, "connected_edge_ids": [ 402, 404, 405 ], "degree": 3 }, "geometry": { "type": "Point", "coordinates": [ -87.645547860140184, 41.87368641824046 ] } },
{ "type": "Feature", "properties": { "point_id": 262, "connected_edge_ids": [ 405, 410, 411 ], "degree": 3 }, "geometry": { "type": "Point", "coordinates": [ -87.646516901734785, 41.849200871965039 ] } },
{ "type": "Feature", "properties": { "point_id": 263, "connected_edge_ids": [ 406 ], "degree": 1 }, "geometry": { "type": "Point", "coordinates": [ -87.63353345228937, 41.87579392795309 ] } },
{ "type": "Feature", "properties": { "point_id": 264, "connected_edge_ids": [ 407, 411, 409, 412 ], "degree": 4 }, "geometry": { "type": "Point", "coordinates": [ -87.64474379276767, 41.84764170607545 ] } },
{ "type": "Feature", "properties": { "point_id": 265, "connected_edge_ids": [ 408, 410, 409 ], "degree": 3 }, "geometry": { "type": "Point", "coordinates": [ -87.646688263929533, 41.847767994344139 ] } },
{ "type": "Feature", "properties": { "point_id": 266, "connected_edge_ids": [ 412, 413, 414 ], "degree": 3 }, "geometry": { "type": "Point", "coordinates": [ -87.633077113144751, 41.846883361167578 ] } },
{ "type": "Feature", "properties": { "point_id": 267, "connected_edge_ids": [ 413, 415, 417 ], "degree": 3 }, "geometry": { "type": "Point", "coordinates": [ -87.631132691113805, 41.846756867801886 ] } },
{ "type": "Feature", "properties": { "point_id": 268, "connected_edge_ids": [ 414, 415, 416 ], "degree": 3 }, "geometry": { "type": "Point", "coordinates": [ -87.631304362091441, 41.845324014557903 ] } },
{ "type": "Feature", "properties": { "point_id": 269, "connected_edge_ids": [ 416, 422, 423 ], "degree": 3 }, "geometry": { "type": "Point", "coordinates": [ -87.624168292852701, 41.774104829900637 ] } },
{ "type": "Feature", "properties": { "point_id": 270, "connected_edge_ids": [ 417 ], "degree": 1 }, "geometry": { "type": "Point", "coordinates": [ -87.610088716037438, 41.842497864143937 ] } },
{ "type": "Feature", "properties": { "point_id": 271, "connected_edge_ids": [ 418, 419, 420 ], "degree": 3 }, "geometry": { "type": "Point", "coordinates": [ -87.624511556646723, 41.771239374009824 ] } },
{ "type": "Feature", "properties": { "point_id": 272, "connected_edge_ids": [ 423, 418, 421, 424 ], "degree": 4 }, "geometry": { "type": "Point", "coordinates": [ -87.622397580405234, 41.772545486248006 ] } },
{ "type": "Feature", "properties": { "point_id": 273, "connected_edge_ids": [ 422, 419, 421 ], "degree": 3 }, "geometry": { "type": "Point", "coordinates": [ -87.624339928257626, 41.772672100949144 ] } },
{ "type": "Feature", "properties": { "point_id": 274, "connected_edge_ids": [ 426, 420, 428, 429 ], "degree": 4 }, "geometry": { "type": "Point", "coordinates": [ -87.62520582325331, 41.716417624627233 ] } },
{ "type": "Feature", "properties": { "point_id": 275, "connected_edge_ids": [ 424 ], "degree": 1 }, "geometry": { "type": "Point", "coordinates": [ -87.523221256713029, 41.702505412501118 ] } },
{ "type": "Feature", "properties": { "point_id": 276, "connected_edge_ids": [ 425, 428, 427 ], "degree": 3 }, "geometry": { "type": "Point", "coordinates": [ -87.625377296336239, 41.7149849836808 ] } },
{ "type": "Feature", "properties": { "point_id": 277, "connected_edge_ids": [ 429, 427, 430 ], "degree": 3 }, "geometry": { "type": "Point", "coordinates": [ -87.6234365437777, 41.71485839252751 ] } },
{ "type": "Feature", "properties": { "point_id": 278, "connected_edge_ids": [ 432, 430, 434, 435 ], "degree": 4 }, "geometry": { "type": "Point", "coordinates": [ -87.584948647766765, 41.579514707133569 ] } },
{ "type": "Feature", "properties": { "point_id": 279, "connected_edge_ids": [ 431, 434, 433 ], "degree": 3 }, "geometry": { "type": "Point", "coordinates": [ -87.585120607356316, 41.578082325219697 ] } },
{ "type": "Feature", "properties": { "point_id": 280, "connected_edge_ids": [ 435, 433, 436 ], "degree": 3 }, "geometry": { "type": "Point", "coordinates": [ -87.583183707765997, 41.577955145453863 ] } },
{ "type": "Feature", "properties": { "point_id": 281, "connected_edge_ids": [ 436 ], "degree": 1 }, "geometry": { "type": "Point", "coordinates": [ -87.522623646436401, 41.578294985377035 ] } }
]
}
