{
"type": "FeatureCollection",
"name": "IL_STLArea",
"crs": { "type": "name", "properties": { "name": "urn:ogc:def:crs:EPSG::5070" } },
"features": [
{ "type": "Feature", "properties": { "NAME": "ST. CLAIR", "ID": "ils_stclair", "STATE": "IL", "FIPS": "17163", "VERSION": 12, "START_DATE": "1827-01-09T00:00:00", "END_DATE": "2000-12-31T00:00:00", "CHANGE": "ST. CLAIR lost to MONROE.", "CITATION": "(Ill. Laws 1826-1827, pp. 7-8)", "START_N": 18270109, "END_N": 20001231, "AREA_SQMI": 674.0, "DATASET": "IL_Historical_Counties", "CNTY_TYPE": "County", "FULL_NAME": "ST. CLAIR" }, "geometry": { "type": "Polygon", "coordinates": [ [ [ 502332.413026165624615, 1752284.026144030038267 ], [ 502416.941264635650441, 1752278.775886128889397 ], [ 502513.763943194760941, 1752287.084010222461075 ], [ 502621.275911945325788, 1752292.90601593372412 ], [ 503175.822578811901622, 1752309.83143041562289 ], [ 503216.756760815042071, 1752315.494908198481426 ], [ 503716.37194380024448, 1752331.097889122786 ], [ 503962.445201202528551, 1752340.645895309979096 ], [ 504225.134856805612799, 1752346.846310104476288 ], [ 504277.666705516923685, 1752352.107343738432974 ], [ 504466.429775098396931, 1752363.86348774866201 ], [ 505077.910102144174743, 1752380.612580860499293 ], [ 505136.425720873696264, 1752416.23288713907823 ], [ 505532.539287739840802, 1752431.056148525793105 ], [ 506423.938695093384013, 1752470.158823213772848 ], [ 506687.293461025867146, 1752479.62404354242608 ], [ 508476.742150679114275, 1752564.993695266079158 ], [ 508823.514045310090296, 1752578.929705953923985 ], [ 508926.459880201262422, 1752579.047805201727897 ], [ 509070.704275990428869, 1752590.048842219403014 ], [ 509399.884776872873772, 1752604.935547285480425 ], [ 509462.621563808585051, 1752605.812201640103012 ], [ 509503.842432152538095, 1752609.616096151527017 ], [ 509674.375972639594693, 1752617.324695059563965 ], [ 509810.880879929405637, 1752626.396450527012348 ], [ 510026.862347693357151, 1752632.454156717751175 ], [ 511541.216838793945499, 1752653.273641887353733 ], [ 511542.249271711043548, 1752653.338235111441463 ], [ 511858.279447081498802, 1752657.618333911290392 ], [ 512565.728386025410146, 1752695.423601567046717 ], [ 514087.041544420993887, 1752776.560900629963726 ], [ 514267.391426382993814, 1752787.565714551368728 ], [ 515489.310710184567142, 1752853.95721831638366 ], [ 515511.611872901383322, 1752852.330962276784703 ], [ 516239.935655018838588, 1752896.151308208471164 ], [ 516332.813981472107116, 1752899.882346421713009 ], [ 517579.675705840054434, 1752968.050053958082572 ], [ 517757.315996921330225, 1752975.478940579574555 ], [ 517910.170649574080016, 1752989.652607193216681 ], [ 518116.258044371323194, 1752997.992873080540448 ], [ 521041.087380205222871, 1753152.419245985336602 ], [ 522981.624414866382722, 1753255.429843342863023 ], [ 523057.065472606220283, 1753261.716104159131646 ], [ 523324.258714199881069, 1753274.996037643868476 ], [ 524348.071466448018327, 1753320.714635517913848 ], [ 526393.604480522451922, 1753400.608923857565969 ], [ 526708.076367945992388, 1753410.86635515652597 ], [ 526798.271672809147276, 1753410.724789893021807 ], [ 528459.079212684067897, 1753486.460320700425655 ], [ 529270.954842590377666, 1753523.704587248852476 ], [ 530226.639554933062755, 1753556.090449472889304 ], [ 530269.387501643737778, 1753558.975366032216698 ], [ 530312.558309808839113, 1753562.000258781481534 ], [ 530356.368679542443715, 1753553.834676710423082 ], [ 539392.723546902416274, 1754029.584382421104237 ], [ 540512.504751072730869, 1754096.357073774095625 ], [ 542112.163984590792097, 1754213.627768190810457 ], [ 542159.760643802466802, 1753468.53705115406774 ], [ 542169.532406051177531, 1753433.238651302177459 ], [ 542231.702159722219221, 1752576.556837249780074 ], [ 542360.006099589169025, 1750950.737758404342458 ], [ 542372.708410005783662, 1750849.132736882893369 ], [ 542555.862828207784332, 1748606.311729282140732 ], [ 542605.890268377144821, 1747818.132501264568418 ], [ 542646.434013115242124, 1747283.758076034020633 ], [ 542744.859912757063285, 1746069.676852816483006 ], [ 542872.76329840044491, 1744451.691425925586373 ], [ 542993.683997290208936, 1742899.968157136114314 ], [ 542991.44964427978266, 1742820.175821959739551 ], [ 542996.957618970656767, 1742812.790191872278228 ], [ 543117.512656130362302, 1741230.150670115370303 ], [ 543128.870541604002938, 1741133.286625139415264 ], [ 543134.262729319976643, 1741015.469896787079051 ], [ 543154.44182294071652, 1740785.626944944960997 ], [ 543156.194154515513219, 1740721.376318931346759 ], [ 543166.746823457418941, 1740675.795085663674399 ], [ 543170.353889528894797, 1740583.584214287577197 ], [ 543179.98222942405846, 1740476.270792436087504 ], [ 543245.619969664723612, 1739529.837392896879464 ], [ 543288.548864309792407, 1738959.673828723840415 ], [ 543355.129926058696583, 1737920.740388134494424 ], [ 543418.867930410080589, 1737109.991578514687717 ], [ 543436.005099375848658, 1736882.979779212968424 ], [ 543442.89788724121172, 1736768.632546568289399 ], [ 543546.076067381422035, 1735499.147835966432467 ], [ 543607.897178760380484, 1734683.441555800614879 ], [ 543708.462551841745153, 1733174.064640404656529 ], [ 543702.060450613033026, 1733155.666621187701821 ], [ 543716.609217386692762, 1733051.263278731377795 ], [ 543732.322685377555899, 1732849.656689855270088 ], [ 543767.492218612344004, 1732399.174883737927303 ], [ 543783.137217074981891, 1732279.566977181704715 ], [ 543828.255638710223138, 1731530.265021182829514 ], [ 543880.322533411788754, 1730667.068960711592808 ], [ 543891.730575212044641, 1730608.738552135182545 ], [ 543886.770185880595818, 1730569.879205542383716 ], [ 543928.572664446779527, 1729904.494941769866273 ], [ 544086.58742445812095, 1727756.497128021204844 ], [ 544166.322157657356001, 1726823.805680473335087 ], [ 544294.826359688537195, 1724892.114564198534936 ], [ 544346.890560645377263, 1724147.88013646309264 ], [ 544381.857887186808512, 1723697.947357796831056 ], [ 544384.363296194002032, 1723546.464031609240919 ], [ 544399.099596096551977, 1723410.620127303060144 ], [ 544436.004109300207347, 1722902.739827220328152 ], [ 544495.141933490405791, 1722123.814956198679283 ], [ 544541.159103485755622, 1721482.52628537081182 ], [ 544538.782419297727756, 1721294.772620369214565 ], [ 544581.783412813325413, 1720914.682683844584972 ], [ 544609.626331456005573, 1720646.706355745205656 ], [ 544643.534522877074778, 1720024.497550568310544 ], [ 544682.441065426915884, 1719251.083532825112343 ], [ 544719.917898442479782, 1718724.145411780569702 ], [ 544743.946518340148032, 1718515.003297879593447 ], [ 544853.479182728449814, 1716756.848857723176479 ], [ 544964.964180289767683, 1715119.695320331724361 ], [ 545064.672040522564203, 1713810.559125684434548 ], [ 545064.452989913872443, 1713700.009363431250677 ], [ 545072.144459851435386, 1713697.936031973455101 ], [ 545108.989861342590302, 1713219.822103733196855 ], [ 545178.493111192598008, 1712024.385672959964722 ], [ 545210.924068009713665, 1711612.817096574464813 ], [ 545259.294104890082963, 1710734.554179226979613 ], [ 545272.388868156354874, 1710602.646161344368011 ], [ 545298.705325435730629, 1710367.03400240582414 ], [ 545329.933237981866114, 1709898.995216134469956 ], [ 545399.409879580838606, 1708925.190941899549216 ], [ 545409.959913893952034, 1708801.539162498200312 ], [ 545417.949918712256476, 1708758.37206960702315 ], [ 545496.126749554648995, 1707584.07127613783814 ], [ 545606.098887922940776, 1706309.09732947871089 ], [ 545615.016441443702206, 1706176.013905116822571 ], [ 545608.676102887024172, 1706157.620072931284085 ], [ 545612.884738457389176, 1706132.175293747801334 ], [ 545638.622231282992288, 1705897.536487718112767 ], [ 545665.846044796402566, 1705601.213754012482241 ], [ 545671.143420652486384, 1705491.255236436612904 ], [ 544840.860395150375552, 1705437.551436095265672 ], [ 544425.976500725839287, 1705410.74815845489502 ], [ 543650.333529818220995, 1705364.04017848148942 ], [ 543248.491502791177481, 1705342.427266822895035 ], [ 543216.030745103140362, 1705337.811726909829304 ], [ 541963.431967844255269, 1705264.601790870307013 ], [ 539999.230849180254154, 1705164.820575341815129 ], [ 539960.175418444443494, 1705161.357548913452774 ], [ 539883.874405974172987, 1705154.663198099704459 ], [ 538844.315091671072878, 1705099.73750773537904 ], [ 538626.038296660408378, 1705073.981212769402191 ], [ 537899.471433323342353, 1705021.147308739833534 ], [ 537733.320925954845734, 1705016.908799342112616 ], [ 536522.708963541896082, 1704946.377217248547822 ], [ 535905.839390910346992, 1704910.537269189488143 ], [ 535438.022807432571426, 1704885.232944106217474 ], [ 534981.729315530858003, 1704860.4802367745433 ], [ 532939.200266455649398, 1704765.719098313245922 ], [ 532829.202334148343652, 1704753.312734357547015 ], [ 532676.456974649452604, 1704750.157300406368449 ], [ 532651.909328730078414, 1704745.422428491758183 ], [ 530790.457212900626473, 1704659.44380062748678 ], [ 528678.191629649605602, 1704542.93482295400463 ], [ 528603.409419998060912, 1704705.929346331628039 ], [ 528403.589988508494571, 1704868.864176884992048 ], [ 528280.423268603044562, 1704983.039643763797358 ], [ 528199.173816575319506, 1705165.726379212457687 ], [ 528187.800989379873499, 1705252.153555173892528 ], [ 528214.7976402817294, 1705305.328515737550333 ], [ 528269.778065652470104, 1705350.304997426457703 ], [ 528343.952502609463409, 1705357.541145073482767 ], [ 528479.190310667967424, 1705366.455578626599163 ], [ 528607.749488529050723, 1705369.77636495186016 ], [ 528714.034669672837481, 1705419.514123707776889 ], [ 528779.070416247472167, 1705504.002430694643408 ], [ 528807.701840951107442, 1705618.160639638546854 ], [ 528782.726071652257815, 1705722.806573595385998 ], [ 528701.844249291112646, 1705856.429855049820617 ], [ 528597.813829246792011, 1705960.93570411670953 ], [ 528444.051673098932952, 1706082.238944292766973 ], [ 528279.73735853517428, 1706200.171231969026849 ], [ 528132.216420605196618, 1706208.21629043458961 ], [ 528091.62351528252475, 1706212.572804164141417 ], [ 527974.168988284422085, 1706216.486593988025561 ], [ 527899.956348345265724, 1706254.626668860204518 ], [ 527762.689987090416253, 1706366.892236965708435 ], [ 527736.327048667590134, 1706435.173237539362162 ], [ 527756.206265769083984, 1706517.990801460342482 ], [ 527814.46571920462884, 1706582.156609338242561 ], [ 527896.065176418283954, 1706627.829025817336515 ], [ 527902.245003195595928, 1706716.955809179926291 ], [ 527841.056056399247609, 1706804.003755702404305 ], [ 527698.393904833355919, 1707137.186640247236937 ], [ 527638.818981736782007, 1707256.012590537313372 ], [ 527508.536124315462075, 1707296.28544926806353 ], [ 527459.657300211954862, 1707370.310698859160766 ], [ 527429.558441451052204, 1707514.503080947324634 ], [ 527380.476818408351392, 1707579.53038865653798 ], [ 527153.12748333485797, 1707653.005334045737982 ], [ 527082.826729900203645, 1707699.489332453813404 ], [ 527024.530203578062356, 1707726.751188674010336 ], [ 526978.725455207633786, 1707790.867526757763699 ], [ 526954.606279016588815, 1707816.164991022553295 ], [ 526925.264268152299337, 1707851.123866488691419 ], [ 526908.113784814951941, 1707889.672103313961998 ], [ 526904.593267664080486, 1707922.916566163301468 ], [ 526930.484846644918434, 1707978.375330802053213 ], [ 527004.223374440916814, 1708023.198774006683379 ], [ 527078.182949099806137, 1708084.884493910009041 ], [ 527121.576561704045162, 1708100.358487788820639 ], [ 527151.590230272850022, 1708136.202462066197768 ], [ 527184.701433260925114, 1708211.780454569263384 ], [ 527190.660510912304744, 1708227.212957456940785 ], [ 527196.217431094148196, 1708247.561583020724356 ], [ 527197.147026470629498, 1708315.684741633012891 ], [ 527191.790949785616249, 1708430.352923604194075 ], [ 527163.702558096498251, 1708529.748409632826224 ], [ 527095.638650879263878, 1708720.252163832774386 ], [ 526969.253304956713691, 1708851.870109939249232 ], [ 526780.139834280824289, 1709058.427564676385373 ], [ 526675.753327355370857, 1709146.420664197066799 ], [ 526665.161993066547439, 1709157.198244953760877 ], [ 526577.586182967643254, 1709245.820313529344276 ], [ 526439.254011744400486, 1709438.116675694938749 ], [ 526390.214107773266733, 1709509.553445496829227 ], [ 526333.046063515357673, 1709583.165534166852012 ], [ 526284.075100953574292, 1709642.701808796031401 ], [ 526216.476280210423283, 1709759.898984088562429 ], [ 526198.808120340458117, 1709803.918625983875245 ], [ 526197.166545450687408, 1709825.490403689909726 ], [ 526201.830223807599396, 1709844.882599107921124 ], [ 526215.825042978278361, 1709859.593383262865245 ], [ 526364.659180508577265, 1709976.385013088816777 ], [ 526395.851726272259839, 1709997.813326807925478 ], [ 526420.214890282950364, 1710026.891070685582235 ], [ 526438.814624386141077, 1710061.889411105774343 ], [ 526443.117126065888442, 1710119.44598059146665 ], [ 526435.223964301636443, 1710153.196674227947369 ], [ 526414.906473493669182, 1710187.050104053225368 ], [ 526386.850205346243456, 1710204.796051877783611 ], [ 526341.226248916471377, 1710209.399235755437985 ], [ 526157.702661764575168, 1710162.493406855268404 ], [ 526107.732485812739469, 1710165.808810319053009 ], [ 526076.910549364052713, 1710186.074303843779489 ], [ 526056.508159427903593, 1710219.923084120731801 ], [ 526061.948656409163959, 1710252.95508044003509 ], [ 526078.133765710401349, 1710284.990112562198192 ], [ 526180.554564114892855, 1710428.122333081904799 ], [ 526217.212015729746781, 1710459.109818753553554 ], [ 526258.448017059010454, 1710533.856782154645771 ], [ 526289.439796941238455, 1710600.422830332070589 ], [ 526301.16654354147613, 1710699.337634016526863 ], [ 526312.195950549445115, 1710822.69263004232198 ], [ 526332.389801237848587, 1710885.647220426704735 ], [ 526438.161216618027538, 1711124.017226224532351 ], [ 526449.266041564638726, 1711246.141986439935863 ], [ 526454.667552966857329, 1711359.702361825387925 ], [ 526413.531137404381298, 1711523.406769834924489 ], [ 526412.766464509419166, 1711601.754216467496008 ], [ 526417.522712562000379, 1711644.065024501876906 ], [ 526438.602520133601502, 1711695.845282091293484 ], [ 526464.123433665954508, 1711735.218454210786149 ], [ 526484.261408788501285, 1711752.906809501349926 ], [ 526611.528013784089126, 1711702.994543078355491 ], [ 526673.666426789946854, 1711654.637718028156087 ], [ 526706.766977505525574, 1711650.244980063289404 ], [ 526746.944421654916368, 1711649.226233266061172 ], [ 526851.363101443974301, 1711686.245749439811334 ], [ 526915.141918970970437, 1711722.008379907580093 ], [ 526991.586854168097489, 1711730.841711804969236 ], [ 527049.076652158983052, 1711722.51103706820868 ], [ 527088.314170370227657, 1711710.426677552284673 ], [ 527097.578281515627168, 1711702.709507912164554 ], [ 527110.658030706457794, 1711682.88230119086802 ], [ 527134.682906219502911, 1711635.902751829707995 ], [ 527152.357089140685275, 1711578.295053620822728 ], [ 527156.220494550769217, 1711528.899025249760598 ], [ 527156.344561247038655, 1711480.947862594388425 ], [ 527150.279007267905399, 1711433.385852777864784 ], [ 527131.740463796653785, 1711386.708485447103158 ], [ 527103.412310574087314, 1711351.870350305456668 ], [ 527059.872937214793637, 1711318.639976915670559 ], [ 526843.962109241518192, 1711212.583228361327201 ], [ 526718.849295969353989, 1711154.245537068229169 ], [ 526644.996959187788889, 1711114.357410237193108 ], [ 526605.034406067337841, 1711076.753913515014574 ], [ 526582.164445223286748, 1711061.024307319661602 ], [ 526579.338755304808728, 1711037.369223665213212 ], [ 526584.506566580152139, 1710998.72675035498105 ], [ 526598.813670239993371, 1710944.833368475083262 ], [ 526641.129827053402551, 1710865.779052143683657 ], [ 526671.220590244047344, 1710837.943697758484632 ], [ 526872.986023873090744, 1710766.639589380705729 ], [ 527022.23857805703301, 1710730.27230126853101 ], [ 527147.096489684307016, 1710710.088817213429138 ], [ 527283.969767717528157, 1710696.181589186890051 ], [ 527364.149155571707524, 1710702.449472706299275 ], [ 527451.731283841887489, 1710716.493832247564569 ], [ 527556.349794699344784, 1710765.44007667992264 ], [ 527635.848861693404615, 1710826.926837889477611 ], [ 527784.377101858728565, 1710970.907648512395099 ], [ 527814.337447798345238, 1711030.338134908583015 ], [ 527870.325596131617203, 1711167.142277814215049 ], [ 527924.262437057797797, 1711329.086502515943721 ], [ 527945.806873720139265, 1711405.947712205117568 ], [ 527921.782641674857587, 1711693.396217421162874 ], [ 527922.683939032605849, 1711738.830244863638654 ], [ 527964.221036359202117, 1711854.490030705695972 ], [ 527985.527667967136949, 1711945.825140337925404 ], [ 527984.837632958777249, 1712001.153191896853969 ], [ 527961.349567572004162, 1712051.87148504331708 ], [ 527909.604601397993974, 1712111.332164853578433 ], [ 527802.237992425216362, 1712216.302660776302218 ], [ 527675.990300253848545, 1712361.169835231732577 ], [ 527544.709849358187057, 1712502.00908729317598 ], [ 527500.350064174388535, 1712570.931518932571635 ], [ 527486.401185434893705, 1712636.752212320454419 ], [ 527500.558271219953895, 1712705.612823020434007 ], [ 527658.409180808113888, 1712964.755605387035757 ], [ 527669.022133691585623, 1713009.0162345955614 ], [ 527672.438544151955284, 1713057.195045276312158 ], [ 527655.617626518243924, 1713102.838622548384592 ], [ 527575.956201385939494, 1713195.663243414601311 ], [ 527503.1419823350152, 1713260.287340955343097 ], [ 527456.717694606399164, 1713291.114104162435979 ], [ 527416.658508472610265, 1713339.084940460277721 ], [ 527353.593366926419549, 1713401.977425046032295 ], [ 527186.308949421509169, 1713615.874591497937217 ], [ 527119.305340639548376, 1713732.090952528640628 ], [ 527024.737558571738191, 1713945.153356408001855 ], [ 527004.368952490855008, 1714015.055379055207595 ], [ 526958.237813781248406, 1714099.590708328178152 ], [ 526926.733770875027403, 1714141.485645986394957 ], [ 526864.341444607474841, 1714207.569311024155468 ], [ 525767.047231766511686, 1714142.882018742151558 ], [ 521759.368105778878089, 1713908.252299707382917 ], [ 519467.694807671767194, 1713800.534233565442264 ], [ 519349.1198848838103, 1713798.091193711385131 ], [ 518902.261948280327488, 1713774.346070854226127 ], [ 517424.509179224085528, 1713706.745077752741054 ], [ 516767.240231312753167, 1713676.717414186568931 ], [ 516241.403008464956656, 1713644.780469320714474 ], [ 516233.721823520725593, 1713768.397358154179528 ], [ 516140.66244605864631, 1715261.740346634294838 ], [ 510954.275373452052008, 1720036.602999062743038 ], [ 510283.361863076686859, 1720653.302188046043739 ], [ 510221.807631456817035, 1720706.188744908198714 ], [ 509839.310939611343201, 1721064.138265941059217 ], [ 508993.562951460189652, 1721842.457216805312783 ], [ 507965.201155851129442, 1722792.374161153100431 ], [ 507945.893224823579658, 1722814.425350144738331 ], [ 507717.331802214030176, 1723021.51386663550511 ], [ 507673.961044713796582, 1723047.242679693037644 ], [ 507611.688988916459493, 1723057.65254343720153 ], [ 507605.8308863787679, 1723059.873086581937969 ], [ 506651.301591095223557, 1724019.220260033383965 ], [ 506306.905083663354162, 1724368.663050157250836 ], [ 506167.482192238036077, 1724506.050124943256378 ], [ 506056.309529942343943, 1724612.614850011654198 ], [ 505979.36988786153961, 1725902.123390668071806 ], [ 505962.727526668226346, 1726219.691227791598067 ], [ 505180.71234598668525, 1726952.307884271489456 ], [ 504323.052742580941413, 1727749.514473753981292 ], [ 504008.137097554048523, 1728047.509934521978721 ], [ 503908.097914112906437, 1728137.601883654482663 ], [ 503749.275749164400622, 1728290.676549592288211 ], [ 503161.387598392204382, 1728834.377211831277236 ], [ 502826.092276784533169, 1729137.001895693363622 ], [ 502449.590838851523586, 1729482.144750195089728 ], [ 502243.189680143666919, 1729676.237937118159607 ], [ 502062.840636832988821, 1729836.782088151434436 ], [ 501468.136682456068229, 1730382.306825209408998 ], [ 501173.770834326045588, 1730649.202122112270445 ], [ 500897.366963067965116, 1730905.862395608797669 ], [ 500475.834933391015511, 1731290.6700374558568 ], [ 499656.441474372637458, 1732044.604853942757472 ], [ 499249.170540268882178, 1732416.076415649615228 ], [ 499128.57472657825565, 1732517.095951763913035 ], [ 499082.292476813017856, 1732552.120893060928211 ], [ 498697.780228252289817, 1732886.148853812133893 ], [ 498484.925345788360573, 1733068.254775952547789 ], [ 495118.421230487292632, 1736118.392074284842238 ], [ 495240.62991475436138, 1736530.027446497231722 ], [ 495367.298640910186805, 1737009.310042302822694 ], [ 495546.781366605951916, 1737334.582053453894332 ], [ 495593.675247041683178, 1737416.023213364649564 ], [ 496238.900841813185252, 1738903.543554756324738 ], [ 496377.639901807706337, 1739327.43301033321768 ], [ 496715.828347771370318, 1739740.962383593199775 ], [ 496934.704412359104026, 1740124.807886763475835 ], [ 497105.935180658125319, 1740438.392049313290045 ], [ 498138.231142737611663, 1742376.435009681386873 ], [ 498161.437330928165466, 1742422.764703507302329 ], [ 498267.295513197372202, 1742530.271706537343562 ], [ 498332.80431465851143, 1742590.406254317378625 ], [ 498515.503396087617148, 1742713.824171887943521 ], [ 498782.291308088577352, 1742876.057986999163404 ], [ 499012.872280733194202, 1743142.773856260348111 ], [ 499315.31908431428019, 1743492.487109140492976 ], [ 499634.162219924619421, 1743792.681069421814755 ], [ 499785.98680216568755, 1743925.47503563342616 ], [ 499937.806403807655443, 1744058.271807042881846 ], [ 499993.652584439027123, 1744134.675246188417077 ], [ 500049.504501986841206, 1744210.967184527078643 ], [ 500458.034526134259067, 1744741.380929828388616 ], [ 500788.934236002038233, 1745266.842826713109389 ], [ 501057.841024482331704, 1745957.081657683243975 ], [ 501184.350032279326115, 1746290.489184079691768 ], [ 501316.02995547442697, 1746680.364483057288453 ], [ 501331.279405503184535, 1746714.987834920408204 ], [ 501376.762698981154244, 1747099.583838068414479 ], [ 501464.685157481872011, 1747498.011167801450938 ], [ 501701.278167486714665, 1748714.09479523380287 ], [ 501722.071341569360811, 1748939.964287822367623 ], [ 501738.579882211226504, 1749232.837064255494624 ], [ 501732.88846054096939, 1749514.353712141280994 ], [ 501721.530141834460665, 1750074.131850009784102 ], [ 501702.629658466845285, 1750241.418085920857266 ], [ 501701.257103661599103, 1750263.79330834094435 ], [ 501467.99180461425567, 1751319.34008713089861 ], [ 501294.793072406144347, 1752102.995972788194194 ], [ 501272.097873627499212, 1752191.442024289397523 ], [ 501609.194122310495004, 1752223.568844852270558 ], [ 501932.349266945093405, 1752249.239010327495635 ], [ 502332.413026165624615, 1752284.026144030038267 ] ] ] } },
{ "type": "Feature", "properties": { "NAME": "MONROE", "ID": "ils_monroe", "STATE": "IL", "FIPS": "17133", "VERSION": 3, "START_DATE": "1827-01-09T00:00:00", "END_DATE": "2000-12-31T00:00:00", "CHANGE": "MONROE gained from ST. CLAIR.", "CITATION": "(Ill. Laws 1826-1827, pp. 7-8)", "START_N": 18270109, "END_N": 20001231, "AREA_SQMI": 398.0, "DATASET": "IL_Historical_Counties", "CNTY_TYPE": "County", "FULL_NAME": "MONROE" }, "geometry": { "type": "Polygon", "coordinates": [ [ [ 527964.221036359202117, 1711854.490030705695972 ], [ 527922.683939032605849, 1711738.830244863638654 ], [ 527921.782641674857587, 1711693.396217421162874 ], [ 527945.806873720139265, 1711405.947712205117568 ], [ 527924.262437057797797, 1711329.086502515943721 ], [ 527870.325596131617203, 1711167.142277814215049 ], [ 527814.337447798345238, 1711030.338134908583015 ], [ 527784.377101858728565, 1710970.907648512395099 ], [ 527635.848861693404615, 1710826.926837889477611 ], [ 527556.349794699344784, 1710765.44007667992264 ], [ 527451.731283841887489, 1710716.493832247564569 ], [ 527364.149155571707524, 1710702.449472706299275 ], [ 527283.969767717528157, 1710696.181589186890051 ], [ 527147.096489684307016, 1710710.088817213429138 ], [ 527022.23857805703301, 1710730.27230126853101 ], [ 526872.986023873090744, 1710766.639589380705729 ], [ 526671.220590244047344, 1710837.943697758484632 ], [ 526641.129827053402551, 1710865.779052143683657 ], [ 526598.813670239993371, 1710944.833368475083262 ], [ 526584.506566580152139, 1710998.72675035498105 ], [ 526579.338755304808728, 1711037.369223665213212 ], [ 526582.164445223286748, 1711061.024307319661602 ], [ 526605.034406067337841, 1711076.753913515014574 ], [ 526644.996959187788889, 1711114.357410237193108 ], [ 526718.849295969353989, 1711154.245537068229169 ], [ 526843.962109241518192, 1711212.583228361327201 ], [ 527059.872937214793637, 1711318.639976915670559 ], [ 527103.412310574087314, 1711351.870350305456668 ], [ 527131.740463796653785, 1711386.708485447103158 ], [ 527150.279007267905399, 1711433.385852777864784 ], [ 527156.344561247038655, 1711480.947862594388425 ], [ 527156.220494550769217, 1711528.899025249760598 ], [ 527152.357089140685275, 1711578.295053620822728 ], [ 527134.682906219502911, 1711635.902751829707995 ], [ 527110.658030706457794, 1711682.88230119086802 ], [ 527097.578281515627168, 1711702.709507912164554 ], [ 527088.314170370227657, 1711710.426677552284673 ], [ 527049.076652158983052, 1711722.51103706820868 ], [ 526991.586854168097489, 1711730.841711804969236 ], [ 526915.141918970970437, 1711722.008379907580093 ], [ 526851.363101443974301, 1711686.245749439811334 ], [ 526746.944421654916368, 1711649.226233266061172 ], [ 526706.766977505525574, 1711650.244980063289404 ], [ 526673.666426789946854, 1711654.637718028156087 ], [ 526611.528013784089126, 1711702.994543078355491 ], [ 526484.261408788501285, 1711752.906809501349926 ], [ 526464.123433665954508, 1711735.218454210786149 ], [ 526438.602520133601502, 1711695.845282091293484 ], [ 526417.522712562000379, 1711644.065024501876906 ], [ 526412.766464509419166, 1711601.754216467496008 ], [ 526413.531137404381298, 1711523.406769834924489 ], [ 526454.667552966857329, 1711359.702361825387925 ], [ 526449.266041564638726, 1711246.141986439935863 ], [ 526438.161216618027538, 1711124.017226224532351 ], [ 526332.389801237848587, 1710885.647220426704735 ], [ 526312.195950549445115, 1710822.69263004232198 ], [ 526301.16654354147613, 1710699.337634016526863 ], [ 526289.439796941238455, 1710600.422830332070589 ], [ 526258.448017059010454, 1710533.856782154645771 ], [ 526217.212015729746781, 1710459.109818753553554 ], [ 526180.554564114892855, 1710428.122333081904799 ], [ 526078.133765710401349, 1710284.990112562198192 ], [ 526061.948656409163959, 1710252.95508044003509 ], [ 526056.508159427903593, 1710219.923084120731801 ], [ 526076.910549364052713, 1710186.074303843779489 ], [ 526107.732485812739469, 1710165.808810319053009 ], [ 526157.702661764575168, 1710162.493406855268404 ], [ 526341.226248916471377, 1710209.399235755437985 ], [ 526386.850205346243456, 1710204.796051877783611 ], [ 526414.906473493669182, 1710187.050104053225368 ], [ 526435.223964301636443, 1710153.196674227947369 ], [ 526443.117126065888442, 1710119.44598059146665 ], [ 526438.814624386141077, 1710061.889411105774343 ], [ 526420.214890282950364, 1710026.891070685582235 ], [ 526395.851726272259839, 1709997.813326807925478 ], [ 526364.659180508577265, 1709976.385013088816777 ], [ 526215.825042978278361, 1709859.593383262865245 ], [ 526201.830223807599396, 1709844.882599107921124 ], [ 526197.166545450687408, 1709825.490403689909726 ], [ 526198.808120340458117, 1709803.918625983875245 ], [ 526216.476280210423283, 1709759.898984088562429 ], [ 526284.075100953574292, 1709642.701808796031401 ], [ 526333.046063515357673, 1709583.165534166852012 ], [ 526390.214107773266733, 1709509.553445496829227 ], [ 526439.254011744400486, 1709438.116675694938749 ], [ 526577.586182967643254, 1709245.820313529344276 ], [ 526665.161993066547439, 1709157.198244953760877 ], [ 526675.753327355370857, 1709146.420664197066799 ], [ 526780.139834280824289, 1709058.427564676385373 ], [ 526969.253304956713691, 1708851.870109939249232 ], [ 527095.638650879263878, 1708720.252163832774386 ], [ 527163.702558096498251, 1708529.748409632826224 ], [ 527191.790949785616249, 1708430.352923604194075 ], [ 527197.147026470629498, 1708315.684741633012891 ], [ 527196.217431094148196, 1708247.561583020724356 ], [ 527190.660510912304744, 1708227.212957456940785 ], [ 527184.701433260925114, 1708211.780454569263384 ], [ 527151.590230272850022, 1708136.202462066197768 ], [ 527121.576561704045162, 1708100.358487788820639 ], [ 527078.182949099806137, 1708084.884493910009041 ], [ 527004.223374440916814, 1708023.198774006683379 ], [ 526930.484846644918434, 1707978.375330802053213 ], [ 526904.593267664080486, 1707922.916566163301468 ], [ 526908.113784814951941, 1707889.672103313961998 ], [ 526925.264268152299337, 1707851.123866488691419 ], [ 526954.606279016588815, 1707816.164991022553295 ], [ 526978.725455207633786, 1707790.867526757763699 ], [ 527024.530203578062356, 1707726.751188674010336 ], [ 527082.826729900203645, 1707699.489332453813404 ], [ 527153.12748333485797, 1707653.005334045737982 ], [ 527380.476818408351392, 1707579.53038865653798 ], [ 527429.558441451052204, 1707514.503080947324634 ], [ 527459.657300211954862, 1707370.310698859160766 ], [ 527508.536124315462075, 1707296.28544926806353 ], [ 527638.818981736782007, 1707256.012590537313372 ], [ 527698.393904833355919, 1707137.186640247236937 ], [ 527841.056056399247609, 1706804.003755702404305 ], [ 527902.245003195595928, 1706716.955809179926291 ], [ 527896.065176418283954, 1706627.829025817336515 ], [ 527814.46571920462884, 1706582.156609338242561 ], [ 527756.206265769083984, 1706517.990801460342482 ], [ 527736.327048667590134, 1706435.173237539362162 ], [ 527762.689987090416253, 1706366.892236965708435 ], [ 527899.956348345265724, 1706254.626668860204518 ], [ 527974.168988284422085, 1706216.486593988025561 ], [ 528091.62351528252475, 1706212.572804164141417 ], [ 528132.216420605196618, 1706208.21629043458961 ], [ 528279.73735853517428, 1706200.171231969026849 ], [ 528444.051673098932952, 1706082.238944292766973 ], [ 528597.813829246792011, 1705960.93570411670953 ], [ 528701.844249291112646, 1705856.429855049820617 ], [ 528782.726071652257815, 1705722.806573595385998 ], [ 528807.701840951107442, 1705618.160639638546854 ], [ 528779.070416247472167, 1705504.002430694643408 ], [ 528714.034669672837481, 1705419.514123707776889 ], [ 528607.749488529050723, 1705369.77636495186016 ], [ 528479.190310667967424, 1705366.455578626599163 ], [ 528343.952502609463409, 1705357.541145073482767 ], [ 528269.778065652470104, 1705350.304997426457703 ], [ 528214.7976402817294, 1705305.328515737550333 ], [ 528187.800989379873499, 1705252.153555173892528 ], [ 528199.173816575319506, 1705165.726379212457687 ], [ 528280.423268603044562, 1704983.039643763797358 ], [ 528403.589988508494571, 1704868.864176884992048 ], [ 528603.409419998060912, 1704705.929346331628039 ], [ 528678.191629649605602, 1704542.93482295400463 ], [ 528513.220575080136769, 1704534.016612076433375 ], [ 527964.583171155536547, 1704496.756982279242948 ], [ 527898.597941608633846, 1704505.325397598790005 ], [ 527872.632772959885187, 1704495.572058680234477 ], [ 527849.30012508481741, 1704486.773974410723895 ], [ 527794.085732899140567, 1704483.230473404051736 ], [ 527752.778084353893064, 1704487.767937843920663 ], [ 527715.507212687982246, 1704486.27492485451512 ], [ 527678.842138861771673, 1704484.820948759093881 ], [ 527589.522183903027326, 1704477.855214323149994 ], [ 527409.05742753110826, 1704463.921966683352366 ], [ 526774.322550643584691, 1704430.431222889106721 ], [ 526456.997623005066998, 1704413.706990770297125 ], [ 525619.573411765624769, 1704367.333847098983824 ], [ 524857.56653607962653, 1704344.2780895489268 ], [ 520486.650643903180026, 1704203.866294138133526 ], [ 519958.310814986121841, 1704183.813153231749311 ], [ 519265.226189944136422, 1704123.854101689066738 ], [ 518626.413205100921914, 1704107.132910614600405 ], [ 518522.946625044976827, 1704110.941697661532089 ], [ 518518.996889671194367, 1704107.435759207000956 ], [ 518513.393785546766594, 1704102.590201761340722 ], [ 517224.930672987538856, 1704078.627940102247521 ], [ 517143.382074540655594, 1704073.837036304641515 ], [ 516814.23056729772361, 1704054.720335378544405 ], [ 516812.984966160438489, 1703998.488769252318889 ], [ 517086.147730498458259, 1699890.526036143768579 ], [ 517134.120878526649904, 1699109.081680610077456 ], [ 517262.096654220367782, 1697155.473138061584905 ], [ 517319.062813885509968, 1696322.261230338132009 ], [ 517342.715763512067497, 1695907.092745508532971 ], [ 517362.665516134060454, 1695628.36789608746767 ], [ 517371.489238058275077, 1695608.370397554012015 ], [ 517373.193105815269519, 1695459.447651149239391 ], [ 517367.103619903908111, 1695435.930010016774759 ], [ 517462.677816411247477, 1694269.351488262880594 ], [ 515891.877632070856635, 1693612.416584519902244 ], [ 515394.567813023575582, 1693380.815991459181532 ], [ 514252.564974383334629, 1692880.20583531097509 ], [ 514105.220929869043175, 1692807.106928799068555 ], [ 509971.905331451271195, 1691029.278406823985279 ], [ 509914.761776335944887, 1690975.431241148384288 ], [ 506895.994187984440941, 1689684.697476561181247 ], [ 506518.615777130646165, 1689509.665201764320955 ], [ 506432.35978168976726, 1689473.03258216381073 ], [ 506234.699111515423283, 1689374.193790913559496 ], [ 505216.66036003374029, 1688965.055721578421071 ], [ 505132.747310790873598, 1688936.890827344264835 ], [ 504516.974726987129543, 1688650.097532853018492 ], [ 504369.810995830688626, 1688601.56123763602227 ], [ 503634.257952799496707, 1688294.368338448926806 ], [ 503382.45068133645691, 1688186.228819528128952 ], [ 502997.377305961796083, 1688021.114876064937562 ], [ 501911.19999990350334, 1688673.108064432861283 ], [ 500077.910680354514625, 1690243.196797985583544 ], [ 499754.647783911845181, 1690520.252541135298088 ], [ 499670.578090397990309, 1690592.296598586020991 ], [ 498991.876004124525934, 1691941.645193758886307 ], [ 498979.65483933192445, 1691940.904852562816814 ], [ 498917.311593325459398, 1692016.517424694495276 ], [ 498757.523279267654289, 1692210.197269135620445 ], [ 498744.616689592017792, 1692229.403331466251984 ], [ 498740.116322173387744, 1692236.205085854511708 ], [ 498497.678139868890867, 1692598.37277902639471 ], [ 498212.026648006692994, 1693025.306005613179877 ], [ 498097.382755954284221, 1693199.382222197018564 ], [ 497424.976350100478157, 1694221.332997236633673 ], [ 497081.232209713198245, 1694740.797435571905226 ], [ 496609.497336421511136, 1695453.998928781831637 ], [ 495856.231537824787665, 1696175.751272187568247 ], [ 495150.923914540268015, 1696807.70007867901586 ], [ 494276.305579959182069, 1697293.330780892400071 ], [ 493375.771827596239746, 1697612.770884670317173 ], [ 492832.054868024017196, 1697679.459827256621793 ], [ 492340.159745692624711, 1697889.977221436798573 ], [ 492172.504835332569201, 1698014.693058466073126 ], [ 491503.148145624320023, 1698512.203346317401156 ], [ 491253.258312248741277, 1698761.377870013238862 ], [ 490725.073945128591731, 1699448.263088034465909 ], [ 490566.855878093745559, 1699705.729772282764316 ], [ 490394.018197060213424, 1699987.030258686281741 ], [ 490253.659562223649118, 1700174.041277392068878 ], [ 489971.914501671039034, 1700549.580244742101058 ], [ 489539.622081976849586, 1701117.830458017997444 ], [ 489392.801070230896585, 1701336.694962089182809 ], [ 489171.67819994391175, 1701732.818198719993234 ], [ 488832.098545485932846, 1702501.424178909976035 ], [ 488822.492489689087961, 1702528.587338950950652 ], [ 488375.48135694861412, 1703802.611473271623254 ], [ 488017.334735604410525, 1705319.629411088069901 ], [ 487971.28146816114895, 1705599.625058478675783 ], [ 487914.153484273934737, 1705959.470623322064057 ], [ 487847.0067017878755, 1706242.369600854115561 ], [ 487696.871844498266, 1706614.326998635893688 ], [ 487586.43809485033853, 1706866.027936236467212 ], [ 487582.001816147996578, 1707069.670459939399734 ], [ 487566.300284143071622, 1707245.13565313629806 ], [ 487517.569568762555718, 1707596.94738433114253 ], [ 487478.25411343522137, 1707781.23016017023474 ], [ 487463.500267312861979, 1707849.970686932094395 ], [ 487438.753649871679954, 1707965.726650806842372 ], [ 487404.955284374125767, 1708103.85168229509145 ], [ 487333.890512012527324, 1708394.71775222173892 ], [ 487293.146606350608636, 1708524.122417354956269 ], [ 487276.661856612132397, 1708576.704119948670268 ], [ 487257.41349980031373, 1708651.017170024570078 ], [ 487233.557859582651872, 1708743.022402256494388 ], [ 487207.987374872376677, 1708841.999853490153328 ], [ 487130.938065013615415, 1709919.389908683253452 ], [ 487132.221834824129473, 1710060.268631762824953 ], [ 487133.927187865832821, 1710252.597901119850576 ], [ 487190.586977056693286, 1710798.844272936461493 ], [ 487204.232052790466696, 1710930.238274455536157 ], [ 487249.866348243376706, 1711370.959903338225558 ], [ 487205.577380756149068, 1711864.737272567348555 ], [ 487173.593261262169108, 1712219.788770442828536 ], [ 487168.183756945305504, 1712248.100222941953689 ], [ 487167.19353951892117, 1712253.094251170521602 ], [ 487160.973409219062887, 1712286.298099657054991 ], [ 487054.741535508015659, 1713492.769543081289157 ], [ 487097.564721023431048, 1714113.651874467264861 ], [ 487134.022009711770806, 1714642.759024458006024 ], [ 487209.05594221589854, 1714960.030564664397389 ], [ 487314.277698656602297, 1715405.749980561668053 ], [ 487850.007678812660743, 1716788.66611654497683 ], [ 488209.052048493700568, 1717715.801570592680946 ], [ 488404.622845422418322, 1718602.802840787451714 ], [ 488506.347052972996607, 1719064.28174580540508 ], [ 488577.83240360126365, 1719388.322901166742668 ], [ 488583.616663376102224, 1719417.861214322037995 ], [ 488593.039995692844968, 1719466.367693583015352 ], [ 488616.563126210996415, 1719521.21534694172442 ], [ 488619.758413459756412, 1719528.704048148123547 ], [ 488636.920278946869075, 1719595.749077797401696 ], [ 488649.207932974677533, 1719636.903058083029464 ], [ 488655.8034035867895, 1719658.629791952203959 ], [ 488662.312449980759993, 1719680.351389049785212 ], [ 488677.086546521866694, 1719710.312653265893459 ], [ 488698.902044282353017, 1719754.504183317767456 ], [ 488711.410988930845633, 1719777.369008813984692 ], [ 488721.036805758834817, 1719794.784817394101992 ], [ 488737.132810025068466, 1719824.37577506294474 ], [ 488782.150928490562364, 1719912.729614837793633 ], [ 488800.120387979957741, 1719941.421708937967196 ], [ 488840.091144137899391, 1720005.3341007407289 ], [ 488893.427236416668165, 1720086.436349598458037 ], [ 488921.645446070353501, 1720132.245077373692766 ], [ 488947.166395824693609, 1720173.850992958759889 ], [ 489182.294706396816764, 1720592.087196581531316 ], [ 490358.43865267385263, 1722088.303294553188607 ], [ 490869.848552783660125, 1722523.109096206724644 ], [ 492209.410596173547674, 1724337.298947215080261 ], [ 492977.62866692780517, 1725377.964562102453783 ], [ 492989.966571528988425, 1725396.110779395094141 ], [ 493033.34777649975149, 1725459.915367568144575 ], [ 493515.676769642857835, 1726802.703983913175762 ], [ 493792.704396444081794, 1727380.825733117759228 ], [ 493823.047998410649598, 1727876.615368907805532 ], [ 493845.06067142134998, 1728237.380563859129325 ], [ 493877.363544961030129, 1728548.010721201542765 ], [ 493927.410512509813998, 1729028.369470273843035 ], [ 494021.249132612603717, 1729842.398435950512066 ], [ 494115.046145177970175, 1730656.65200424217619 ], [ 494351.823723909677938, 1731468.188020321540534 ], [ 494388.308744384790771, 1732139.302693813573569 ], [ 494392.868676815473009, 1732223.009565365733579 ], [ 494637.196652920159977, 1733338.199240207439288 ], [ 494710.887704059889074, 1733909.715815326431766 ], [ 494784.563806587830186, 1734481.232903357595205 ], [ 494848.747008551494218, 1734782.679688974283636 ], [ 494879.015144287433941, 1734924.871433789841831 ], [ 495036.933815521653742, 1735462.178995225345716 ], [ 495067.928339553705882, 1735711.092364409007132 ], [ 495118.421230487292632, 1736118.392074284842238 ], [ 498484.925345788360573, 1733068.254775952547789 ], [ 498697.780228252289817, 1732886.148853812133893 ], [ 499082.292476813017856, 1732552.120893060928211 ], [ 499128.57472657825565, 1732517.095951763913035 ], [ 499249.170540268882178, 1732416.076415649615228 ], [ 499656.441474372637458, 1732044.604853942757472 ], [ 500475.834933391015511, 1731290.6700374558568 ], [ 500897.366963067965116, 1730905.862395608797669 ], [ 501173.770834326045588, 1730649.202122112270445 ], [ 501468.136682456068229, 1730382.306825209408998 ], [ 502062.840636832988821, 1729836.782088151434436 ], [ 502243.189680143666919, 1729676.237937118159607 ], [ 502449.590838851523586, 1729482.144750195089728 ], [ 502826.092276784533169, 1729137.001895693363622 ], [ 503161.387598392204382, 1728834.377211831277236 ], [ 503749.275749164400622, 1728290.676549592288211 ], [ 503908.097914112906437, 1728137.601883654482663 ], [ 504008.137097554048523, 1728047.509934521978721 ], [ 504323.052742580941413, 1727749.514473753981292 ], [ 505180.71234598668525, 1726952.307884271489456 ], [ 505962.727526668226346, 1726219.691227791598067 ], [ 505979.36988786153961, 1725902.123390668071806 ], [ 506056.309529942343943, 1724612.614850011654198 ], [ 506167.482192238036077, 1724506.050124943256378 ], [ 506306.905083663354162, 1724368.663050157250836 ], [ 506651.301591095223557, 1724019.220260033383965 ], [ 507605.8308863787679, 1723059.873086581937969 ], [ 507611.688988916459493, 1723057.65254343720153 ], [ 507673.961044713796582, 1723047.242679693037644 ], [ 507717.331802214030176, 1723021.51386663550511 ], [ 507945.893224823579658, 1722814.425350144738331 ], [ 507965.201155851129442, 1722792.374161153100431 ], [ 508993.562951460189652, 1721842.457216805312783 ], [ 509839.310939611343201, 1721064.138265941059217 ], [ 510221.807631456817035, 1720706.188744908198714 ], [ 510283.361863076686859, 1720653.302188046043739 ], [ 510954.275373452052008, 1720036.602999062743038 ], [ 516140.66244605864631, 1715261.740346634294838 ], [ 516233.721823520725593, 1713768.397358154179528 ], [ 516241.403008464956656, 1713644.780469320714474 ], [ 516767.240231312753167, 1713676.717414186568931 ], [ 517424.509179224085528, 1713706.745077752741054 ], [ 518902.261948280327488, 1713774.346070854226127 ], [ 519349.1198848838103, 1713798.091193711385131 ], [ 519467.694807671767194, 1713800.534233565442264 ], [ 521759.368105778878089, 1713908.252299707382917 ], [ 525767.047231766511686, 1714142.882018742151558 ], [ 526864.341444607474841, 1714207.569311024155468 ], [ 526926.733770875027403, 1714141.485645986394957 ], [ 526958.237813781248406, 1714099.590708328178152 ], [ 527004.368952490855008, 1714015.055379055207595 ], [ 527024.737558571738191, 1713945.153356408001855 ], [ 527119.305340639548376, 1713732.090952528640628 ], [ 527186.308949421509169, 1713615.874591497937217 ], [ 527353.593366926419549, 1713401.977425046032295 ], [ 527416.658508472610265, 1713339.084940460277721 ], [ 527456.717694606399164, 1713291.114104162435979 ], [ 527503.1419823350152, 1713260.287340955343097 ], [ 527575.956201385939494, 1713195.663243414601311 ], [ 527655.617626518243924, 1713102.838622548384592 ], [ 527672.438544151955284, 1713057.195045276312158 ], [ 527669.022133691585623, 1713009.0162345955614 ], [ 527658.409180808113888, 1712964.755605387035757 ], [ 527500.558271219953895, 1712705.612823020434007 ], [ 527486.401185434893705, 1712636.752212320454419 ], [ 527500.350064174388535, 1712570.931518932571635 ], [ 527544.709849358187057, 1712502.00908729317598 ], [ 527675.990300253848545, 1712361.169835231732577 ], [ 527802.237992425216362, 1712216.302660776302218 ], [ 527909.604601397993974, 1712111.332164853578433 ], [ 527961.349567572004162, 1712051.87148504331708 ], [ 527984.837632958777249, 1712001.153191896853969 ], [ 527985.527667967136949, 1711945.825140337925404 ], [ 527964.221036359202117, 1711854.490030705695972 ] ] ] } },
{ "type": "Feature", "properties": { "NAME": "MADISON", "ID": "ils_madison", "STATE": "IL", "FIPS": "17119", "VERSION": 11, "START_DATE": "1843-03-02T00:00:00", "END_DATE": "2000-12-31T00:00:00", "CHANGE": "MADISON lost to BOND.", "CITATION": "(Ill. Laws 1842-1843, pp. 98-99)", "START_N": 18430302, "END_N": 20001231, "AREA_SQMI": 740.0, "DATASET": "IL_Historical_Counties", "CNTY_TYPE": "County", "FULL_NAME": "MADISON" }, "geometry": { "type": "Polygon", "coordinates": [ [ [ 501992.340751575306058, 1790380.333578922087327 ], [ 502786.424186438031029, 1790360.514692289521918 ], [ 502787.440742176026106, 1790362.149637228809297 ], [ 503462.99539526127046, 1790354.72651135455817 ], [ 503762.765597486810293, 1790375.522153796628118 ], [ 507225.08507144683972, 1790544.080888742348179 ], [ 507735.890758310502861, 1790566.612009712262079 ], [ 507840.461137061123736, 1790578.527027174364775 ], [ 508055.496950830507558, 1790587.793176800943911 ], [ 508160.213527436950244, 1790597.363146952120587 ], [ 508419.684024838206824, 1790612.333400975912809 ], [ 509208.059196943417192, 1790667.013801717199385 ], [ 509486.917961790924892, 1790684.017464170698076 ], [ 511573.491794603352901, 1790823.336571509949863 ], [ 511906.263309125730302, 1790848.417138806777075 ], [ 513234.138034786621574, 1790935.53402060107328 ], [ 513284.110625348286703, 1790936.551968232030049 ], [ 514468.684543380106334, 1791024.716998489573598 ], [ 515510.054829810746014, 1791090.618028135271743 ], [ 517858.921060497115832, 1791228.746268192306161 ], [ 518665.197465701261535, 1791273.581377124646679 ], [ 518743.141059785557445, 1791262.040050388080999 ], [ 518842.878405142226256, 1791270.083156246226281 ], [ 518875.460929653781932, 1791284.963957464788109 ], [ 518957.57291818712838, 1791307.832694733981043 ], [ 519028.395415231527295, 1791306.84634373174049 ], [ 519071.78798901848495, 1791299.169253110419959 ], [ 522688.591767095960677, 1791554.153188818832859 ], [ 522709.531939422420692, 1791545.390067095402628 ], [ 522837.681305918493308, 1791534.080282464390621 ], [ 523871.630469884548802, 1791599.118601401336491 ], [ 523943.858986926614307, 1791599.051699116127566 ], [ 525056.723233356373385, 1791672.355213831178844 ], [ 527087.841695348732173, 1791798.164069372694939 ], [ 527201.970080097205937, 1791807.017730014398694 ], [ 527381.076502300682478, 1791816.265288279158995 ], [ 530097.263727446086705, 1791985.348283032188192 ], [ 530311.761842364328913, 1791993.82132604252547 ], [ 530607.514849475002848, 1792012.877294165082276 ], [ 535415.352282725740224, 1792336.920394400833175 ], [ 535877.372690343880095, 1792380.028790395474061 ], [ 535901.981560824089684, 1792412.426675844937563 ], [ 539541.153487751609646, 1792669.10885991086252 ], [ 539668.555029306910001, 1792689.128099165158346 ], [ 539702.190588973229751, 1792675.970156521303579 ], [ 540286.209290358819999, 1792712.821296229027212 ], [ 541395.542030226672068, 1792799.031180826481432 ], [ 541483.210403465782292, 1792807.448887283680961 ], [ 543034.097466158564202, 1792910.701093644369394 ], [ 543094.282540458487347, 1792917.301963453181088 ], [ 544129.183460093685426, 1793009.253155997022986 ], [ 544446.261123562464491, 1793032.150446482468396 ], [ 544626.767373404465616, 1793032.099766148254275 ], [ 545347.199542378075421, 1793077.550012859050184 ], [ 545445.676895024371333, 1791976.650908366078511 ], [ 545479.021510033868253, 1791552.353680610889569 ], [ 545486.901507424772717, 1791547.714541053632274 ], [ 545560.191110774758272, 1790673.837271860800683 ], [ 545572.973308559972793, 1790407.450912747299299 ], [ 545577.438204249134287, 1790263.849985789740458 ], [ 545592.857958274194971, 1790221.185615670401603 ], [ 545680.564991501276381, 1789055.304980658227578 ], [ 545733.800285167293623, 1788444.740783440181985 ], [ 545798.897339669754729, 1787641.867955758236349 ], [ 545792.968163645709865, 1787631.472670416114852 ], [ 545804.282916421419941, 1787424.187266312073916 ], [ 545883.414995096740313, 1786576.309353032149374 ], [ 545956.210846086964011, 1785710.032177782617509 ], [ 546146.618702364037745, 1784060.350506737828255 ], [ 546089.588023738702759, 1784054.504536780761555 ], [ 546251.930964400409721, 1782417.878544590435922 ], [ 546275.361001087469049, 1782049.191588538466021 ], [ 546373.458322228514589, 1780745.486093343468383 ], [ 546443.036271687364206, 1779490.754546334967017 ], [ 546450.409597012330778, 1779455.301460855640471 ], [ 546458.300902119488455, 1779450.663151290267706 ], [ 546474.519813668564893, 1779282.011114421999082 ], [ 546477.568193526356481, 1779276.374054723186418 ], [ 546481.03947543760296, 1779206.621525945374742 ], [ 546500.404517923598178, 1779131.082268725847825 ], [ 547512.384494667756371, 1779211.137968891765922 ], [ 549270.152612595586106, 1779337.955956622958183 ], [ 549691.803065077518113, 1779366.497830007225275 ], [ 549807.883992902818136, 1777732.380292722489685 ], [ 549884.260933567886241, 1776755.91220970870927 ], [ 549934.620538894436322, 1776088.531202902086079 ], [ 550000.39266327675432, 1775268.059714502422139 ], [ 550063.852028187830001, 1774444.847770560067147 ], [ 550101.721732292906381, 1773887.277269899845123 ], [ 550223.621519599924795, 1772389.474608539836481 ], [ 550237.903648465056904, 1772290.230988543247804 ], [ 550305.164410655270331, 1771410.766316135646775 ], [ 550311.967956485808827, 1771343.147321527125314 ], [ 550318.444691916462034, 1771252.251920921029523 ], [ 550506.937811367097311, 1769106.354984031058848 ], [ 550514.613684831769206, 1768993.858669072156772 ], [ 550524.354275183402933, 1768886.556947940727696 ], [ 550529.713590069091879, 1768771.320501273032278 ], [ 550544.693970675463788, 1768661.788445395883173 ], [ 550555.901347660575993, 1768534.027403294108808 ], [ 550560.827736485516652, 1768423.9293628197629 ], [ 550672.719100423622876, 1767146.530534648569301 ], [ 550745.823172253090888, 1766329.019053849391639 ], [ 550817.410910315695219, 1765456.020937566645443 ], [ 550876.261548600858077, 1764697.64896887447685 ], [ 550952.542452764115296, 1763908.660331012448296 ], [ 551021.694884213386104, 1763075.714447859674692 ], [ 551083.102644989965484, 1762319.198956662788987 ], [ 551074.098329690634273, 1762267.139274360844865 ], [ 551227.555302306311205, 1760637.879933003569022 ], [ 551290.273300403612666, 1759824.94425210589543 ], [ 551406.749645213712938, 1758630.081634869799018 ], [ 551573.861788470996544, 1756575.068946993676946 ], [ 551608.272719781496562, 1756179.141674058511853 ], [ 551619.542289659031667, 1756161.92769911675714 ], [ 551628.287115456769243, 1755959.404875224689022 ], [ 551644.316649505984969, 1755834.552186009474099 ], [ 551714.902139464509673, 1754942.383189728716388 ], [ 549721.273172322195023, 1754789.191673622000962 ], [ 549365.286586154252291, 1754759.754314010031521 ], [ 549274.824901740066707, 1754745.586705767316744 ], [ 549197.389681338681839, 1754740.720736637245864 ], [ 549156.694893307401799, 1754734.279502474702895 ], [ 548525.824279217515141, 1754691.246976993745193 ], [ 547939.357340209069662, 1754645.735160699114203 ], [ 547362.340919366339222, 1754601.010817846050486 ], [ 542112.163984590792097, 1754213.627768190810457 ], [ 540512.504751072730869, 1754096.357073774095625 ], [ 539392.723546902416274, 1754029.584382421104237 ], [ 530356.368679542443715, 1753553.834676710423082 ], [ 530312.558309808839113, 1753562.000258781481534 ], [ 530269.387501643737778, 1753558.975366032216698 ], [ 530226.639554933062755, 1753556.090449472889304 ], [ 529270.954842590377666, 1753523.704587248852476 ], [ 528459.079212684067897, 1753486.460320700425655 ], [ 526798.271672809147276, 1753410.724789893021807 ], [ 526708.076367945992388, 1753410.86635515652597 ], [ 526393.604480522451922, 1753400.608923857565969 ], [ 524348.071466448018327, 1753320.714635517913848 ], [ 523324.258714199881069, 1753274.996037643868476 ], [ 523057.065472606220283, 1753261.716104159131646 ], [ 522981.624414866382722, 1753255.429843342863023 ], [ 521041.087380205222871, 1753152.419245985336602 ], [ 518116.258044371323194, 1752997.992873080540448 ], [ 517910.170649574080016, 1752989.652607193216681 ], [ 517757.315996921330225, 1752975.478940579574555 ], [ 517579.675705840054434, 1752968.050053958082572 ], [ 516332.813981472107116, 1752899.882346421713009 ], [ 516239.935655018838588, 1752896.151308208471164 ], [ 515511.611872901383322, 1752852.330962276784703 ], [ 515489.310710184567142, 1752853.95721831638366 ], [ 514267.391426382993814, 1752787.565714551368728 ], [ 514087.041544420993887, 1752776.560900629963726 ], [ 512565.728386025410146, 1752695.423601567046717 ], [ 511858.279447081498802, 1752657.618333911290392 ], [ 511542.249271711043548, 1752653.338235111441463 ], [ 511541.216838793945499, 1752653.273641887353733 ], [ 510026.862347693357151, 1752632.454156717751175 ], [ 509810.880879929405637, 1752626.396450527012348 ], [ 509674.375972639594693, 1752617.324695059563965 ], [ 509503.842432152538095, 1752609.616096151527017 ], [ 509462.621563808585051, 1752605.812201640103012 ], [ 509399.884776872873772, 1752604.935547285480425 ], [ 509070.704275990428869, 1752590.048842219403014 ], [ 508926.459880201262422, 1752579.047805201727897 ], [ 508823.514045310090296, 1752578.929705953923985 ], [ 508476.742150679114275, 1752564.993695266079158 ], [ 506687.293461025867146, 1752479.62404354242608 ], [ 506423.938695093384013, 1752470.158823213772848 ], [ 505532.539287739840802, 1752431.056148525793105 ], [ 505136.425720873696264, 1752416.23288713907823 ], [ 505077.910102144174743, 1752380.612580860499293 ], [ 504466.429775098396931, 1752363.86348774866201 ], [ 504277.666705516923685, 1752352.107343738432974 ], [ 504225.134856805612799, 1752346.846310104476288 ], [ 503962.445201202528551, 1752340.645895309979096 ], [ 503716.37194380024448, 1752331.097889122786 ], [ 503216.756760815042071, 1752315.494908198481426 ], [ 503175.822578811901622, 1752309.83143041562289 ], [ 502621.275911945325788, 1752292.90601593372412 ], [ 502513.763943194760941, 1752287.084010222461075 ], [ 502416.941264635650441, 1752278.775886128889397 ], [ 502332.413026165624615, 1752284.026144030038267 ], [ 501932.349266945093405, 1752249.239010327495635 ], [ 501609.194122310495004, 1752223.568844852270558 ], [ 501272.097873627499212, 1752191.442024289397523 ], [ 501269.85206959763309, 1752198.491337388753891 ], [ 501269.631978352961596, 1752199.263921949313954 ], [ 501268.892522485402878, 1752201.464524782495573 ], [ 501261.436255972133949, 1752224.47744280891493 ], [ 501202.939027343061753, 1752448.966115433722734 ], [ 501186.688675206445623, 1752511.193037452409044 ], [ 501168.041998030734248, 1752582.930605574743822 ], [ 501125.959615051397122, 1752743.967445181449875 ], [ 500825.741015231003985, 1753556.565361525863409 ], [ 500734.612035466823727, 1753775.575844952138141 ], [ 499889.930695949995425, 1755161.265500045614317 ], [ 499522.644194066990167, 1755520.615196533268318 ], [ 499247.541449468699284, 1755784.544325208291411 ], [ 498582.039480077160988, 1756788.258452927693725 ], [ 498436.126877861679532, 1757267.276436813408509 ], [ 498391.998599742830265, 1757412.027302579022944 ], [ 498353.035953701939434, 1757540.024621526477858 ], [ 498279.865584678889718, 1757780.363767702365294 ], [ 498271.440424867731053, 1757953.905953067820519 ], [ 498262.680876143858768, 1758132.930142491590232 ], [ 498246.164404563256539, 1758474.532368039246649 ], [ 498254.431223546038382, 1758634.718753468245268 ], [ 498257.448707486386411, 1758694.194074237020686 ], [ 498265.953374141827226, 1758857.539233394199982 ], [ 498288.630112941958942, 1758982.333521128399298 ], [ 498298.959746937558521, 1759039.335205631796271 ], [ 498362.832785247941501, 1759391.230968023650348 ], [ 498725.203286949137691, 1760098.341024974593893 ], [ 499115.211194715986494, 1760544.052829262334853 ], [ 499846.151809978997335, 1761379.645123941358179 ], [ 500094.334198652592022, 1761561.484109957003966 ], [ 500253.3491416448378, 1761677.903222369262949 ], [ 500498.457139487552922, 1761857.545901106204838 ], [ 501056.454971343860961, 1762745.213169747032225 ], [ 501069.389726461784448, 1762871.778792328666896 ], [ 501121.122393281024415, 1763378.041299859760329 ], [ 501119.749236534582451, 1763400.416314354399219 ], [ 501279.478984997491352, 1763809.210167844779789 ], [ 501402.973585106607061, 1764125.271663860883564 ], [ 501405.138828610826749, 1764132.142430838663131 ], [ 501410.191046759602614, 1764148.174222470493987 ], [ 501674.124082938884385, 1764624.69180899579078 ], [ 501782.021343493019231, 1764833.457004147348925 ], [ 502273.377018498547841, 1765256.712255513761193 ], [ 503402.730519253353123, 1766101.132698132656515 ], [ 503522.298488936387002, 1766216.089178967522457 ], [ 503589.935016667703167, 1766281.127404094673693 ], [ 505326.007995731662959, 1767904.466853441903368 ], [ 505736.348737974418327, 1768794.596528458409011 ], [ 505755.971732828475069, 1768902.160967746982351 ], [ 505800.717972715676297, 1769146.7167590521276 ], [ 505903.96059080719715, 1769711.361711238976568 ], [ 505929.434398569224868, 1769850.958254837431014 ], [ 506054.37230975413695, 1770801.804693500278518 ], [ 506204.525719156314153, 1771945.466766452882439 ], [ 506218.588141819112934, 1772068.746899194316939 ], [ 506254.696079518471379, 1772386.552036340814084 ], [ 506238.65938966779504, 1772546.370863780146465 ], [ 506220.644895221164916, 1772726.954785162815824 ], [ 506186.594793743337505, 1773067.357508410699666 ], [ 506109.693026103777811, 1773197.345330641837791 ], [ 506059.254135390976444, 1773271.590305488789454 ], [ 505959.883842386829201, 1773418.04082826920785 ], [ 505913.470882452151272, 1773502.418695630738512 ], [ 505843.244492299098056, 1773630.464273980353028 ], [ 505810.223369657644071, 1773690.630341579671949 ], [ 505590.309210184495896, 1773811.304173013195395 ], [ 505526.63899133662926, 1773846.21278198203072 ], [ 504992.504952371644322, 1774123.851857775822282 ], [ 504155.917552816797979, 1774558.678090973524377 ], [ 504095.714002040214837, 1774597.62955056456849 ], [ 503886.755320987605955, 1774732.835949689149857 ], [ 503419.156756110780407, 1775052.189885795116425 ], [ 503123.903085092140827, 1775154.237052699085325 ], [ 503005.542272597260308, 1775195.110151141881943 ], [ 502920.168633060064167, 1775233.190680775325745 ], [ 502872.70412350067636, 1775254.294843031559139 ], [ 502810.599402581749018, 1775285.164679232053459 ], [ 502410.697409188142046, 1775484.097021088702604 ], [ 502248.052380641573109, 1775599.512087439652532 ], [ 502221.481908178713638, 1775618.425690829288214 ], [ 502134.841275096521713, 1775680.018163623753935 ], [ 502106.565460807294585, 1775700.062343078199774 ], [ 502032.272593571338803, 1775752.758719612378627 ], [ 501915.728671149758156, 1775839.912422876339406 ], [ 501851.820208006945904, 1775887.634744572453201 ], [ 501598.877067008521408, 1776079.704755288781598 ], [ 501345.931923318188637, 1776272.006293891696259 ], [ 501165.20379404182313, 1776378.131317568710074 ], [ 501148.316212902369443, 1776388.098187657538801 ], [ 501068.988752499979455, 1776434.653654917841777 ], [ 500855.32986865384737, 1776540.108666236046702 ], [ 500704.898354693956207, 1776614.415851759258658 ], [ 499957.21923585026525, 1776965.603097487706691 ], [ 499605.433539047953673, 1777130.893801029538736 ], [ 499481.179150907613803, 1777190.094615806126967 ], [ 499350.181391958612949, 1777252.58982997527346 ], [ 499250.670997679466382, 1777300.05900243553333 ], [ 499102.939800735155586, 1777357.490532303461805 ], [ 498950.812442856957205, 1777416.452212976990268 ], [ 498527.090798649238423, 1777446.674214680446312 ], [ 498418.704775768856052, 1777491.588965573348105 ], [ 498398.381482976779807, 1777500.115852092392743 ], [ 498315.081749734876212, 1777534.66267669480294 ], [ 497275.812758524727542, 1778481.940106221009046 ], [ 497143.672835072735325, 1778616.041051851818338 ], [ 497066.332445471431129, 1778694.307824792573228 ], [ 496961.269249058503192, 1778792.444851631531492 ], [ 496863.056551006389782, 1778884.150888534961268 ], [ 496843.050362406123895, 1778901.684007835108787 ], [ 496730.456335493829101, 1779000.599770327564329 ], [ 496584.119656821480021, 1779129.23940122500062 ], [ 496286.37064517714316, 1779381.051130041247234 ], [ 495999.224615455779713, 1779610.273579137399793 ], [ 495992.692322255228646, 1779614.36764945439063 ], [ 495917.984539922967087, 1779661.025807609548792 ], [ 495747.991292781720404, 1779767.240823063999414 ], [ 495663.773466426937375, 1779810.403029826935381 ], [ 495547.135307710501365, 1779870.122480760328472 ], [ 495510.835062874248251, 1779886.779983590822667 ], [ 495447.894580162945203, 1779915.517379745375365 ], [ 495408.22746681899298, 1779933.767263520741835 ], [ 495388.393978803651407, 1779942.892277536913753 ], [ 495350.054174956749193, 1779960.549372198292986 ], [ 495083.149036654620431, 1780048.647241116501391 ], [ 494850.235764774202835, 1780125.567363350419328 ], [ 494697.809727844258305, 1780192.332843548618257 ], [ 494382.449533498438541, 1780330.399646541569382 ], [ 494348.412887639424298, 1780345.290441145654768 ], [ 494060.793659354676493, 1780504.365729090524837 ], [ 493929.895651314640418, 1780576.829299655975774 ], [ 493851.433345337456558, 1780629.004207245307043 ], [ 493705.717389771423768, 1780725.950402610003948 ], [ 493585.116681998013519, 1780806.11721409112215 ], [ 493252.83621415332891, 1780914.56630407134071 ], [ 492997.194662239809986, 1780929.861751963151619 ], [ 492810.268276771937963, 1780894.636443000985309 ], [ 492665.24216741573764, 1780860.938259630696848 ], [ 492502.915194414148573, 1780852.921555649023503 ], [ 492292.486459471634589, 1780901.851231598760933 ], [ 492248.454861832840834, 1780922.77149502793327 ], [ 492173.144139978976455, 1780958.645713179837912 ], [ 492053.176340592035558, 1781015.853211134439334 ], [ 491935.810918195114937, 1781048.516196495853364 ], [ 491880.939203047659248, 1781063.730913617648184 ], [ 491666.03714911575662, 1781097.134999888483435 ], [ 491364.966591093456373, 1781143.987332216696814 ], [ 491318.513901571393944, 1781680.276572044473141 ], [ 491306.172665887221228, 1781914.886077321600169 ], [ 491303.219073121959809, 1781948.169508769875392 ], [ 491311.888305474596564, 1781969.914567865664139 ], [ 491311.335840779647697, 1781983.355699816951528 ], [ 491233.560739525477402, 1783797.938572543440387 ], [ 491226.275553665647749, 1783998.604920557467267 ], [ 491195.196970930672251, 1784670.788059227401391 ], [ 491193.785524324048311, 1784785.459966822061688 ], [ 491176.786553206446115, 1785115.792760210344568 ], [ 491154.709743068611715, 1785627.274325045989826 ], [ 491135.197250716621056, 1785982.158199914265424 ], [ 491116.121278008213267, 1786838.764231401029974 ], [ 491099.698908888152801, 1787696.876914465334266 ], [ 491092.671524291450623, 1787763.48795633437112 ], [ 491010.790753744717222, 1788442.484625574899837 ], [ 491039.35228379315231, 1789250.197648760396987 ], [ 491033.027478156669531, 1789635.743473045527935 ], [ 492878.592288021405693, 1789756.276913235895336 ], [ 493049.912088307435624, 1789835.710193678271025 ], [ 501988.6128067743266, 1790382.237248140387237 ], [ 501992.340751575306058, 1790380.333578922087327 ] ] ] } }
]
}
