{
"type": "FeatureCollection",
"name": "Hawaii_CD_1992_2000",
"crs": { "type": "name", "properties": { "name": "urn:ogc:def:crs:OGC:1.3:CRS84" } },
"features": [
{ "type": "Feature", "properties": { "DISTRICT": "1", "STARTCONG": "103", "ENDCONG": "107", "ST": "15", "STA": "HI", "ELECT_YEAR": "1992-2000", "TYPE": "US Cong" }, "geometry": { "type": "Polygon", "coordinates": [ [ [ -157.986505329408402, 21.490395903326764 ], [ -157.978307327632081, 21.490981903734184 ], [ -157.975347326958826, 21.490317903663122 ], [ -157.971349326079292, 21.490241903771565 ], [ -157.9632313244133, 21.49338490481351 ], [ -157.962224324238434, 21.494647905160349 ], [ -157.955785322914409, 21.497073905970126 ], [ -157.951757322065021, 21.498011906332167 ], [ -157.943456320305813, 21.499705907018779 ], [ -157.90976531300106, 21.502089908685413 ], [ -157.904005311831781, 21.504695909518265 ], [ -157.900005310946824, 21.504495909595544 ], [ -157.899405310771613, 21.503295909315455 ], [ -157.899755310810008, 21.502238909040841 ], [ -157.895269309481336, 21.492751906818341 ], [ -157.894628309232388, 21.489764906094067 ], [ -157.893105308801438, 21.487095905477016 ], [ -157.893712308853736, 21.484866904902127 ], [ -157.893377308429564, 21.475192902501185 ], [ -157.892217308052892, 21.471820901697431 ], [ -157.891205307804626, 21.471095901548814 ], [ -157.889959307373289, 21.466735900501497 ], [ -157.887792306836531, 21.465041900147973 ], [ -157.884343306026949, 21.46358089989323 ], [ -157.878972304866011, 21.464064900184212 ], [ -157.877507304452536, 21.461520899596472 ], [ -157.877705304422705, 21.459495899085425 ], [ -157.876317304067101, 21.458083898777403 ], [ -157.875768303870984, 21.455992898273585 ], [ -157.877205304056162, 21.45239589733136 ], [ -157.876905303849327, 21.448495896368716 ], [ -157.876714303733962, 21.446463895868266 ], [ -157.875219303279266, 21.442958895041965 ], [ -157.870824302230034, 21.440604894594401 ], [ -157.864660300713041, 21.436045893653105 ], [ -157.862305300093425, 21.43319589301726 ], [ -157.861905299955112, 21.431795892680913 ], [ -157.853305297978096, 21.429295892329876 ], [ -157.846105296189222, 21.423495891111674 ], [ -157.84370529561582, 21.422195890863442 ], [ -157.843305295520821, 21.421995890826302 ], [ -157.839305294412526, 21.41559588935722 ], [ -157.83980529450784, 21.41519588924174 ], [ -157.84222929495894, 21.41295588860681 ], [ -157.842473294791887, 21.406832887072774 ], [ -157.841405294469837, 21.404395886499049 ], [ -157.83120529205209, 21.399395885574709 ], [ -157.826805291047151, 21.398295885439339 ], [ -157.828205291242824, 21.395195884622439 ], [ -157.826305290574282, 21.388195882937445 ], [ -157.824705290158533, 21.386395882539219 ], [ -157.8213052893623, 21.38499588229746 ], [ -157.816205288121267, 21.381595881610689 ], [ -157.813405287399235, 21.378595880951085 ], [ -157.81310528715025, 21.373495879689287 ], [ -157.812405286960797, 21.372495879462083 ], [ -157.810605286551521, 21.372095879419042 ], [ -157.809905286369229, 21.371295879241636 ], [ -157.799405284051261, 21.370895879472542 ], [ -157.796005283280209, 21.370195879405077 ], [ -157.795205283086801, 21.369695879305613 ], [ -157.792305282371586, 21.367495878848416 ], [ -157.79120528205857, 21.365495878384483 ], [ -157.790605281833678, 21.362895877755168 ], [ -157.790505281650439, 21.358395876636514 ], [ -157.791405281776207, 21.356395876109715 ], [ -157.791105281459608, 21.349395874374189 ], [ -157.79080528127912, 21.346195873585998 ], [ -157.78990528101366, 21.344295873140613 ], [ -157.78500527979557, 21.340295872297581 ], [ -157.781905279068951, 21.338995872070875 ], [ -157.778305278272029, 21.338795872134156 ], [ -157.774305277305047, 21.336295871636526 ], [ -157.770905276526918, 21.335395871518919 ], [ -157.766605275579963, 21.335295871628936 ], [ -157.76200527454921, 21.334695871623758 ], [ -157.760905274297158, 21.334395871583443 ], [ -157.755505272987335, 21.33089587088033 ], [ -157.751305272029981, 21.329895870762801 ], [ -157.74340527019308, 21.326995870287476 ], [ -157.741105269670499, 21.326495870234908 ], [ -157.735005268310545, 21.325895870276447 ], [ -157.729205267077077, 21.326995870732439 ], [ -157.725605266151462, 21.323195869897699 ], [ -157.717705264310865, 21.320195869397072 ], [ -157.717421264247719, 21.320173869400449 ], [ -157.713505263389152, 21.320195869528533 ], [ -157.712505263212421, 21.321395869859035 ], [ -157.709905262623977, 21.320895869815732 ], [ -157.709105262409224, 21.319795869566445 ], [ -157.707305262010635, 21.319695869597844 ], [ -157.699705260431699, 21.32219587045898 ], [ -157.698605260218699, 21.322995870692914 ], [ -157.697774260057599, 21.323593870867999 ], [ -157.692605258919599, 21.323495871005257 ], [ -157.690405258450909, 21.323895871173818 ], [ -157.688905258164397, 21.325095871519977 ], [ -157.687905257941338, 21.324995871526266 ], [ -157.685457257365215, 21.323907871331521 ], [ -157.679705256052273, 21.322495871159177 ], [ -157.676248255242882, 21.321076870913323 ], [ -157.675305255022323, 21.320695870847764 ], [ -157.675153254981467, 21.320484870799898 ], [ -157.670805253856599, 21.31569586974134 ], [ -157.665905252667073, 21.312495869096317 ], [ -157.663305252053647, 21.311295868878165 ], [ -157.660205251390892, 21.311795869099686 ], [ -157.657405250804601, 21.312595869386541 ], [ -157.655705250406527, 21.31189586926504 ], [ -157.652090628861998, 21.312108494181398 ], [ -157.653705249615683, 21.301995866858274 ], [ -157.666560860184291, 21.293163527176464 ], [ -157.68875433648995, 21.277915684967041 ], [ -157.694605257594191, 21.27389585857523 ], [ -157.694405257287514, 21.266495856736604 ], [ -157.700105258449355, 21.263995855935597 ], [ -157.709705260488022, 21.262095855162343 ], [ -157.713905261469762, 21.26379585545498 ], [ -157.714205261631548, 21.266495856118659 ], [ -157.711405261212747, 21.271995857577124 ], [ -157.71220526172246, 21.281395859895536 ], [ -157.714305262293465, 21.284495860602746 ], [ -157.721305263914672, 21.286895860982273 ], [ -157.721639979318724, 21.286812881383714 ], [ -157.7217056046251, 21.286796612154703 ], [ -157.736359273552296, 21.283163807838541 ], [ -157.741116049930469, 21.28198455110466 ], [ -157.757205271472969, 21.277995857641034 ], [ -157.762212188737294, 21.278573578722007 ], [ -157.765005273215735, 21.278895857621208 ], [ -157.771929779408083, 21.276063104745145 ], [ -157.778205275918054, 21.273495855862116 ], [ -157.779645043088379, 21.272230020173762 ], [ -157.781461282318759, 21.270633192239327 ], [ -157.786355833567171, 21.266329928644311 ], [ -157.793105278718258, 21.260395852131314 ], [ -157.794967699786611, 21.260091092250917 ], [ -157.799635896194417, 21.25932720539252 ], [ -157.809605282239318, 21.25769585094179 ], [ -157.813119171930083, 21.258581962163536 ], [ -157.821105284863592, 21.260595851303787 ], [ -157.824105285663961, 21.264595852206256 ], [ -157.825305286169794, 21.271395853862622 ], [ -157.827912694263034, 21.274595854578017 ], [ -157.831905287905897, 21.279495855673456 ], [ -157.835375593014248, 21.282136305110598 ], [ -157.845621785061809, 21.289932320498167 ], [ -157.845705291306444, 21.289995857855747 ], [ -157.857746473814643, 21.294480722368448 ], [ -157.861584082779444, 21.295910080012273 ], [ -157.868326257982716, 21.298421273766294 ], [ -157.872207292933297, 21.299866805873165 ], [ -157.890005301607317, 21.30649586057201 ], [ -157.893482659054115, 21.316603950008034 ], [ -157.894522996633214, 21.319628035237564 ], [ -157.895756484968217, 21.321777829278801 ], [ -157.898974711341396, 21.327386738324861 ], [ -157.904825534675609, 21.329167423965281 ], [ -157.905937601313639, 21.328335878793418 ], [ -157.907298970545696, 21.327317918202358 ], [ -157.912193685337854, 21.323657906909926 ], [ -157.918943836375689, 21.318610497597337 ], [ -157.917926299362591, 21.313777208589372 ], [ -157.913474584832812, 21.310978986035085 ], [ -157.910930749941514, 21.305764117668076 ], [ -157.95226810396079, 21.306527270248125 ], [ -157.950741801689816, 21.312505287698446 ], [ -157.951572380257772, 21.317027324922101 ], [ -157.951850573722652, 21.318541933234897 ], [ -157.951886528701664, 21.318737688049371 ], [ -157.967976319464128, 21.327981863461027 ], [ -157.970198036230613, 21.327749873565789 ], [ -157.971677994297949, 21.327595337523132 ], [ -157.973339320618749, 21.327421863151876 ], [ -157.973457048482942, 21.327352777595021 ], [ -157.985876772099004, 21.320064583518061 ], [ -157.989429323802653, 21.317979860291896 ], [ -157.992990458619857, 21.317098206172062 ], [ -158.024505331170332, 21.309295857019418 ], [ -158.03000726553617, 21.308390366047043 ], [ -158.047195762346803, 21.305561537555636 ], [ -158.047205336049643, 21.306795855677667 ], [ -158.047505336263441, 21.310895856688475 ], [ -158.047605336498435, 21.316795858153633 ], [ -158.036805334318245, 21.321895859765515 ], [ -158.038844334920952, 21.326220860777315 ], [ -158.041705335734434, 21.331395861974514 ], [ -158.039505335299737, 21.332695862367913 ], [ -158.043163336178509, 21.334847862787431 ], [ -158.048105337262285, 21.334895862642455 ], [ -158.05090533787893, 21.334995862578481 ], [ -158.043805336382292, 21.336595863202163 ], [ -158.040105335630017, 21.338195863717825 ], [ -158.037605335176607, 21.340795864444384 ], [ -158.040005335767262, 21.342595864816197 ], [ -158.035024334888305, 21.348447866431083 ], [ -158.029705333822903, 21.351195867284016 ], [ -158.03200533463783, 21.359795869351863 ], [ -158.033265334997793, 21.362116869889622 ], [ -158.036205335836485, 21.367495871135272 ], [ -158.034405335659613, 21.373495872686213 ], [ -158.035705336027689, 21.375795873217459 ], [ -158.037305336389039, 21.376095873241283 ], [ -158.038205336640516, 21.377595873586099 ], [ -158.032405335377376, 21.377795873820265 ], [ -158.028305334544626, 21.379595874398859 ], [ -158.025705334025815, 21.380995874830045 ], [ -158.023205333525283, 21.382295875233215 ], [ -158.021805333243975, 21.382995875451947 ], [ -158.019805332842083, 21.383995875764516 ], [ -158.01670533220647, 21.385195876161841 ], [ -158.013305331490557, 21.385995876469128 ], [ -158.003505329412405, 21.38789587725363 ], [ -158.000705328860448, 21.389595877765938 ], [ -157.997705328293733, 21.392095878483801 ], [ -157.997005328158451, 21.392595878630569 ], [ -157.995005327781826, 21.394295879117465 ], [ -157.994305327653819, 21.394995879313981 ], [ -157.992105327236885, 21.396795879832233 ], [ -157.987105326228118, 21.399195880588724 ], [ -157.989405326808196, 21.401295881038692 ], [ -157.990405327027361, 21.40129588100692 ], [ -157.994105327845375, 21.401495880939184 ], [ -157.994905328046059, 21.40219588108809 ], [ -157.995405328184603, 21.402995881271444 ], [ -158.000762329648069, 21.410983883090513 ], [ -158.002305330066434, 21.413195883592397 ], [ -158.005008330802042, 21.417146884490368 ], [ -158.008505331762507, 21.422495885711299 ], [ -158.0100053321747, 21.424795886236399 ], [ -158.010605332357045, 21.426195886565949 ], [ -158.013905333221857, 21.430095887432206 ], [ -158.015505333616034, 21.431295887680157 ], [ -158.02950533661479, 21.429395886760933 ], [ -158.032567337351225, 21.431197887112113 ], [ -158.03275033740988, 21.431708887233569 ], [ -158.032903337543132, 21.434451887911798 ], [ -158.031316337323119, 21.437964888837239 ], [ -158.030553337549208, 21.448775891554035 ], [ -158.031605337896906, 21.451995892322408 ], [ -158.031713338020353, 21.454737893001905 ], [ -158.029882337748859, 21.458300893947733 ], [ -158.026505337161439, 21.462495895100332 ], [ -158.026305337226859, 21.465495895853945 ], [ -158.025305337022218, 21.465895895985476 ], [ -158.022405336506807, 21.469195896900011 ], [ -158.021856336518624, 21.47282389782124 ], [ -158.018805336038213, 21.477995899206967 ], [ -158.018705336023572, 21.478195899259998 ], [ -158.018291335932844, 21.478195899273189 ], [ -158.010167334267749, 21.481372900323866 ], [ -158.006658333580162, 21.483615900994611 ], [ -158.005162333363302, 21.486666901802497 ], [ -158.00116533249394, 21.486857901977618 ], [ -158.000615332339009, 21.485915901760446 ], [ -158.000097332224925, 21.485900901773242 ], [ -157.993261330833349, 21.48884590272506 ], [ -157.988622329832111, 21.489283902982166 ], [ -157.986805329375898, 21.487695902644457 ], [ -157.986505329408402, 21.490395903326764 ] ] ] } },
{ "type": "Feature", "properties": { "DISTRICT": "2", "STARTCONG": "103", "ENDCONG": "107", "ST": "15", "STA": "HI", "ELECT_YEAR": "1992-2000", "TYPE": "US Cong" }, "geometry": { "type": "MultiPolygon", "coordinates": [ [ [ [ -155.634927513748636, 18.946086546708923 ], [ -155.638058732412674, 18.941718335580461 ], [ -155.658490736417093, 18.924830330853872 ], [ -155.67201008623303, 18.91746146589605 ], [ -155.674512655907591, 18.917774287352845 ], [ -155.681829552315719, 18.918688900127233 ], [ -155.685292123062538, 18.921430101434325 ], [ -155.687721233978976, 18.923353147201809 ], [ -155.688390927035925, 18.925764042535807 ], [ -155.69017609836169, 18.932190660185086 ], [ -155.693121939363266, 18.940537220294786 ], [ -155.707993381747031, 18.953588139027858 ], [ -155.72402619585344, 18.967658257349246 ], [ -155.726047752487915, 18.969432340230245 ], [ -155.763602761071525, 18.981832342352622 ], [ -155.806113771302989, 19.013962349255483 ], [ -155.839155336203845, 19.020728291788426 ], [ -155.853947782064353, 19.023757350457366 ], [ -155.881554788481509, 19.036639352948143 ], [ -155.88408178911024, 19.039261353535071 ], [ -155.88628279006565, 19.055755357582711 ], [ -155.903697794600163, 19.08077236335637 ], [ -155.908359795631952, 19.081133363324952 ], [ -155.908437833236064, 19.08137312208267 ], [ -155.92139379964209, 19.12117837295245 ], [ -155.917296799749266, 19.155958381717547 ], [ -155.903343798481728, 19.21778739747911 ], [ -155.904914799184922, 19.230142400515359 ], [ -155.902569799492682, 19.258422407621612 ], [ -155.895439798400446, 19.274634411847856 ], [ -155.890846798099716, 19.298900418015059 ], [ -155.887360798449436, 19.337096427626175 ], [ -155.888705799064013, 19.34802643031518 ], [ -155.898796802155545, 19.377979437515851 ], [ -155.913853806138945, 19.401102442882756 ], [ -155.90998965765948, 19.412745200007745 ], [ -155.909091805515061, 19.415450446585936 ], [ -155.921711808729469, 19.430545450015558 ], [ -155.92427380953464, 19.438789452003228 ], [ -155.925170810594835, 19.468076459282578 ], [ -155.922613810344103, 19.478606461976547 ], [ -155.924128810759356, 19.481401462633386 ], [ -155.930527812268338, 19.484916463340067 ], [ -155.935645813413117, 19.485623463380364 ], [ -155.936241968437429, 19.482710752679466 ], [ -155.936407813470453, 19.481900462431675 ], [ -155.93914981406283, 19.481572462276986 ], [ -155.9514948169234, 19.486644463213644 ], [ -155.952901817296095, 19.48880046371389 ], [ -155.953667818091702, 19.509998468979958 ], [ -155.957037792768347, 19.528157342442114 ], [ -155.957746211601972, 19.531974607908705 ], [ -155.960461820669479, 19.54660747793001 ], [ -155.962268821219823, 19.551774479170639 ], [ -155.965215821955212, 19.554740479831821 ], [ -155.96935482290047, 19.555958480025129 ], [ -155.970973824159529, 19.586323487556768 ], [ -155.976262919420066, 19.602278473140803 ], [ -155.978210826400044, 19.608154492809696 ], [ -155.980193302540897, 19.611673941277381 ], [ -155.989943952678601, 19.628984066719354 ], [ -155.995660329477232, 19.639132231000971 ], [ -155.997732831724477, 19.642811500933437 ], [ -156.003459748515667, 19.644145839073055 ], [ -156.028986838808891, 19.650093501910131 ], [ -156.032932839789851, 19.653900502753746 ], [ -156.034998840407326, 19.659355504059157 ], [ -156.033330840337072, 19.669225506566651 ], [ -156.029746679661741, 19.671002093590378 ], [ -156.027431839128838, 19.672149507455192 ], [ -156.029285839738947, 19.678903509090485 ], [ -156.036083841573429, 19.69024751173799 ], [ -156.047964844445119, 19.698933513584826 ], [ -156.051656845398071, 19.703644514660777 ], [ -156.052489846033495, 19.718662518385909 ], [ -156.064368849008559, 19.730761521084045 ], [ -156.05722484779389, 19.742531524214698 ], [ -156.052369537890343, 19.756686659881908 ], [ -156.052319847147686, 19.756831527916628 ], [ -156.049655847275915, 19.780447533883791 ], [ -156.021736841795445, 19.802195540070244 ], [ -156.006271838859703, 19.81757554433003 ], [ -156.00515613458964, 19.818911334543383 ], [ -156.004262287320699, 19.819981503822209 ], [ -156.003295646816127, 19.821138825668527 ], [ -155.982825834551704, 19.845646551976934 ], [ -155.976655833341908, 19.850525553363081 ], [ -155.964821830878805, 19.855178554846287 ], [ -155.949255827509319, 19.857029555730396 ], [ -155.945301826530539, 19.85343855494013 ], [ -155.940315825398784, 19.852300554790752 ], [ -155.925847822414596, 19.858923556837187 ], [ -155.926942822997006, 19.870216559629757 ], [ -155.925494822822799, 19.874995560863372 ], [ -155.91566682102598, 19.88712156416025 ], [ -155.910431461857996, 19.896675377767817 ], [ -155.910431142295749, 19.896675960925055 ], [ -155.909737439442466, 19.897941873644108 ], [ -155.909398049464215, 19.898561213881919 ], [ -155.909330107615375, 19.898685198452817 ], [ -155.901991818770227, 19.912076570768832 ], [ -155.894103817367863, 19.923130573746214 ], [ -155.894478817565329, 19.926922574684244 ], [ -155.892537817296443, 19.932157576045828 ], [ -155.866923812320891, 19.954167582244157 ], [ -155.865611755583217, 19.956036161525656 ], [ -155.856592810490554, 19.968880586204271 ], [ -155.840712807235462, 19.976947588652717 ], [ -155.838696806747947, 19.975522588350771 ], [ -155.835316806019648, 19.97607358858021 ], [ -155.831952805481194, 19.982770590346846 ], [ -155.83122100074479, 19.985902656260233 ], [ -155.828969805210818, 19.995537593621997 ], [ -155.825477805364045, 20.025939601324229 ], [ -155.828186806249562, 20.035419603623172 ], [ -155.835819459395964, 20.044729494466157 ], [ -155.841376898865406, 20.051508153712462 ], [ -155.842988456343363, 20.053473842958223 ], [ -155.843076836234587, 20.053581643892425 ], [ -155.843179333349042, 20.053706664239751 ], [ -155.846334515625159, 20.057555182181559 ], [ -155.850389811970047, 20.062501609797071 ], [ -155.851851675562585, 20.063928132757759 ], [ -155.851988541895963, 20.064061690340026 ], [ -155.866935816111265, 20.078647613387123 ], [ -155.884194820776372, 20.106745619948317 ], [ -155.899153825270673, 20.145723629295158 ], [ -155.906039828618475, 20.20515264398416 ], [ -155.901456828552398, 20.235782651780021 ], [ -155.890667826772244, 20.255235656948866 ], [ -155.882635825239959, 20.263021659120184 ], [ -155.873925823463082, 20.267739660541675 ], [ -155.85329781902638, 20.271543662062104 ], [ -155.813309058640527, 20.260810914409522 ], [ -155.81146380944233, 20.260315660397868 ], [ -155.801277978568294, 20.255288985375639 ], [ -155.783246802782031, 20.246390657681726 ], [ -155.779026265745813, 20.245841178919736 ], [ -155.778238801655903, 20.245738657655394 ], [ -155.772738800430858, 20.245404657722222 ], [ -155.765884079921591, 20.241933926730013 ], [ -155.746897794321342, 20.232320655149618 ], [ -155.737008791844175, 20.22276865302565 ], [ -155.735826791266078, 20.212412650462493 ], [ -155.732708790362381, 20.205387648787035 ], [ -155.702197408674493, 20.190650052959082 ], [ -155.653970771808417, 20.167355641395595 ], [ -155.630386765976738, 20.146911636909802 ], [ -155.624569764661004, 20.145906636815269 ], [ -155.607801760715773, 20.137982635282235 ], [ -155.600913758848236, 20.126568632607025 ], [ -155.598037758151207, 20.124534632174761 ], [ -155.590927756518397, 20.122492631854737 ], [ -155.588260237252456, 20.122815862661056 ], [ -155.58168475450978, 20.123612632384841 ], [ -155.568372751777218, 20.130540634480617 ], [ -155.558937749722844, 20.131565634991929 ], [ -155.552631535481197, 20.129502062746884 ], [ -155.523665741577872, 20.120023633047229 ], [ -155.516799739915484, 20.11522563202864 ], [ -155.510722178214763, 20.114766634088287 ], [ -155.502565736736329, 20.114150632141421 ], [ -155.468215728844996, 20.104291630590303 ], [ -155.443961723212311, 20.095313628987917 ], [ -155.438902680600052, 20.093139310445139 ], [ -155.40546371420271, 20.078767625866096 ], [ -155.402404713429547, 20.0755366251372 ], [ -155.400426797236832, 20.074412754566104 ], [ -155.387582709899675, 20.067114623419656 ], [ -155.363461706282663, 20.055088599873006 ], [ -155.35875594349875, 20.052742444839541 ], [ -155.330214696357615, 20.038512617769637 ], [ -155.319518500349773, 20.034176547041341 ], [ -155.29548468825601, 20.024433615157712 ], [ -155.287181358648922, 20.022838337088579 ], [ -155.282633685339363, 20.02196461487836 ], [ -155.270664026668044, 20.014728187013436 ], [ -155.270320682394413, 20.014520613336 ], [ -155.268123143993819, 20.012699340705559 ], [ -155.265262768078628, 20.010328722578549 ], [ -155.263938122061859, 20.009230884408932 ], [ -155.261574827732147, 20.007272236824345 ], [ -155.252190802965316, 19.999494958635388 ], [ -155.249836770044766, 19.997543986707594 ], [ -155.246467760958581, 19.994751824332088 ], [ -155.240937675172887, 19.990168608000602 ], [ -155.226298354354896, 19.981840177484763 ], [ -155.2168102851046, 19.976442336528375 ], [ -155.204490666496298, 19.96943360375667 ], [ -155.196571992639008, 19.960572821662556 ], [ -155.194597663981426, 19.958363601238442 ], [ -155.179943660474095, 19.949367599365463 ], [ -155.149219652897699, 19.92286759351968 ], [ -155.144398651762003, 19.920518593056254 ], [ -155.131239648448513, 19.906796589956326 ], [ -155.129734760200591, 19.904633071524103 ], [ -155.124622646706285, 19.897283587741533 ], [ -155.12175464574517, 19.886094585008216 ], [ -155.121606614416038, 19.88595256494855 ], [ -155.114404582629788, 19.879042993915593 ], [ -155.107774073315824, 19.872681736918796 ], [ -155.107773600078588, 19.872681282898853 ], [ -155.107773164465925, 19.872680864975553 ], [ -155.107545642203405, 19.872462581957507 ], [ -155.098720640114834, 19.867806581018815 ], [ -155.098536680363196, 19.867810126393564 ], [ -155.095036639301526, 19.867877581132564 ], [ -155.086345637015143, 19.855394578225788 ], [ -155.084361636411614, 19.849731576856133 ], [ -155.085678636379299, 19.8385795740232 ], [ -155.088983636764567, 19.826651570944094 ], [ -155.090627743831959, 19.823098363284778 ], [ -155.094418637626489, 19.814905567855646 ], [ -155.093224257002817, 19.807007064879599 ], [ -155.092074636658793, 19.799404564027267 ], [ -155.091392969550043, 19.781013135411563 ], [ -155.09122063580304, 19.776363558268919 ], [ -155.093521636180867, 19.771827557071429 ], [ -155.093518061187751, 19.770890338456994 ], [ -155.093472931029851, 19.759059036130026 ], [ -155.093470454401739, 19.758409764381714 ], [ -155.093469055873555, 19.758043126852453 ], [ -155.093391635167706, 19.737746548526172 ], [ -155.09308363406987, 19.737268112635991 ], [ -155.092252481591288, 19.73597703549795 ], [ -155.089649108332111, 19.731933065487976 ], [ -155.087122633500513, 19.728008546245988 ], [ -155.085893777366778, 19.727717787279474 ], [ -155.079430631747016, 19.726188545988272 ], [ -155.073843560194206, 19.72717335158352 ], [ -155.06397662840763, 19.728912547070706 ], [ -155.053501969752347, 19.735058169034076 ], [ -155.045386624609648, 19.739819550286672 ], [ -155.006427615974758, 19.739281551156424 ], [ -155.005996280512221, 19.738776589172581 ], [ -154.997282613643762, 19.728575548705578 ], [ -154.995500755109873, 19.725040736310245 ], [ -154.992909110279726, 19.71989948738613 ], [ -154.992891012323526, 19.719863585052401 ], [ -154.987172610831578, 19.708519543933342 ], [ -154.981106608978678, 19.690682539613913 ], [ -154.984722609248706, 19.672156534873452 ], [ -154.983943618568219, 19.646869194160733 ], [ -154.983782608169292, 19.64164252724343 ], [ -154.974346605841447, 19.63319652536655 ], [ -154.963937603379833, 19.627600524229251 ], [ -154.950363600344872, 19.626456524289296 ], [ -154.947878599732292, 19.624245523798198 ], [ -154.947722599632272, 19.621942523224476 ], [ -154.951018600124229, 19.61360952105009 ], [ -154.947110599010898, 19.604851518953268 ], [ -154.933944595890154, 19.597500517445326 ], [ -154.9296874535097, 19.593935207183623 ], [ -154.928209594485338, 19.592697516386824 ], [ -154.924426593474209, 19.586548514940855 ], [ -154.918560502900533, 19.582072811561638 ], [ -154.916045062778352, 19.580153583804424 ], [ -154.90354658840468, 19.570617511476453 ], [ -154.890597248879686, 19.564345189551084 ], [ -154.875216105111093, 19.556894965150317 ], [ -154.875004581700551, 19.556792508733629 ], [ -154.852622576534174, 19.549167507388436 ], [ -154.837388572859197, 19.538349505060356 ], [ -154.826736570482069, 19.537621505147243 ], [ -154.814421567545423, 19.5300855035679 ], [ -154.809565566254321, 19.522372501755534 ], [ -154.809383566121625, 19.519081500934512 ], [ -154.822972568067087, 19.481285491110874 ], [ -154.828011491443277, 19.475576630150421 ], [ -154.838549571017296, 19.463637486292257 ], [ -154.8685445769338, 19.438121479138356 ], [ -154.874069358064105, 19.434767976533834 ], [ -154.887821580866671, 19.42642047571902 ], [ -154.928776589109503, 19.397641467473377 ], [ -154.944189592071382, 19.381847463127198 ], [ -154.964623596129911, 19.365641458551874 ], [ -154.980865599257783, 19.349286454045721 ], [ -154.984667119812542, 19.347564291096965 ], [ -155.018873128795491, 19.332068301940321 ], [ -155.020541607511831, 19.331312448542985 ], [ -155.061733616189258, 19.316631443826502 ], [ -155.113276626826973, 19.290608436009698 ], [ -155.121028426301365, 19.285100817683521 ], [ -155.13370463092329, 19.276094431861321 ], [ -155.159639636423208, 19.268370429272018 ], [ -155.172417639258867, 19.26905542911922 ], [ -155.187431642486018, 19.266151428011881 ], [ -155.196264644295638, 19.261290426572106 ], [ -155.205896646407069, 19.260902426230491 ], [ -155.243965655087919, 19.271308427863794 ], [ -155.264623659720513, 19.274208428062401 ], [ -155.296765666575567, 19.266284425261983 ], [ -155.30381266800137, 19.261830423969023 ], [ -155.313374669791642, 19.250693420941911 ], [ -155.341272675461795, 19.23403441606759 ], [ -155.349152676735486, 19.217751411798851 ], [ -155.360635679012859, 19.208925409301251 ], [ -155.378642682791252, 19.202430407219413 ], [ -155.390705685409444, 19.20116640659559 ], [ -155.402643984231815, 19.195206657558298 ], [ -155.417373690898671, 19.187853402589973 ], [ -155.427097692801851, 19.179541400266263 ], [ -155.432523693742411, 19.170618397900146 ], [ -155.453520697830498, 19.151947392703288 ], [ -155.465667700359575, 19.146959391147966 ], [ -155.505285708810419, 19.137903387874587 ], [ -155.505820443855185, 19.137597719976377 ], [ -155.514744710735641, 19.132496386283485 ], [ -155.512144710041639, 19.128169385270695 ], [ -155.512141709931086, 19.124291384303366 ], [ -155.519656711376314, 19.117020382297298 ], [ -155.52614071276858, 19.115884381847962 ], [ -155.528906713314456, 19.113705381233672 ], [ -155.544810716166239, 19.091054375177649 ], [ -155.551133717490416, 19.088775374447533 ], [ -155.557821718770839, 19.082125372618211 ], [ -155.557806286673184, 19.08204636598726 ], [ -155.555330717862859, 19.069372369502268 ], [ -155.55518171739331, 19.053927365655536 ], [ -155.557375717666872, 19.046560363762964 ], [ -155.56645071926269, 19.032526360032833 ], [ -155.5766037213468, 19.027407358497591 ], [ -155.581907722364946, 19.022235357073026 ], [ -155.596036724804833, 18.998828350879307 ], [ -155.596525724399356, 18.98064934633738 ], [ -155.601870725316076, 18.971567343938386 ], [ -155.613970727937527, 18.970394343337439 ], [ -155.62526073017591, 18.961946340944994 ], [ -155.625004730062926, 18.959929340449108 ], [ -155.626624378420843, 18.957669847663521 ], [ -155.629505537512017, 18.953650482504049 ], [ -155.634927513748636, 18.946086546708923 ] ] ], [ [ [ -157.010006095250645, 20.929752793582743 ], [ -156.989818090889145, 20.932122794777158 ], [ -156.971609086684111, 20.926249793852442 ], [ -156.937534079151987, 20.925269794621929 ], [ -156.918455074860532, 20.922541794507342 ], [ -156.897174069935147, 20.915390793351968 ], [ -156.837052054961561, 20.863570782178328 ], [ -156.825242051932292, 20.850726779316084 ], [ -156.809581047660771, 20.826031773604438 ], [ -156.808474047229197, 20.820391772227236 ], [ -156.809468047074233, 20.809164769391675 ], [ -156.817432048342681, 20.794601765517509 ], [ -156.83832605194209, 20.76457075739858 ], [ -156.846418053577025, 20.760196756067774 ], [ -156.85148605468757, 20.760064755885772 ], [ -156.869758058528475, 20.754696754007185 ], [ -156.890300062718836, 20.744850750943169 ], [ -156.909086066672671, 20.73952874906076 ], [ -156.949014075432785, 20.738992747749709 ], [ -156.96789507945212, 20.735075746214434 ], [ -156.984752083878277, 20.756672751107963 ], [ -156.99400608691613, 20.786666758322387 ], [ -156.988938086768485, 20.815491765670096 ], [ -156.991839087779169, 20.826598768357627 ], [ -157.006248091720522, 20.849598773673453 ], [ -157.010916092910975, 20.85447177475163 ], [ -157.054557103273055, 20.877214779131041 ], [ -157.059668104647216, 20.884629780830107 ], [ -157.061133105172189, 20.890630782284873 ], [ -157.062516105941341, 20.904380785677233 ], [ -157.059135105503259, 20.913402788031412 ], [ -157.035794100832732, 20.927073792143432 ], [ -157.025631098680122, 20.929523793059051 ], [ -157.010006095250645, 20.929752793582743 ] ] ], [ [ [ -156.567144987000518, 20.6048907253852 ], [ -156.558732304933244, 20.598572512983171 ], [ -156.553608983689287, 20.594724723233682 ], [ -156.546589449161502, 20.585019838812368 ], [ -156.543038556878912, 20.580110539048903 ], [ -156.542812577058356, 20.573669979796897 ], [ -156.548914162163271, 20.568585319969152 ], [ -156.556026008612832, 20.542652910419687 ], [ -156.553023309678622, 20.539377245210968 ], [ -156.540193599238989, 20.534736716659243 ], [ -156.539647655691425, 20.527639432171114 ], [ -156.541381384285415, 20.525784893986422 ], [ -156.544173979280345, 20.522797705524152 ], [ -156.55002061023211, 20.520269170412739 ], [ -156.559998982734129, 20.521887704842388 ], [ -156.586242988180118, 20.511706701544114 ], [ -156.603848992464407, 20.524367704201371 ], [ -156.631147998164465, 20.514938701059652 ], [ -156.642352000412899, 20.508280699073701 ], [ -156.647469001659601, 20.512012699858484 ], [ -156.656505522404302, 20.508931095606833 ], [ -156.660093215444135, 20.507707632457969 ], [ -156.6688140061176, 20.504733697425053 ], [ -156.674758912052141, 20.505590722992689 ], [ -156.682944009290935, 20.506770697526214 ], [ -156.703678014515987, 20.527232702037487 ], [ -156.702270014376239, 20.532446703380415 ], [ -156.696667013443772, 20.54164170583892 ], [ -156.689912991697668, 20.547911666823321 ], [ -156.680230745039523, 20.556899986830224 ], [ -156.680105010302299, 20.557016710158411 ], [ -156.666622370638635, 20.561058242164695 ], [ -156.651572004304001, 20.565569713120055 ], [ -156.643173341954082, 20.570462061073865 ], [ -156.633983816784223, 20.575815098591946 ], [ -156.61460299686982, 20.587104719569485 ], [ -156.610738996236222, 20.593765721345999 ], [ -156.604759524704349, 20.596025924065206 ], [ -156.576875989197845, 20.606565725523293 ], [ -156.567144987000518, 20.6048907253852 ] ] ], [ [ [ -156.586838120889553, 21.027039616496246 ], [ -156.580453003616753, 21.020167828929996 ], [ -156.562777999580561, 21.01616282844623 ], [ -156.549817996344871, 21.004934826013724 ], [ -156.54629599557191, 21.005077826152903 ], [ -156.52825099034709, 20.967752817330563 ], [ -156.518711987806711, 20.954657814329025 ], [ -156.51223098626366, 20.951275813671248 ], [ -156.510395985496871, 20.940353810988665 ], [ -156.507917984867987, 20.937881810441787 ], [ -156.499484982896632, 20.934572809859027 ], [ -156.495887981885119, 20.928000808317627 ], [ -156.494486343848791, 20.921584302799637 ], [ -156.493939809341327, 20.919082343240731 ], [ -156.49326798091036, 20.91600680538934 ], [ -156.489608317533794, 20.910667198446411 ], [ -156.484340593089655, 20.902981360946626 ], [ -156.484055601720428, 20.9025655462289 ], [ -156.483785220268544, 20.902171048011663 ], [ -156.481059977627439, 20.8981948012831 ], [ -156.474800976125209, 20.894541800550254 ], [ -156.470782910165951, 20.895858725538588 ], [ -156.461698915656115, 20.8988360134889 ], [ -156.45034916743171, 20.902555904401336 ], [ -156.422672965177213, 20.91162680634714 ], [ -156.396718579232413, 20.91724814333519 ], [ -156.396226444043293, 20.917354732554742 ], [ -156.386049957348035, 20.919558809398751 ], [ -156.374301955017103, 20.927611811758378 ], [ -156.370733954394865, 20.932664813128639 ], [ -156.365568834232363, 20.935163097453387 ], [ -156.352653950686687, 20.941409815845756 ], [ -156.345659949146778, 20.941591816094256 ], [ -156.342369948325683, 20.938732815472836 ], [ -156.341652783451963, 20.939312150745192 ], [ -156.341537896825116, 20.939404957682143 ], [ -156.339857924271769, 20.940762061735164 ], [ -156.332821946468556, 20.946445817683678 ], [ -156.324582944769844, 20.950179818858892 ], [ -156.307202940683055, 20.942734817495339 ], [ -156.286336936232146, 20.947696819343779 ], [ -156.275120933413092, 20.937356817074672 ], [ -156.263111930872896, 20.940883818306464 ], [ -156.258588726855237, 20.940212556633078 ], [ -156.242559926227699, 20.937833818134841 ], [ -156.230163923292935, 20.931931817011876 ], [ -156.230093922817815, 20.917859813483702 ], [ -156.226761922042158, 20.91667281328197 ], [ -156.22206692105695, 20.91830481382669 ], [ -156.217957920091493, 20.916568813509549 ], [ -156.216345919423873, 20.907030811163178 ], [ -156.19737142165377, 20.893817824120326 ], [ -156.173107908880411, 20.876921804852419 ], [ -156.170462908219946, 20.874600804346009 ], [ -156.166750907107996, 20.865641802204845 ], [ -156.132673899431154, 20.861364802107932 ], [ -156.129385898255066, 20.847508798725404 ], [ -156.115739894582902, 20.827296794044202 ], [ -156.100127891167944, 20.828497794791257 ], [ -156.090295889101526, 20.831867795917411 ], [ -156.060449707169823, 20.81099513645545 ], [ -156.059792881664777, 20.810535791433491 ], [ -156.033291875726746, 20.808241791611529 ], [ -156.00353686873359, 20.795540789268657 ], [ -156.003112706693457, 20.791098327701228 ], [ -156.002951868407592, 20.789413787747424 ], [ -155.98794886467482, 20.776547784943311 ], [ -155.984591863641953, 20.767491782765372 ], [ -155.986855863857613, 20.758572780462703 ], [ -155.985417863081125, 20.744240776906498 ], [ -155.987220862792469, 20.722712771453129 ], [ -155.991538863458516, 20.713649769057 ], [ -156.001874865247544, 20.698059764853507 ], [ -156.014154867568635, 20.685676761400224 ], [ -156.020048868909612, 20.686852761528744 ], [ -156.030706871125858, 20.682447760122724 ], [ -156.040345872946631, 20.672714757409182 ], [ -156.04379087345896, 20.664897755351383 ], [ -156.053389875243425, 20.654315752426456 ], [ -156.059757876578459, 20.652039751675872 ], [ -156.081476881453597, 20.654382751649305 ], [ -156.089369883010562, 20.648514749954806 ], [ -156.108406775736626, 20.639583905667845 ], [ -156.111753671148591, 20.638013764878639 ], [ -156.120989889523315, 20.633680745341508 ], [ -156.129902891295501, 20.627518743544716 ], [ -156.142669893990274, 20.623600742201237 ], [ -156.144592894428627, 20.624027742253819 ], [ -156.148089895362034, 20.629062743416487 ], [ -156.156776897298954, 20.629634743313574 ], [ -156.169736900088168, 20.627353742374545 ], [ -156.173397900792366, 20.624095741454358 ], [ -156.184560903437301, 20.629714742545499 ], [ -156.192942905353817, 20.631764742821158 ], [ -156.210262909073776, 20.62851374151462 ], [ -156.222936534870712, 20.623825844096217 ], [ -156.225342912223965, 20.622935739688653 ], [ -156.236149914385237, 20.615945737630526 ], [ -156.239445277502227, 20.614360806809682 ], [ -156.246422962039077, 20.611004834527463 ], [ -156.258563624820709, 20.605165687233153 ], [ -156.265925920496954, 20.601624733196992 ], [ -156.282473139519539, 20.597018925672071 ], [ -156.284395924407079, 20.59648373138398 ], [ -156.288041925068313, 20.592025730163975 ], [ -156.293458926159047, 20.588778729196832 ], [ -156.293870664933905, 20.588663559988774 ], [ -156.301877622378299, 20.586423899786979 ], [ -156.302696928113903, 20.586194728286838 ], [ -156.303101947369669, 20.586236206151991 ], [ -156.312694144367867, 20.587218539332312 ], [ -156.314501451446461, 20.587403624950383 ], [ -156.318162537232013, 20.587778555327994 ], [ -156.322948932647421, 20.588268728229 ], [ -156.351720938950535, 20.586965727082113 ], [ -156.359638940535689, 20.581972725606516 ], [ -156.370729942877404, 20.578755724484697 ], [ -156.377637944389591, 20.578422724204163 ], [ -156.385966851859877, 20.580118567373674 ], [ -156.388030721566111, 20.580538790476965 ], [ -156.415317952942843, 20.586094725046419 ], [ -156.417527953547108, 20.589723725891094 ], [ -156.415750953294804, 20.594039727021897 ], [ -156.417803953897163, 20.59867772812354 ], [ -156.423145955184395, 20.602074728820476 ], [ -156.427712956087447, 20.598868727887439 ], [ -156.431876956981569, 20.598138727585482 ], [ -156.438389958520304, 20.601332728197907 ], [ -156.444246960024827, 20.607936729682137 ], [ -156.442888959916502, 20.613837731197492 ], [ -156.450655962547813, 20.642207738072944 ], [ -156.445898961728119, 20.649265739975764 ], [ -156.443677961457439, 20.656013741728291 ], [ -156.443951728484365, 20.65869048253607 ], [ -156.444066157309521, 20.659809303561534 ], [ -156.445702867708093, 20.675812142041636 ], [ -156.448660964139805, 20.704734753778627 ], [ -156.450162381981443, 20.717801245742692 ], [ -156.451042965340491, 20.725464758898962 ], [ -156.452899965939764, 20.731282760301823 ], [ -156.458442967338101, 20.736671761490808 ], [ -156.459768062950218, 20.742689729139947 ], [ -156.461464040044575, 20.750392067894538 ], [ -156.462246968741226, 20.753947765705743 ], [ -156.462062969309244, 20.772566770372546 ], [ -156.463254258969044, 20.778025697009678 ], [ -156.46404797004476, 20.781662772592508 ], [ -156.473566972442399, 20.790751774592568 ], [ -156.489500976206102, 20.798334776029318 ], [ -156.490775514619941, 20.798501411022169 ], [ -156.501692978947915, 20.799928776074744 ], [ -156.506030979889402, 20.799458775831177 ], [ -156.515998981916425, 20.794229774232861 ], [ -156.518612464950422, 20.79042816363182 ], [ -156.52112920345931, 20.786767279030371 ], [ -156.524308556008179, 20.782142546366373 ], [ -156.525219983509771, 20.780816770607785 ], [ -156.537756986195177, 20.778403769639919 ], [ -156.547746332109597, 20.782953477677417 ], [ -156.631799008338504, 20.821235777619464 ], [ -156.667033066417702, 20.858321051750082 ], [ -156.667363511319252, 20.85866885840154 ], [ -156.678639020296259, 20.870536788583522 ], [ -156.680849364537181, 20.87441467537257 ], [ -156.684125988672719, 20.880163271999294 ], [ -156.688974023177025, 20.888668792816954 ], [ -156.68780902298829, 20.890715793363352 ], [ -156.687943376554585, 20.897107818193263 ], [ -156.688137023579969, 20.906320797258477 ], [ -156.691339024489537, 20.912435798694524 ], [ -156.693139391737731, 20.913598165934356 ], [ -156.693163868482856, 20.913613968802757 ], [ -156.693489172596429, 20.913823994199038 ], [ -156.697423025961683, 20.916363799498512 ], [ -156.699895026648733, 20.920624800492053 ], [ -156.694115026444706, 20.952703808690384 ], [ -156.693452948930229, 20.954085322200903 ], [ -156.693201503419999, 20.954609996973797 ], [ -156.680910024453055, 20.980257815976799 ], [ -156.68079283009331, 20.980461822968973 ], [ -156.670520901395918, 20.99834276264373 ], [ -156.665519021953799, 21.007049823138537 ], [ -156.652424019129313, 21.008989824010591 ], [ -156.645971017886581, 21.014411825558685 ], [ -156.642597017326693, 21.019931827040573 ], [ -156.64417201775376, 21.022307827589138 ], [ -156.642814017630457, 21.027578828949302 ], [ -156.619586012510553, 21.027788829686877 ], [ -156.612017010738612, 21.024765829152699 ], [ -156.612070010834003, 21.027268829778073 ], [ -156.606243009784805, 21.034366831727784 ], [ -156.592261006648073, 21.032875831766081 ], [ -156.586838120889553, 21.027039616496246 ] ] ], [ [ [ -156.982348098632798, 21.207793863929336 ], [ -156.984469099178142, 21.210058864432025 ], [ -156.984037099156239, 21.212193864979305 ], [ -156.974007097161461, 21.218498866859768 ], [ -156.969069096021741, 21.217013866637252 ], [ -156.96285209448331, 21.212126865601913 ], [ -156.951659091313786, 21.191657860817227 ], [ -156.950813090818201, 21.182631858584156 ], [ -156.946164089564945, 21.175958857054393 ], [ -156.918249406086659, 21.168274195733819 ], [ -156.903471079750318, 21.164205855396645 ], [ -156.898179078642471, 21.165935855988501 ], [ -156.89613507831524, 21.169556856956095 ], [ -156.896542078495315, 21.172203857606394 ], [ -156.867949071927086, 21.164515856540003 ], [ -156.841597066230293, 21.167921858182229 ], [ -156.821949062125697, 21.174688860464741 ], [ -156.771500051174314, 21.180048863315655 ], [ -156.756024918503812, 21.178018757304883 ], [ -156.742236044583905, 21.176209863227733 ], [ -156.738346043582908, 21.172015862293097 ], [ -156.736653042865555, 21.161875859803619 ], [ -156.719391039123309, 21.163906860826696 ], [ -156.712701037566205, 21.161542860433698 ], [ -156.71416303757411, 21.152233858058196 ], [ -156.726038039523502, 21.132355852725691 ], [ -156.748937043774362, 21.108595846094087 ], [ -156.776000049108404, 21.089746840569557 ], [ -156.790820052104777, 21.081681838109542 ], [ -156.794141052638224, 21.075791836536382 ], [ -156.835356061305788, 21.063355832196518 ], [ -156.865800067828644, 21.057796829897882 ], [ -156.87714207004052, 21.049295827432754 ], [ -156.891951073389663, 21.051826827623952 ], [ -156.895175074233634, 21.055766828513182 ], [ -156.898275671904685, 21.056401786608134 ], [ -156.951788271248404, 21.067360402247303 ], [ -156.953724087540337, 21.067756829760619 ], [ -156.9796708893588, 21.07593704711147 ], [ -156.98712636258179, 21.078287525287443 ], [ -156.988131532108838, 21.078604423888784 ], [ -156.988131581463534, 21.078604439448853 ], [ -156.997546588986751, 21.081572697672964 ], [ -157.002955098912508, 21.083277832164605 ], [ -157.006821956392287, 21.084232556183007 ], [ -157.012377336019824, 21.085604174968932 ], [ -157.01481396330243, 21.086205776295756 ], [ -157.026175104221693, 21.089010832899845 ], [ -157.030803893175687, 21.090648833170121 ], [ -157.032050105586393, 21.091089833242826 ], [ -157.037672107055783, 21.097859834766179 ], [ -157.079701116582214, 21.105830835491897 ], [ -157.093562800786458, 21.106295042792791 ], [ -157.09522532318806, 21.106350718208912 ], [ -157.095378120051237, 21.106355835149891 ], [ -157.102399091595572, 21.105464794538587 ], [ -157.107226846130231, 21.104852097944516 ], [ -157.125005126443057, 21.102595833315075 ], [ -157.143488130305371, 21.096627831264918 ], [ -157.254066154418524, 21.090596826406511 ], [ -157.298059164307233, 21.09691282664549 ], [ -157.31334816797326, 21.105750828386057 ], [ -157.299192165787332, 21.132483835491868 ], [ -157.299476165970503, 21.135967836353132 ], [ -157.293779165069935, 21.146122839062567 ], [ -157.284351163399975, 21.157750842254035 ], [ -157.27647916185677, 21.163170843847869 ], [ -157.274509161409156, 21.162757843804805 ], [ -157.25991615861949, 21.17487084727555 ], [ -157.254714157700619, 21.181371849058149 ], [ -157.251012157218355, 21.190947851563298 ], [ -157.250265157636676, 21.207734855780117 ], [ -157.256940159380719, 21.215660857556554 ], [ -157.261462160445063, 21.217656857917021 ], [ -157.263168160932111, 21.220868858667355 ], [ -157.260695160555287, 21.225679859944989 ], [ -157.257090159817068, 21.227263860451018 ], [ -157.24153915617606, 21.220964859352247 ], [ -157.226450152828136, 21.220180859617106 ], [ -157.212087149724567, 21.22184386047093 ], [ -157.202130147444421, 21.219293860137316 ], [ -157.19244414490845, 21.207639857519847 ], [ -157.185558143321913, 21.205597857219217 ], [ -157.157108136889349, 21.200701856861123 ], [ -157.148377279830726, 21.20073978355062 ], [ -157.148290969647547, 21.200740158480567 ], [ -157.14813013491397, 21.20074085714381 ], [ -157.146185603699848, 21.201747032636124 ], [ -157.144632134206347, 21.202550857702608 ], [ -157.128212130553806, 21.201483857934676 ], [ -157.117788124673126, 21.198580890071007 ], [ -157.1134431271594, 21.197370857354709 ], [ -157.097976123774913, 21.198007857983157 ], [ -157.075213702307281, 21.191973355381855 ], [ -157.06426911604234, 21.189071856769864 ], [ -157.055929450527969, 21.188832326884537 ], [ -157.055165228417337, 21.188810377079289 ], [ -157.053058113561434, 21.188749857028593 ], [ -157.047762112462891, 21.190734857685239 ], [ -157.039992110756799, 21.190904857962728 ], [ -157.01455828748044, 21.185499416778498 ], [ -157.00679012987942, 21.183848453076592 ], [ -156.999113101450405, 21.18221685702439 ], [ -156.99132309984634, 21.185505858082227 ], [ -156.987773099195607, 21.189345859150034 ], [ -156.98347710287743, 21.203954624566968 ], [ -156.982348098632798, 21.207793863929336 ] ] ], [ [ [ -160.555776768454137, 21.668283137971592 ], [ -160.551046542900764, 21.670097027134787 ], [ -160.543325593853069, 21.667123470160039 ], [ -160.542410065539173, 21.648076682067739 ], [ -160.549322298360863, 21.645349172607936 ], [ -160.554128818119693, 21.649541525761816 ], [ -160.555776768454137, 21.668283137971592 ] ] ], [ [ [ -157.789586583150566, 21.438392350468582 ], [ -157.789739171048865, 21.437675187198952 ], [ -157.789281407210012, 21.435828873276403 ], [ -157.790547886925509, 21.434308715996966 ], [ -157.791722813961712, 21.434877105994232 ], [ -157.79305032886657, 21.433906265256152 ], [ -157.793172399271754, 21.435735413047304 ], [ -157.791570226096212, 21.436505982137621 ], [ -157.79178384923469, 21.437747666400519 ], [ -157.79329446968012, 21.437654206246492 ], [ -157.791783849259275, 21.438430497381368 ], [ -157.791097203601026, 21.438438126799461 ], [ -157.790746251386253, 21.438735673271438 ], [ -157.789586583150566, 21.438392350468582 ] ] ], [ [ [ -158.047195762346803, 21.305561537555636 ], [ -158.088305344755838, 21.298795852382835 ], [ -158.103305348005449, 21.297895851682473 ], [ -158.11270535020688, 21.301895852378767 ], [ -158.121105352588046, 21.316895855843093 ], [ -158.122505353093743, 21.322395857166747 ], [ -158.122364770698482, 21.322452111450382 ], [ -158.111954350938078, 21.326617858552904 ], [ -158.114201351592982, 21.331118859601226 ], [ -158.118698147873516, 21.334102682815317 ], [ -158.119432352863527, 21.334589860298205 ], [ -158.125464354026406, 21.330259859028899 ], [ -158.131513041128557, 21.352759169001803 ], [ -158.133245356780094, 21.359202865981572 ], [ -158.138716891588558, 21.370512512244709 ], [ -158.139461833205587, 21.372052304363283 ], [ -158.140305358855926, 21.373795869386988 ], [ -158.143150542706309, 21.377241867481423 ], [ -158.143517259921481, 21.37768602395461 ], [ -158.149724361332687, 21.385203871924592 ], [ -158.155123677005548, 21.390176594768128 ], [ -158.161748364367782, 21.39627787429545 ], [ -158.179205368480694, 21.404295875731563 ], [ -158.180149064129182, 21.406719271411628 ], [ -158.181279369129072, 21.409621876990201 ], [ -158.181005369479919, 21.420863879796016 ], [ -158.182653370177093, 21.430068882033439 ], [ -158.18371917286683, 21.43204222043736 ], [ -158.184374870977507, 21.433256248395413 ], [ -158.184939737649273, 21.434302101541761 ], [ -158.186459902291773, 21.437116693114984 ], [ -158.190991960280257, 21.445507818567116 ], [ -158.192357372958639, 21.448035886192685 ], [ -158.202006776373793, 21.456738935379065 ], [ -158.205388376241558, 21.45978888869854 ], [ -158.208120474123319, 21.46172911912004 ], [ -158.21945137968595, 21.469775890731373 ], [ -158.227102047942282, 21.479834537808941 ], [ -158.231961883321986, 21.48622396253624 ], [ -158.233005383307244, 21.487595894728869 ], [ -158.231176384241508, 21.523852903809942 ], [ -158.231755384706503, 21.533030906075368 ], [ -158.234319385526845, 21.540053907740411 ], [ -158.250676389747355, 21.557368911521142 ], [ -158.275325272811074, 21.573113460734948 ], [ -158.279515396742568, 21.575789915172095 ], [ -158.277684396452628, 21.578784915976712 ], [ -158.254430391505309, 21.582679917699274 ], [ -158.190709377667048, 21.585887920558296 ], [ -158.170005372998219, 21.582295920332118 ], [ -158.137687016954999, 21.585527757087142 ], [ -158.12561536343361, 21.586734922868683 ], [ -158.123800153020596, 21.587680293012877 ], [ -158.10672535965486, 21.596572925927784 ], [ -158.106719866811034, 21.597715269032989 ], [ -158.106694359885466, 21.603019927534891 ], [ -158.109505360600309, 21.605695928110997 ], [ -158.108190360377819, 21.607482928598614 ], [ -158.102578519301289, 21.61157209450981 ], [ -158.079900354933528, 21.628096934646258 ], [ -158.067043695083612, 21.643412021107853 ], [ -158.066805352635924, 21.643695938955588 ], [ -158.066716352934947, 21.652335941111932 ], [ -158.063905352541667, 21.658395942713028 ], [ -158.06096108380126, 21.661251993945829 ], [ -158.037205347638007, 21.684295950030293 ], [ -158.024879581719546, 21.694412863186766 ], [ -158.018132344028942, 21.699950954548626 ], [ -157.992305338654973, 21.707995957387073 ], [ -157.987035337663428, 21.712489958677736 ], [ -157.96863333362964, 21.712699959322567 ], [ -157.952687832762734, 21.695504327113799 ], [ -157.947179328065772, 21.689563954240818 ], [ -157.941870641645522, 21.676205861011375 ], [ -157.939005325514728, 21.668995949372423 ], [ -157.932300543546006, 21.658599771085942 ], [ -157.930105323053795, 21.655195946215443 ], [ -157.92471298724098, 21.65126401445379 ], [ -157.924596321696583, 21.651178945389955 ], [ -157.924453010679429, 21.649972044518233 ], [ -157.924377019930773, 21.649332084642069 ], [ -157.924083636581514, 21.646861342148039 ], [ -157.923036957998875, 21.638046686312325 ], [ -157.922975585749299, 21.637529836854551 ], [ -157.922805320750683, 21.636095941685003 ], [ -157.9238053207213, 21.629295939956936 ], [ -157.921504624151368, 21.626090393704683 ], [ -157.917180637778472, 21.620065810326849 ], [ -157.915844862250594, 21.618204682573793 ], [ -157.910802317203292, 21.611178935854053 ], [ -157.90057931476494, 21.6058809348593 ], [ -157.897202579247278, 21.601430576767161 ], [ -157.885570737820302, 21.586100427469859 ], [ -157.877355308548943, 21.575272927965823 ], [ -157.878606308273987, 21.560176924160871 ], [ -157.872533306845497, 21.557563923702489 ], [ -157.866905305832859, 21.563695925411107 ], [ -157.856145303359597, 21.560656924995598 ], [ -157.852575302461219, 21.557509924324219 ], [ -157.847112881753361, 21.547871942332517 ], [ -157.841615847135643, 21.538172887006937 ], [ -157.836950298029166, 21.52994091794422 ], [ -157.837377297475541, 21.51208091347614 ], [ -157.849584300065345, 21.509593912468521 ], [ -157.851141149389662, 21.504672608739877 ], [ -157.852629874471575, 21.499966650249242 ], [ -157.849320196858031, 21.484554398291934 ], [ -157.848315182872369, 21.479874326521081 ], [ -157.846923648384063, 21.473394335824324 ], [ -157.845495297616708, 21.466742901912905 ], [ -157.842282083240462, 21.461556060111342 ], [ -157.840995296366657, 21.459478900244235 ], [ -157.840225935757076, 21.459282784988599 ], [ -157.840010719492454, 21.459227924897991 ], [ -157.839871481201499, 21.459192432110029 ], [ -157.839155643963181, 21.459009960326039 ], [ -157.838914080216711, 21.458948384083005 ], [ -157.838589048980424, 21.45886553140873 ], [ -157.824895292684914, 21.45537489973038 ], [ -157.816305290612661, 21.450195898710604 ], [ -157.813905289728922, 21.440295896317892 ], [ -157.805905287605611, 21.430095894027197 ], [ -157.801363299674733, 21.426706564228109 ], [ -157.796837515772239, 21.423329326226046 ], [ -157.793761679426666, 21.421034070504923 ], [ -157.786518282829974, 21.415628891031396 ], [ -157.786343782837264, 21.415672765992809 ], [ -157.783105282111677, 21.416487030178061 ], [ -157.779851740300217, 21.417305076180462 ], [ -157.774460766152771, 21.42134829413196 ], [ -157.772633281026089, 21.429389227425975 ], [ -157.772214525768419, 21.431231750270289 ], [ -157.772537071650902, 21.433919631541478 ], [ -157.773499471596608, 21.441939627857145 ], [ -157.774910013723343, 21.453694140841687 ], [ -157.772214526722422, 21.457737367414406 ], [ -157.764577320524637, 21.461331356428826 ], [ -157.7589200445681, 21.46133135660736 ], [ -157.754244609638988, 21.461331356754869 ], [ -157.745758962243826, 21.460184646444972 ], [ -157.741691903000486, 21.459635043268221 ], [ -157.737622448976879, 21.45908511647206 ], [ -157.731782236869293, 21.455940383008691 ], [ -157.731510813185054, 21.449154907261949 ], [ -157.731332981353006, 21.444709187693864 ], [ -157.735825462606726, 21.438419711551759 ], [ -157.736308142141013, 21.437015550924883 ], [ -157.738149499123637, 21.431658868505981 ], [ -157.739187669983778, 21.428638730832027 ], [ -157.74076718127111, 21.424043782420224 ], [ -157.741216436045079, 21.414609590170119 ], [ -157.740516284243057, 21.411844097243133 ], [ -157.739477225715319, 21.407739974392772 ], [ -157.738605271905357, 21.404295889713712 ], [ -157.730196563884022, 21.40186685215194 ], [ -157.728226572604456, 21.402099861673786 ], [ -157.727783976293324, 21.402282107301037 ], [ -157.726426042875403, 21.4028412566234 ], [ -157.724328954941825, 21.403307276019675 ], [ -157.723799387703963, 21.40328609339544 ], [ -157.723598102277123, 21.403260932600876 ], [ -157.723291003515243, 21.403222545078325 ], [ -157.722740253223662, 21.403116631891372 ], [ -157.722593265346404, 21.403051303773815 ], [ -157.722549609048059, 21.403031900923427 ], [ -157.721850579816476, 21.401591477262073 ], [ -157.721469198451302, 21.400563867890352 ], [ -157.721088001410834, 21.399536755170598 ], [ -157.718905267286232, 21.396095888287551 ], [ -157.713357820558571, 21.388995156763702 ], [ -157.708905264632506, 21.383295885408838 ], [ -157.708705264445513, 21.379295884417438 ], [ -157.71260526492992, 21.368895881701185 ], [ -157.710605264119238, 21.358495879170185 ], [ -157.70880526354199, 21.353395877954618 ], [ -157.706955235476499, 21.350707803104804 ], [ -157.70276772312377, 21.344623383711973 ], [ -157.697105260367096, 21.336395874081443 ], [ -157.693805259517887, 21.332895873311887 ], [ -157.688226999634054, 21.329433505255768 ], [ -157.685065531378712, 21.327471214698189 ], [ -157.684038123293988, 21.326833513155524 ], [ -157.682630097587435, 21.325959566202478 ], [ -157.674470938472496, 21.320895260760558 ], [ -157.664624203978974, 21.314783494783121 ], [ -157.664579621878261, 21.314755823135599 ], [ -157.664197357849645, 21.314518555817525 ], [ -157.663657899005472, 21.31418371930782 ], [ -157.66190525181031, 21.313095869370795 ], [ -157.65533942206585, 21.313615935315127 ], [ -157.651805249621333, 21.313895869885606 ], [ -157.652090628861998, 21.312108494181398 ], [ -157.655705250406527, 21.31189586926504 ], [ -157.657405250804601, 21.312595869386541 ], [ -157.660205251390892, 21.311795869099686 ], [ -157.663305252053647, 21.311295868878165 ], [ -157.665905252667073, 21.312495869096317 ], [ -157.670805253856599, 21.31569586974134 ], [ -157.675153254981467, 21.320484870799898 ], [ -157.675305255022323, 21.320695870847764 ], [ -157.676248255242882, 21.321076870913323 ], [ -157.679705256052273, 21.322495871159177 ], [ -157.685457257365215, 21.323907871331521 ], [ -157.687905257941338, 21.324995871526266 ], [ -157.688905258164397, 21.325095871519977 ], [ -157.690405258450909, 21.323895871173818 ], [ -157.692605258919599, 21.323495871005257 ], [ -157.697774260057599, 21.323593870867999 ], [ -157.698605260218699, 21.322995870692914 ], [ -157.699705260431699, 21.32219587045898 ], [ -157.707305262010635, 21.319695869597844 ], [ -157.709105262409224, 21.319795869566445 ], [ -157.709905262623977, 21.320895869815732 ], [ -157.712505263212421, 21.321395869859035 ], [ -157.713505263389152, 21.320195869528533 ], [ -157.717421264247719, 21.320173869400449 ], [ -157.717705264310865, 21.320195869397072 ], [ -157.725605266151462, 21.323195869897699 ], [ -157.729205267077077, 21.326995870732439 ], [ -157.735005268310545, 21.325895870276447 ], [ -157.741105269670499, 21.326495870234908 ], [ -157.74340527019308, 21.326995870287476 ], [ -157.751305272029981, 21.329895870762801 ], [ -157.755505272987335, 21.33089587088033 ], [ -157.760905274297158, 21.334395871583443 ], [ -157.76200527454921, 21.334695871623758 ], [ -157.766605275579963, 21.335295871628936 ], [ -157.770905276526918, 21.335395871518919 ], [ -157.774305277305047, 21.336295871636526 ], [ -157.778305278272029, 21.338795872134156 ], [ -157.781905279068951, 21.338995872070875 ], [ -157.78500527979557, 21.340295872297581 ], [ -157.78990528101366, 21.344295873140613 ], [ -157.79080528127912, 21.346195873585998 ], [ -157.791105281459608, 21.349395874374189 ], [ -157.791405281776207, 21.356395876109715 ], [ -157.790505281650439, 21.358395876636514 ], [ -157.790605281833678, 21.362895877755168 ], [ -157.79120528205857, 21.365495878384483 ], [ -157.792305282371586, 21.367495878848416 ], [ -157.795205283086801, 21.369695879305613 ], [ -157.796005283280209, 21.370195879405077 ], [ -157.799405284051261, 21.370895879472542 ], [ -157.809905286369229, 21.371295879241636 ], [ -157.810605286551521, 21.372095879419042 ], [ -157.812405286960797, 21.372495879462083 ], [ -157.81310528715025, 21.373495879689287 ], [ -157.813405287399235, 21.378595880951085 ], [ -157.816205288121267, 21.381595881610689 ], [ -157.8213052893623, 21.38499588229746 ], [ -157.824705290158533, 21.386395882539219 ], [ -157.826305290574282, 21.388195882937445 ], [ -157.828205291242824, 21.395195884622439 ], [ -157.826805291047151, 21.398295885439339 ], [ -157.83120529205209, 21.399395885574709 ], [ -157.841405294469837, 21.404395886499049 ], [ -157.842473294791887, 21.406832887072774 ], [ -157.84222929495894, 21.41295588860681 ], [ -157.83980529450784, 21.41519588924174 ], [ -157.839305294412526, 21.41559588935722 ], [ -157.843305295520821, 21.421995890826302 ], [ -157.84370529561582, 21.422195890863442 ], [ -157.846105296189222, 21.423495891111674 ], [ -157.853305297978096, 21.429295892329876 ], [ -157.861905299955112, 21.431795892680913 ], [ -157.862305300093425, 21.43319589301726 ], [ -157.864660300713041, 21.436045893653105 ], [ -157.870824302230034, 21.440604894594401 ], [ -157.875219303279266, 21.442958895041965 ], [ -157.876714303733962, 21.446463895868266 ], [ -157.876905303849327, 21.448495896368716 ], [ -157.877205304056162, 21.45239589733136 ], [ -157.875768303870984, 21.455992898273585 ], [ -157.876317304067101, 21.458083898777403 ], [ -157.877705304422705, 21.459495899085425 ], [ -157.877507304452536, 21.461520899596472 ], [ -157.878972304866011, 21.464064900184212 ], [ -157.884343306026949, 21.46358089989323 ], [ -157.887792306836531, 21.465041900147973 ], [ -157.889959307373289, 21.466735900501497 ], [ -157.891205307804626, 21.471095901548814 ], [ -157.892217308052892, 21.471820901697431 ], [ -157.893377308429564, 21.475192902501185 ], [ -157.893712308853736, 21.484866904902127 ], [ -157.893105308801438, 21.487095905477016 ], [ -157.894628309232388, 21.489764906094067 ], [ -157.895269309481336, 21.492751906818341 ], [ -157.899755310810008, 21.502238909040841 ], [ -157.899405310771613, 21.503295909315455 ], [ -157.900005310946824, 21.504495909595544 ], [ -157.904005311831781, 21.504695909518265 ], [ -157.90976531300106, 21.502089908685413 ], [ -157.943456320305813, 21.499705907018779 ], [ -157.951757322065021, 21.498011906332167 ], [ -157.955785322914409, 21.497073905970126 ], [ -157.962224324238434, 21.494647905160349 ], [ -157.9632313244133, 21.49338490481351 ], [ -157.971349326079292, 21.490241903771565 ], [ -157.975347326958826, 21.490317903663122 ], [ -157.978307327632081, 21.490981903734184 ], [ -157.986505329408402, 21.490395903326764 ], [ -157.986805329375898, 21.487695902644457 ], [ -157.988622329832111, 21.489283902982166 ], [ -157.993261330833349, 21.48884590272506 ], [ -158.000097332224925, 21.485900901773242 ], [ -158.000615332339009, 21.485915901760446 ], [ -158.00116533249394, 21.486857901977618 ], [ -158.005162333363302, 21.486666901802497 ], [ -158.006658333580162, 21.483615900994611 ], [ -158.010167334267749, 21.481372900323866 ], [ -158.018291335932844, 21.478195899273189 ], [ -158.018705336023572, 21.478195899259998 ], [ -158.018805336038213, 21.477995899206967 ], [ -158.021856336518624, 21.47282389782124 ], [ -158.022405336506807, 21.469195896900011 ], [ -158.025305337022218, 21.465895895985476 ], [ -158.026305337226859, 21.465495895853945 ], [ -158.026505337161439, 21.462495895100332 ], [ -158.029882337748859, 21.458300893947733 ], [ -158.031713338020353, 21.454737893001905 ], [ -158.031605337896906, 21.451995892322408 ], [ -158.030553337549208, 21.448775891554035 ], [ -158.031316337323119, 21.437964888837239 ], [ -158.032903337543132, 21.434451887911798 ], [ -158.03275033740988, 21.431708887233569 ], [ -158.032567337351225, 21.431197887112113 ], [ -158.02950533661479, 21.429395886760933 ], [ -158.015505333616034, 21.431295887680157 ], [ -158.013905333221857, 21.430095887432206 ], [ -158.010605332357045, 21.426195886565949 ], [ -158.0100053321747, 21.424795886236399 ], [ -158.008505331762507, 21.422495885711299 ], [ -158.005008330802042, 21.417146884490368 ], [ -158.002305330066434, 21.413195883592397 ], [ -158.000762329648069, 21.410983883090513 ], [ -157.995405328184603, 21.402995881271444 ], [ -157.994905328046059, 21.40219588108809 ], [ -157.994105327845375, 21.401495880939184 ], [ -157.990405327027361, 21.40129588100692 ], [ -157.989405326808196, 21.401295881038692 ], [ -157.987105326228118, 21.399195880588724 ], [ -157.992105327236885, 21.396795879832233 ], [ -157.994305327653819, 21.394995879313981 ], [ -157.995005327781826, 21.394295879117465 ], [ -157.997005328158451, 21.392595878630569 ], [ -157.997705328293733, 21.392095878483801 ], [ -158.000705328860448, 21.389595877765938 ], [ -158.003505329412405, 21.38789587725363 ], [ -158.013305331490557, 21.385995876469128 ], [ -158.01670533220647, 21.385195876161841 ], [ -158.019805332842083, 21.383995875764516 ], [ -158.021805333243975, 21.382995875451947 ], [ -158.023205333525283, 21.382295875233215 ], [ -158.025705334025815, 21.380995874830045 ], [ -158.028305334544626, 21.379595874398859 ], [ -158.032405335377376, 21.377795873820265 ], [ -158.038205336640516, 21.377595873586099 ], [ -158.037305336389039, 21.376095873241283 ], [ -158.035705336027689, 21.375795873217459 ], [ -158.034405335659613, 21.373495872686213 ], [ -158.036205335836485, 21.367495871135272 ], [ -158.033265334997793, 21.362116869889622 ], [ -158.03200533463783, 21.359795869351863 ], [ -158.029705333822903, 21.351195867284016 ], [ -158.035024334888305, 21.348447866431083 ], [ -158.040005335767262, 21.342595864816197 ], [ -158.037605335176607, 21.340795864444384 ], [ -158.040105335630017, 21.338195863717825 ], [ -158.043805336382292, 21.336595863202163 ], [ -158.05090533787893, 21.334995862578481 ], [ -158.048105337262285, 21.334895862642455 ], [ -158.043163336178509, 21.334847862787431 ], [ -158.039505335299737, 21.332695862367913 ], [ -158.041705335734434, 21.331395861974514 ], [ -158.038844334920952, 21.326220860777315 ], [ -158.036805334318245, 21.321895859765515 ], [ -158.047605336498435, 21.316795858153633 ], [ -158.047505336263441, 21.310895856688475 ], [ -158.047205336049643, 21.306795855677667 ], [ -158.047195762346803, 21.305561537555636 ] ] ], [ [ [ -159.467012681269523, 22.22652503683948 ], [ -159.456195679004168, 22.228807037782882 ], [ -159.441814675769649, 22.226317037667435 ], [ -159.431816693210038, 22.220075969086494 ], [ -159.431712673314109, 22.220011036456256 ], [ -159.422851389693534, 22.223840861416942 ], [ -159.421841420399375, 22.224277367658939 ], [ -159.407325668421748, 22.230551039919824 ], [ -159.38852549269015, 22.223400704484913 ], [ -159.388342206544337, 22.22333099463523 ], [ -159.388124735043363, 22.223248282951943 ], [ -159.385982663344635, 22.220005038047688 ], [ -159.371818896254695, 22.216079888935749 ], [ -159.367568659124601, 22.214902037422636 ], [ -159.359847657437854, 22.214827037672475 ], [ -159.357232656984337, 22.217740038485942 ], [ -159.353800656232863, 22.217665038586592 ], [ -159.339969652849732, 22.208515036797387 ], [ -159.338279339448746, 22.207008602573392 ], [ -159.332437054911736, 22.201801865545828 ], [ -159.32309962505505, 22.193480199342897 ], [ -159.315618646670401, 22.186813032258652 ], [ -159.313930453459164, 22.17900357863326 ], [ -159.313264431535799, 22.175922611780429 ], [ -159.312816577329926, 22.173850872225565 ], [ -159.312044116490483, 22.170277527027917 ], [ -159.311364725611355, 22.167134716400732 ], [ -159.310848239560556, 22.164745491141499 ], [ -159.310374804869383, 22.162555418203169 ], [ -159.309878184119214, 22.160258088316343 ], [ -159.309458578462056, 22.158317024402606 ], [ -159.309347553757988, 22.157803432550576 ], [ -159.309066977815036, 22.156505509539841 ], [ -159.308860643948464, 22.155551024737843 ], [ -159.308797729141276, 22.155517952748614 ], [ -159.307487749707207, 22.154829344969041 ], [ -159.3010182471441, 22.151428566545036 ], [ -159.300704031633074, 22.151263395062283 ], [ -159.29994643856125, 22.150865156380473 ], [ -159.298283718630955, 22.149991125957065 ], [ -159.29781364130784, 22.149744023679528 ], [ -159.296351320993608, 22.145809451889875 ], [ -159.295880640679059, 22.144543022456233 ], [ -159.2956668668117, 22.139532436526157 ], [ -159.295416289499769, 22.133659224944161 ], [ -159.295276639983683, 22.130386018965563 ], [ -159.29594638528468, 22.124455980156156 ], [ -159.296033669158732, 22.123683153889445 ], [ -159.296763620820656, 22.1172200377205 ], [ -159.297148639732427, 22.113811014789889 ], [ -159.303701009523962, 22.103205195785961 ], [ -159.307670682018085, 22.096779791036823 ], [ -159.308468256480666, 22.0954888183566 ], [ -159.317456642852875, 22.080940005937542 ], [ -159.317695139229897, 22.079948175333055 ], [ -159.318968268304303, 22.074653636290343 ], [ -159.319102963284649, 22.074093482691918 ], [ -159.321672643075487, 22.063407001445071 ], [ -159.322365759060318, 22.062349709535205 ], [ -159.324780643564594, 22.058666000162546 ], [ -159.333272645254965, 22.054634998870426 ], [ -159.334519750955167, 22.052508405182071 ], [ -159.336591505851374, 22.048975600476496 ], [ -159.337416209665946, 22.047569296322337 ], [ -159.337692327074166, 22.047098454486331 ], [ -159.338001645965193, 22.046570996708393 ], [ -159.341406646009119, 22.028973992229371 ], [ -159.337663365743481, 22.003350588201755 ], [ -159.336748260594163, 21.997086534400619 ], [ -159.334678293979209, 21.982917253139433 ], [ -159.333965090691891, 21.978035252674339 ], [ -159.333229642013293, 21.973000978639448 ], [ -159.333114641639582, 21.964171976455614 ], [ -159.334719641867537, 21.96109497563809 ], [ -159.339149450275954, 21.95826840898652 ], [ -159.342255076543523, 21.956286774832016 ], [ -159.350833644969839, 21.95081297253698 ], [ -159.356618645784209, 21.939541969546088 ], [ -159.382354650790518, 21.924474964929935 ], [ -159.397512850921942, 21.908870813427118 ], [ -159.408289655379349, 21.897776957427681 ], [ -159.419073260449636, 21.889646003015041 ], [ -159.425867658679522, 21.88452295354244 ], [ -159.428826579040845, 21.882685132331872 ], [ -159.431680835229457, 21.880912319304453 ], [ -159.441316125916927, 21.874927723765229 ], [ -159.446604662680329, 21.871642949641664 ], [ -159.47196766863911, 21.88291595155939 ], [ -159.477699128796701, 21.884723816992452 ], [ -159.488796447043654, 21.888224226574994 ], [ -159.490919672994949, 21.888893952386223 ], [ -159.506320291561195, 21.89008802771292 ], [ -159.517978678958798, 21.890991951972662 ], [ -159.54076379892058, 21.89121041863768 ], [ -159.555420687108324, 21.89135095076918 ], [ -159.574996691568401, 21.89658095138639 ], [ -159.577789692329958, 21.900481952254687 ], [ -159.583016445879593, 21.899315438597501 ], [ -159.584277693681713, 21.899033951672134 ], [ -159.586865338120475, 21.898965994650855 ], [ -159.592475732989612, 21.898818653803598 ], [ -159.594450894802151, 21.898766781872784 ], [ -159.596657011336958, 21.898708844581932 ], [ -159.607643998334026, 21.898420303042382 ], [ -159.61024669929472, 21.89835195060482 ], [ -159.611486186862805, 21.899196443506927 ], [ -159.618186911357782, 21.903761809405506 ], [ -159.623702031583804, 21.90751939439857 ], [ -159.62539540106107, 21.908673128038998 ], [ -159.631809484027627, 21.91304319812107 ], [ -159.637854706038411, 21.91716195429952 ], [ -159.641938677118674, 21.923438631872994 ], [ -159.647926347819151, 21.932641115843062 ], [ -159.648137708901345, 21.932965957850598 ], [ -159.668933074422597, 21.954048638348748 ], [ -159.669088960018144, 21.954206677706249 ], [ -159.669370399191592, 21.954492005327303 ], [ -159.671877715017587, 21.957033962976869 ], [ -159.681498717227242, 21.960049963387817 ], [ -159.695376810664214, 21.962019949029806 ], [ -159.705260722521302, 21.96342296339423 ], [ -159.715054936715035, 21.968267101825948 ], [ -159.720145726047605, 21.970784964695415 ], [ -159.735658424192053, 21.974820188644593 ], [ -159.758223734710128, 21.980689965814545 ], [ -159.765740736578522, 21.986588967009915 ], [ -159.772382284244884, 21.996021244850745 ], [ -159.783590275997142, 22.011938753471789 ], [ -159.788144742721386, 22.018406974090109 ], [ -159.79093774384225, 22.031172977147715 ], [ -159.788524480491191, 22.04905004653093 ], [ -159.788369818734253, 22.050195756118676 ], [ -159.786548744201951, 22.06368598533895 ], [ -159.780101743160884, 22.072562987760023 ], [ -159.748164737349327, 22.100383995760968 ], [ -159.741228736460329, 22.115661999783438 ], [ -159.737462936809806, 22.128798174265697 ], [ -159.736377878628218, 22.132583164153793 ], [ -159.733462735869409, 22.142752006757707 ], [ -159.726048734639505, 22.152167009347686 ], [ -159.699983729503344, 22.165248013500712 ], [ -159.691639924642033, 22.166779012619696 ], [ -159.669845723173921, 22.170778015928036 ], [ -159.647963147817023, 22.184075465501909 ], [ -159.644254487459762, 22.186329118158518 ], [ -159.60879971139417, 22.207874027255276 ], [ -159.591601708119327, 22.219452030726242 ], [ -159.583970706750364, 22.226676032783384 ], [ -159.575145535251551, 22.227584965555657 ], [ -159.564356594966966, 22.228696153185723 ], [ -159.559648701556, 22.229181034256797 ], [ -159.554171700323991, 22.228208034207633 ], [ -159.548599699031854, 22.226259033919959 ], [ -159.544782236170164, 22.221387375610043 ], [ -159.543683599501435, 22.219985349539076 ], [ -159.541156182988743, 22.216759984917861 ], [ -159.53459969570585, 22.21939903271047 ], [ -159.523774693275527, 22.21759803264295 ], [ -159.519415692247236, 22.215642032310654 ], [ -159.519255351737741, 22.214968058743619 ], [ -159.51835369183587, 22.211178031241626 ], [ -159.516067708447139, 22.208562418070521 ], [ -159.515579691103653, 22.208004030552104 ], [ -159.514903041771277, 22.207827873377866 ], [ -159.513622410614943, 22.207494477104539 ], [ -159.512293378007769, 22.207148480120001 ], [ -159.507816689331378, 22.205983030322702 ], [ -159.501060688064427, 22.211060031816942 ], [ -159.50096195353143, 22.217167242236645 ], [ -159.500953134345934, 22.21771275169046 ], [ -159.500826688597101, 22.225534035412252 ], [ -159.488614656530842, 22.233134315857491 ], [ -159.488563686233221, 22.233166037732637 ], [ -159.480163684384507, 22.232711037913486 ], [ -159.467012681269523, 22.22652503683948 ] ] ], [ [ [ -161.938055568848796, 23.071771589584106 ], [ -161.910772847856407, 23.065509763567011 ], [ -161.910162495681021, 23.055068934616521 ], [ -161.922628928788754, 23.050006829612077 ], [ -161.93575149036505, 23.053575479259774 ], [ -161.938055568848796, 23.071771589584106 ] ] ], [ [ [ -164.71136474609375, 23.583843231201154 ], [ -164.703520279229139, 23.5786793355933 ], [ -164.70254270212962, 23.578035811160355 ], [ -164.700820922851562, 23.576902389526371 ], [ -164.689254760742188, 23.574687957763643 ], [ -164.69384765625, 23.569116592407198 ], [ -164.706085205078125, 23.569265365600579 ], [ -164.712448120117188, 23.57556343078614 ], [ -164.71136474609375, 23.583843231201154 ] ] ], [ [ [ -166.173483522017875, 23.735235033074591 ], [ -166.172207201076077, 23.733589737111483 ], [ -166.17022705078125, 23.731037139892589 ], [ -166.169929592356567, 23.728089597320672 ], [ -166.169796610807623, 23.726771871062969 ], [ -166.169723510742159, 23.726047515869134 ], [ -166.169996086707528, 23.726223693017488 ], [ -166.17273902535473, 23.727996567996801 ], [ -166.172851562499972, 23.728069305419908 ], [ -166.173070273599933, 23.728884915563494 ], [ -166.173247644009024, 23.72954635938061 ], [ -166.173675537109375, 23.731142044067408 ], [ -166.174179077148409, 23.73613166809087 ], [ -166.173483522017875, 23.735235033074591 ] ] ], [ [ [ -160.228039391170284, 21.790712438450143 ], [ -160.2347858304027, 21.795413903373202 ], [ -160.245691994915177, 21.809921381226459 ], [ -160.247767388499483, 21.812682088386683 ], [ -160.249615834403386, 21.815140907706802 ], [ -160.24494883476649, 21.848938916194456 ], [ -160.24399708986283, 21.851491494363223 ], [ -160.237284414490489, 21.869494877983698 ], [ -160.233528081221749, 21.879569357248357 ], [ -160.233273933230151, 21.880250981717747 ], [ -160.231033833276939, 21.886258925879194 ], [ -160.228970832947283, 21.889112926655354 ], [ -160.213835830086651, 21.89918892967372 ], [ -160.205533828630564, 21.907502932016278 ], [ -160.202721828222735, 21.912417933326953 ], [ -160.194738661941926, 21.919518743713489 ], [ -160.192212337929163, 21.921765840561836 ], [ -160.190163825962628, 21.923587936524449 ], [ -160.167476821434661, 21.932858939612899 ], [ -160.137055815496723, 21.948627944577275 ], [ -160.127307813667528, 21.955503946617657 ], [ -160.125005813315227, 21.959085947582409 ], [ -160.122267812877027, 21.962876948614156 ], [ -160.11926885372938, 21.973076436973635 ], [ -160.117852482358757, 21.977893529370348 ], [ -160.112751812135286, 21.995240956932811 ], [ -160.103941472924788, 21.998616740293002 ], [ -160.100179140828288, 22.00005832134719 ], [ -160.09645580886243, 22.001484959050313 ], [ -160.088297011029113, 22.002103736110051 ], [ -160.074312181889979, 22.003164369261036 ], [ -160.072128803670978, 22.003329960366749 ], [ -160.058548800447795, 21.996375959131402 ], [ -160.051997798513298, 21.983676956229697 ], [ -160.052734798536392, 21.980316955374683 ], [ -160.056341799220576, 21.977934954659549 ], [ -160.060554800083509, 21.976724954212163 ], [ -160.063354800755747, 21.978349954514186 ], [ -160.065816801215902, 21.976557953985019 ], [ -160.078398803069973, 21.955148948259417 ], [ -160.08579280353996, 21.927290941127662 ], [ -160.080017801622432, 21.910803937265669 ], [ -160.079070800821427, 21.896075933667248 ], [ -160.098902804651345, 21.884706930165191 ], [ -160.100603771658399, 21.884176123313779 ], [ -160.103705015660694, 21.883208343481765 ], [ -160.124288809820655, 21.87678492731731 ], [ -160.147614814702877, 21.872809925514719 ], [ -160.161625817404712, 21.864741923031985 ], [ -160.174801819530472, 21.846918918175444 ], [ -160.189787821777998, 21.82244591161782 ], [ -160.20521682376048, 21.789048902848503 ], [ -160.200432822623384, 21.786474902383159 ], [ -160.205856823513557, 21.779513900477905 ], [ -160.212037472019034, 21.78166164143494 ], [ -160.213622222030068, 21.782212333243805 ], [ -160.218049826317554, 21.783750901091597 ], [ -160.225220371736185, 21.788747917533232 ], [ -160.22590762444446, 21.789226850847562 ], [ -160.226663514794637, 21.789753616426356 ], [ -160.228039391170284, 21.790712438450143 ] ] ], [ [ [ -166.214935302734375, 23.786916732788082 ], [ -166.212081909179688, 23.787282943725582 ], [ -166.21105566853339, 23.786281110351315 ], [ -166.208633422851534, 23.783916473388718 ], [ -166.209061259678975, 23.782073 ], [ -166.209152221679716, 23.781681060791037 ], [ -166.211898803710938, 23.781967163085898 ], [ -166.21297067282967, 23.783061362811331 ], [ -166.213821411132812, 23.783929824829077 ], [ -166.214723152745677, 23.786347851140274 ], [ -166.214935302734375, 23.786916732788082 ] ] ], [ [ [ -166.217949946609735, 23.859933007070946 ], [ -166.217162079675148, 23.856115750738283 ], [ -166.216766357421875, 23.854198455810568 ], [ -166.220642089843722, 23.853935241699222 ], [ -166.223907470703097, 23.858036041259751 ], [ -166.2265625, 23.86213493347168 ], [ -166.225662231445312, 23.865953445434553 ], [ -166.218231201171875, 23.86129570007326 ], [ -166.217949946609735, 23.859933007070946 ] ] ], [ [ [ -166.289940405914706, 23.864817833571568 ], [ -166.291092961238519, 23.864665480164728 ], [ -166.292633056640625, 23.864461898803693 ], [ -166.297988891601562, 23.86610984802244 ], [ -166.297454833984375, 23.869504928588849 ], [ -166.28369140625, 23.87263107299805 ], [ -166.278640747070312, 23.870164871215842 ], [ -166.280426025390653, 23.866075515747063 ], [ -166.289940405914706, 23.864817833571568 ] ] ], [ [ [ -166.246365434986217, 23.870217818623072 ], [ -166.247096059296894, 23.86918 ], [ -166.24798583984375, 23.86791610717772 ], [ -166.252746582031222, 23.869291305542017 ], [ -166.253326416015625, 23.872838973999038 ], [ -166.24530029296875, 23.871730804443395 ], [ -166.246365434986217, 23.870217818623072 ] ] ], [ [ [ -167.996613020070015, 25.003124270140201 ], [ -167.995559692382784, 25.001871109008803 ], [ -167.995785251549904, 24.998868352596492 ], [ -167.995834350585938, 24.998214721679688 ], [ -167.998504638671875, 24.997116088867177 ], [ -167.999052958480149, 24.998575517667177 ], [ -167.99929981403838, 24.999232557784573 ], [ -167.9993896484375, 24.999471664428729 ], [ -167.999969482421903, 25.001758575439467 ], [ -168.001266479492159, 25.005043029785149 ], [ -167.997711181640597, 25.004430770874031 ], [ -167.996613020070015, 25.003124270140201 ] ] ], [ [ [ -171.73760986328125, 25.79209709167484 ], [ -171.722366333007784, 25.789583206176811 ], [ -171.718460083007812, 25.776590347290043 ], [ -171.720077514648438, 25.762859344482411 ], [ -171.730728149414062, 25.751070022583008 ], [ -171.746139526367188, 25.750568389892585 ], [ -171.747986089267556, 25.753895774545789 ], [ -171.751073, 25.759458184250299 ], [ -171.75146484375, 25.760164260864251 ], [ -171.751388549804688, 25.781381607055682 ], [ -171.73760986328125, 25.79209709167484 ] ] ], [ [ [ -173.982803344726562, 26.085908889770497 ], [ -173.96942138671875, 26.08856582641604 ], [ -173.959030151367188, 26.080110549926772 ], [ -173.956878662109403, 26.061834335327134 ], [ -173.965347290039062, 26.055976867675795 ], [ -173.977859497070341, 26.062843322753906 ], [ -173.982803344726562, 26.085908889770497 ] ] ], [ [ [ -175.943801879882784, 27.7581386566162 ], [ -175.934143066406222, 27.75970649719239 ], [ -175.932022094726534, 27.756479263305668 ], [ -175.929946899414062, 27.748563766479485 ], [ -175.935897827148438, 27.747882843017564 ], [ -175.942276000976562, 27.752868652343722 ], [ -175.943801879882784, 27.7581386566162 ] ] ], [ [ [ -175.89540077469411, 27.763819731999288 ], [ -175.895508189328865, 27.763189460833598 ], [ -175.895706176757812, 27.762027740478523 ], [ -175.904953002929688, 27.762660980224624 ], [ -175.906646728515625, 27.765075683593768 ], [ -175.905075073242188, 27.76684188842777 ], [ -175.895187377929688, 27.765071868896513 ], [ -175.89540077469411, 27.763819731999288 ] ] ], [ [ [ -175.807770659293112, 27.781269324325088 ], [ -175.80743408203125, 27.781154632568374 ], [ -175.80744388232452, 27.780931325885739 ], [ -175.807514801673932, 27.779315377853059 ], [ -175.807540893554688, 27.778720855712901 ], [ -175.808665722842107, 27.77842219414347 ], [ -175.811297771988023, 27.777723339715084 ], [ -175.811965942382812, 27.777545928955096 ], [ -175.812251679738154, 27.777703679786665 ], [ -175.814712524414062, 27.779062271118157 ], [ -175.81621677975059, 27.779390253731513 ], [ -175.81805419921875, 27.779790878295938 ], [ -175.817594293058647, 27.780615658986044 ], [ -175.817368758703509, 27.78102012493418 ], [ -175.816558837890625, 27.782472610473651 ], [ -175.812057495117159, 27.782730102539055 ], [ -175.811159199046159, 27.782424 ], [ -175.807770659293112, 27.781269324325088 ] ] ], [ [ [ -175.861572265625, 27.782007217407227 ], [ -175.862808227539034, 27.786123275756818 ], [ -175.8585205078125, 27.786539077758757 ], [ -175.858474731445312, 27.783359527587898 ], [ -175.861572265625, 27.782007217407227 ] ] ], [ [ [ -175.739722484352569, 27.914212634104985 ], [ -175.73828125, 27.913597106933594 ], [ -175.740921020507812, 27.910934448242173 ], [ -175.740785143719279, 27.909100111596825 ], [ -175.74066162109375, 27.907432556152365 ], [ -175.743881225585938, 27.907583236694318 ], [ -175.744064331054688, 27.912765502929691 ], [ -175.74139404296875, 27.914926528930664 ], [ -175.739722484352569, 27.914212634104985 ] ] ], [ [ [ -175.736251779061064, 27.928125112247301 ], [ -175.733627319335909, 27.927259445190405 ], [ -175.734939575195341, 27.924505233764638 ], [ -175.737350463867188, 27.921520233154268 ], [ -175.740179108128984, 27.920190237761357 ], [ -175.740997314453125, 27.919805526733416 ], [ -175.74117633758334, 27.920824786400331 ], [ -175.741528206011992, 27.92282813254339 ], [ -175.74163818359375, 27.923454284667955 ], [ -175.737091064453125, 27.928401947021463 ], [ -175.736251779061064, 27.928125112247301 ] ] ], [ [ [ -178.29663260310457, 28.402249172717816 ], [ -178.291076660156222, 28.407390594482443 ], [ -178.290894672989253, 28.403231229889979 ], [ -178.290496826171875, 28.394138336181687 ], [ -178.294540405273438, 28.388641357421893 ], [ -178.304504394531222, 28.38540458679196 ], [ -178.311685584174796, 28.385650649760255 ], [ -178.314468383789062, 28.385746002197234 ], [ -178.33056640625, 28.387458801269549 ], [ -178.34210205078125, 28.38892745971684 ], [ -178.340868459979276, 28.390730558272317 ], [ -178.339813232421847, 28.392272949218789 ], [ -178.333343505859375, 28.392745971679663 ], [ -178.331719214535127, 28.392753780772594 ], [ -178.320648193359375, 28.392807006835966 ], [ -178.307815551757784, 28.394899368286101 ], [ -178.299176264650697, 28.399996695107408 ], [ -178.298873901367159, 28.400175094604471 ], [ -178.29663260310457, 28.402249172717816 ] ] ] ] } }
]
}
