{
"type": "FeatureCollection",
"name": "Connecticut_CD_1992_2000",
"crs": { "type": "name", "properties": { "name": "urn:ogc:def:crs:OGC:1.3:CRS84" } },
"features": [
{ "type": "Feature", "properties": { "DISTRICT": "1", "STARTCONG": "103", "ENDCONG": "107", "ST": "09", "STA": "CT", "ELECT_YEAR": "1992-2000", "TYPE": "US Cong" }, "geometry": { "type": "Polygon", "coordinates": [ [ [ -72.51333, 41.945397 ], [ -72.513817, 41.938593 ], [ -72.51413, 41.932497 ], [ -72.51463, 41.916597 ], [ -72.51523, 41.899197 ], [ -72.51593, 41.892397 ], [ -72.51693, 41.873497 ], [ -72.51733, 41.869897 ], [ -72.51833, 41.856898 ], [ -72.51493, 41.857498 ], [ -72.49693, 41.860197 ], [ -72.49833, 41.853998 ], [ -72.49913, 41.849898 ], [ -72.50263, 41.833598 ], [ -72.50443, 41.824698 ], [ -72.50533, 41.820998 ], [ -72.50543, 41.820298 ], [ -72.50643, 41.815498 ], [ -72.50753, 41.809698 ], [ -72.50233, 41.810198 ], [ -72.49723, 41.810798 ], [ -72.490129, 41.811498 ], [ -72.485229, 41.812298 ], [ -72.476029, 41.812998 ], [ -72.473629, 41.799098 ], [ -72.473509, 41.798499 ], [ -72.473369, 41.798515 ], [ -72.470529, 41.798898 ], [ -72.455205, 41.801097 ], [ -72.449128, 41.802098 ], [ -72.429428, 41.804898 ], [ -72.425528, 41.799798 ], [ -72.426128, 41.802098 ], [ -72.420527, 41.802998 ], [ -72.421227, 41.797098 ], [ -72.424528, 41.796898 ], [ -72.41753, 41.790293 ], [ -72.415577, 41.786135 ], [ -72.416935, 41.782687 ], [ -72.416996, 41.778491 ], [ -72.413212, 41.774073 ], [ -72.411732, 41.772967 ], [ -72.411137, 41.769709 ], [ -72.410251, 41.765505 ], [ -72.380557, 41.763835 ], [ -72.376529, 41.764277 ], [ -72.372805, 41.764712 ], [ -72.366137, 41.765696 ], [ -72.354571, 41.767153 ], [ -72.328554, 41.738551 ], [ -72.330141, 41.736224 ], [ -72.333605, 41.732447 ], [ -72.3427, 41.722239 ], [ -72.350802, 41.711741 ], [ -72.356478, 41.701497 ], [ -72.351573, 41.687311 ], [ -72.351526, 41.687298 ], [ -72.343926, 41.668498 ], [ -72.334226, 41.643598 ], [ -72.333934, 41.642773 ], [ -72.329226, 41.629598 ], [ -72.32451, 41.61857 ], [ -72.328095, 41.605471 ], [ -72.343142, 41.599406 ], [ -72.351928, 41.599057 ], [ -72.352913, 41.598848 ], [ -72.356191, 41.597615 ], [ -72.364022, 41.600653 ], [ -72.371392, 41.599529 ], [ -72.374527, 41.601413 ], [ -72.376119, 41.601588 ], [ -72.378328, 41.596298 ], [ -72.380991, 41.595765 ], [ -72.383828, 41.591898 ], [ -72.384828, 41.588998 ], [ -72.393928, 41.592598 ], [ -72.394138, 41.592679 ], [ -72.400428, 41.595098 ], [ -72.404528, 41.597198 ], [ -72.407328, 41.599398 ], [ -72.408928, 41.601898 ], [ -72.410629, 41.601798 ], [ -72.415629, 41.593498 ], [ -72.417229, 41.590598 ], [ -72.46673, 41.583899 ], [ -72.460624, 41.572956 ], [ -72.448249, 41.552585 ], [ -72.44741, 41.551433 ], [ -72.446906, 41.550472 ], [ -72.446853, 41.550377 ], [ -72.444861, 41.546962 ], [ -72.44152, 41.541339 ], [ -72.438013, 41.535517 ], [ -72.430823, 41.524562 ], [ -72.445716, 41.523028 ], [ -72.450095, 41.522502 ], [ -72.456719, 41.532589 ], [ -72.458519, 41.535808 ], [ -72.460106, 41.54002 ], [ -72.460045, 41.539089 ], [ -72.461754, 41.536419 ], [ -72.464378, 41.533832 ], [ -72.467827, 41.532245 ], [ -72.470039, 41.530094 ], [ -72.470055, 41.529468 ], [ -72.474739, 41.524944 ], [ -72.479759, 41.521549 ], [ -72.480278, 41.519474 ], [ -72.485055, 41.518734 ], [ -72.499307, 41.516849 ], [ -72.554912, 41.51105 ], [ -72.55598, 41.516635 ], [ -72.556087, 41.523448 ], [ -72.553798, 41.530474 ], [ -72.551341, 41.535304 ], [ -72.550945, 41.538073 ], [ -72.551128, 41.542994 ], [ -72.551585, 41.545497 ], [ -72.554393, 41.550646 ], [ -72.560802, 41.554049 ], [ -72.56573, 41.55485 ], [ -72.576457, 41.557597 ], [ -72.58395, 41.558123 ], [ -72.595211, 41.558093 ], [ -72.603151, 41.560488 ], [ -72.608089, 41.562758 ], [ -72.614017, 41.562125 ], [ -72.618799, 41.56127 ], [ -72.619757, 41.561129 ], [ -72.623848, 41.560561 ], [ -72.627293, 41.560986 ], [ -72.634259, 41.560657 ], [ -72.641147, 41.561278 ], [ -72.647798, 41.566635 ], [ -72.648451, 41.569308 ], [ -72.648802, 41.575236 ], [ -72.651152, 41.573596 ], [ -72.651793, 41.573191 ], [ -72.652434, 41.572795 ], [ -72.65309, 41.572573 ], [ -72.655897, 41.573458 ], [ -72.655974, 41.575533 ], [ -72.657472, 41.578746 ], [ -72.657645, 41.578884 ], [ -72.657863, 41.579027 ], [ -72.659834, 41.57889 ], [ -72.665878, 41.582347 ], [ -72.667571, 41.58388 ], [ -72.668044, 41.585528 ], [ -72.666641, 41.590869 ], [ -72.67317, 41.595114 ], [ -72.672825, 41.596577 ], [ -72.671569, 41.597445 ], [ -72.67192, 41.598605 ], [ -72.6734, 41.59952 ], [ -72.675094, 41.599528 ], [ -72.676803, 41.597979 ], [ -72.679733, 41.597094 ], [ -72.680725, 41.597621 ], [ -72.680374, 41.599574 ], [ -72.681137, 41.600459 ], [ -72.684661, 41.601908 ], [ -72.688888, 41.601069 ], [ -72.694825, 41.601245 ], [ -72.696396, 41.600321 ], [ -72.705262, 41.603114 ], [ -72.706002, 41.603651 ], [ -72.708713, 41.603788 ], [ -72.710924, 41.602416 ], [ -72.712205, 41.602348 ], [ -72.714615, 41.60435 ], [ -72.724139, 41.602959 ], [ -72.725067, 41.60278 ], [ -72.72994, 41.601498 ], [ -72.73154, 41.595798 ], [ -72.74284, 41.594398 ], [ -72.752941, 41.592498 ], [ -72.752181, 41.578894 ], [ -72.768241, 41.577298 ], [ -72.780042, 41.575898 ], [ -72.801243, 41.573098 ], [ -72.805243, 41.566598 ], [ -72.809243, 41.561998 ], [ -72.810243, 41.562398 ], [ -72.819143, 41.554297 ], [ -72.821243, 41.554197 ], [ -72.826144, 41.555897 ], [ -72.825774, 41.563406 ], [ -72.825743, 41.564298 ], [ -72.829644, 41.562398 ], [ -72.827844, 41.570398 ], [ -72.829444, 41.570698 ], [ -72.840244, 41.569098 ], [ -72.836744, 41.580498 ], [ -72.834144, 41.583198 ], [ -72.826843, 41.586798 ], [ -72.824643, 41.596898 ], [ -72.823743, 41.604298 ], [ -72.820343, 41.606898 ], [ -72.818343, 41.606898 ], [ -72.818543, 41.609298 ], [ -72.818943, 41.612098 ], [ -72.819443, 41.615698 ], [ -72.822943, 41.617698 ], [ -72.822493, 41.62163 ], [ -72.818243, 41.627598 ], [ -72.820343, 41.627498 ], [ -72.821043, 41.627498 ], [ -72.825243, 41.627698 ], [ -72.825243, 41.629898 ], [ -72.823343, 41.633698 ], [ -72.814343, 41.645698 ], [ -72.796542, 41.647199 ], [ -72.791042, 41.647499 ], [ -72.788942, 41.647599 ], [ -72.771541, 41.648699 ], [ -72.768941, 41.648899 ], [ -72.75404, 41.649899 ], [ -72.75174, 41.649999 ], [ -72.75024, 41.650199 ], [ -72.75094, 41.654099 ], [ -72.75204, 41.659899 ], [ -72.75444, 41.672199 ], [ -72.75754, 41.688599 ], [ -72.75824, 41.693499 ], [ -72.75894, 41.697999 ], [ -72.761969, 41.715795 ], [ -72.76204, 41.7186 ], [ -72.76234, 41.7266 ], [ -72.76254, 41.7338 ], [ -72.76224, 41.7357 ], [ -72.768541, 41.7376 ], [ -72.768741, 41.7394 ], [ -72.770641, 41.7382 ], [ -72.776322, 41.731928 ], [ -72.779041, 41.73 ], [ -72.781141, 41.7459 ], [ -72.782141, 41.7481 ], [ -72.794942, 41.7474 ], [ -72.796742, 41.758799 ], [ -72.800041, 41.791899 ], [ -72.798741, 41.792899 ], [ -72.798441, 41.793999 ], [ -72.797941, 41.796599 ], [ -72.797241, 41.804699 ], [ -72.798312, 41.810627 ], [ -72.797839, 41.814158 ], [ -72.798441, 41.824898 ], [ -72.783141, 41.826898 ], [ -72.784341, 41.833198 ], [ -72.78344, 41.836398 ], [ -72.784241, 41.837598 ], [ -72.78514, 41.843298 ], [ -72.78444, 41.855698 ], [ -72.77214, 41.878298 ], [ -72.77034, 41.880897 ], [ -72.77134, 41.885197 ], [ -72.766939, 41.895897 ], [ -72.766639, 41.897597 ], [ -72.765039, 41.902597 ], [ -72.760439, 41.905297 ], [ -72.760739, 41.903197 ], [ -72.753839, 41.899197 ], [ -72.749139, 41.896797 ], [ -72.742955, 41.895137 ], [ -72.741917, 41.894634 ], [ -72.738394, 41.892725 ], [ -72.729838, 41.914497 ], [ -72.724037, 41.928297 ], [ -72.713637, 41.926997 ], [ -72.703537, 41.924597 ], [ -72.696437, 41.922697 ], [ -72.695492, 41.92241 ], [ -72.695037, 41.921197 ], [ -72.688436, 41.918597 ], [ -72.678036, 41.917197 ], [ -72.674136, 41.915897 ], [ -72.662035, 41.907597 ], [ -72.654135, 41.905397 ], [ -72.653863, 41.90458 ], [ -72.652406, 41.904593 ], [ -72.642735, 41.900097 ], [ -72.639835, 41.897597 ], [ -72.635434, 41.903297 ], [ -72.634134, 41.903497 ], [ -72.621734, 41.904597 ], [ -72.622634, 41.917097 ], [ -72.624034, 41.929397 ], [ -72.623434, 41.934297 ], [ -72.603933, 41.936297 ], [ -72.577232, 41.938697 ], [ -72.559832, 41.940297 ], [ -72.548031, 41.941797 ], [ -72.52483, 41.944597 ], [ -72.52333, 41.944597 ], [ -72.51793, 41.944997 ], [ -72.51333, 41.945397 ] ] ] } },
{ "type": "Feature", "properties": { "DISTRICT": "2", "STARTCONG": "103", "ENDCONG": "107", "ST": "09", "STA": "CT", "ELECT_YEAR": "1992-2000", "TYPE": "US Cong" }, "geometry": { "type": "Polygon", "coordinates": [ [ [ -72.135687, 42.030245 ], [ -72.102170103150272, 42.028899514176715 ], [ -72.099743470206974, 42.028802100617263 ], [ -72.067472783499269, 42.027506642041004 ], [ -72.063496, 42.027347 ], [ -72.034834841481199, 42.027171277786138 ], [ -72.026136022247016, 42.027117945127806 ], [ -72.010127693802502, 42.027019797702565 ], [ -72.010122866631406, 42.027019768107046 ], [ -71.996105236832406, 42.026933825700389 ], [ -71.993098024607818, 42.026915388413983 ], [ -71.99243351164246, 42.026911314269903 ], [ -71.987326, 42.02688 ], [ -71.963029488037606, 42.026247836699135 ], [ -71.95216748874283, 42.025965221756692 ], [ -71.920877647882264, 42.025151101231351 ], [ -71.920808744761246, 42.02514930846268 ], [ -71.918055246667649, 42.02507766606206 ], [ -71.902856879836136, 42.024682224537038 ], [ -71.901477555701916, 42.024646336336282 ], [ -71.89078, 42.024368 ], [ -71.883300323996167, 42.02430169287554 ], [ -71.882634319498891, 42.024295788763773 ], [ -71.877053016513244, 42.02424631066453 ], [ -71.872295976875989, 42.024204139637469 ], [ -71.865999879459793, 42.024148324904978 ], [ -71.862015106382373, 42.024113 ], [ -71.859336779590393, 42.024089256705757 ], [ -71.859321470212251, 42.024089120988556 ], [ -71.845555673846164, 42.023967087578008 ], [ -71.84140318351244, 42.02393027586406 ], [ -71.839018381561772, 42.023909134659554 ], [ -71.804702449185328, 42.023604924851874 ], [ -71.80065, 42.023569 ], [ -71.799242, 42.008065 ], [ -71.79882545107084, 41.985132719180882 ], [ -71.798677538805066, 41.97698970073057 ], [ -71.798379199118031, 41.960565196899012 ], [ -71.798247903536364, 41.953336977263007 ], [ -71.797922, 41.935395 ], [ -71.79786225012414, 41.933896979581391 ], [ -71.797801800176387, 41.932381407293555 ], [ -71.797649219448815, 41.928555975992218 ], [ -71.796688855207847, 41.904478181326574 ], [ -71.795257520594674, 41.868592441891579 ], [ -71.79472850829292, 41.855329297519816 ], [ -71.794691793730607, 41.854408807506864 ], [ -71.794607787062304, 41.852302632345939 ], [ -71.794485258803817, 41.849230662230156 ], [ -71.794161, 41.841101 ], [ -71.794161, 41.840141 ], [ -71.79367670888233, 41.829056544898734 ], [ -71.792786, 41.80867 ], [ -71.792767, 41.807001 ], [ -71.791258065470615, 41.774496514724156 ], [ -71.791245223878306, 41.774219889502952 ], [ -71.791062, 41.770273 ], [ -71.789678, 41.724734 ], [ -71.788654526100643, 41.698521018334667 ], [ -71.786994, 41.655992 ], [ -71.787637426190926, 41.639897628191243 ], [ -71.789356, 41.59691 ], [ -71.790507756455298, 41.571985337456297 ], [ -71.791732582475348, 41.545479408113202 ], [ -71.792587317148389, 41.526982465298758 ], [ -71.793575537267628, 41.505596821764875 ], [ -71.793874874726725, 41.49911898947645 ], [ -71.795503175802793, 41.46388163121906 ], [ -71.79573608466427, 41.458841351436973 ], [ -71.796489787697709, 41.442530790571247 ], [ -71.796758209718078, 41.436721985900277 ], [ -71.797240392818679, 41.426287270287276 ], [ -71.79746514541479, 41.42142349671083 ], [ -71.797550696531061, 41.419572122061666 ], [ -71.797683, 41.416709 ], [ -71.811292879892122, 41.418608480991345 ], [ -71.81839, 41.419599 ], [ -71.821866790890127, 41.418375687715432 ], [ -71.839649, 41.412119 ], [ -71.842320044695981, 41.410043761430472 ], [ -71.842337189664704, 41.410030440837048 ], [ -71.842563, 41.409855 ], [ -71.842925178738156, 41.408251293266161 ], [ -71.843006031258071, 41.407893282933188 ], [ -71.843360751521928, 41.40632260189696 ], [ -71.843472, 41.40583 ], [ -71.842204680613179, 41.395934324161622 ], [ -71.84218487964101, 41.395779711201548 ], [ -71.842163276177729, 41.39561102375621 ], [ -71.842160958712327, 41.395592928170686 ], [ -71.842131, 41.395359 ], [ -71.841711854716522, 41.394836274499688 ], [ -71.841405652327239, 41.394454402620397 ], [ -71.841065868376973, 41.394030650421797 ], [ -71.838404704741308, 41.390711853461291 ], [ -71.838220702053732, 41.390482379575488 ], [ -71.838220344805734, 41.390481934043521 ], [ -71.833730907566377, 41.384883055994635 ], [ -71.833443, 41.384524 ], [ -71.833326832663928, 41.383659092921306 ], [ -71.833309361627613, 41.383529014850296 ], [ -71.833033119035861, 41.381472290635728 ], [ -71.832916260199298, 41.380602235090286 ], [ -71.83273904691859, 41.379282819270848 ], [ -71.832517869913104, 41.377636077905002 ], [ -71.832490443054382, 41.377431875199868 ], [ -71.83236394207178, 41.376490030452416 ], [ -71.831613, 41.370899 ], [ -71.83159574759722, 41.369684909545306 ], [ -71.831557762429554, 41.367011807714015 ], [ -71.831551251861299, 41.366553644356713 ], [ -71.831535560784218, 41.365449427909127 ], [ -71.831512334829114, 41.36381496511833 ], [ -71.831500136183294, 41.362956518927554 ], [ -71.831399635907744, 41.355884088102073 ], [ -71.831341547189524, 41.351796254123173 ], [ -71.83134150639151, 41.351793383074757 ], [ -71.831239928142665, 41.344645092839421 ], [ -71.83247995010845, 41.341338366810611 ], [ -71.832530438866016, 41.341203730091749 ], [ -71.839781881434448, 41.334689723753527 ], [ -71.847163266972089, 41.330105012911289 ], [ -71.84817958839534, 41.329473757461415 ], [ -71.859569716247407, 41.322399144925413 ], [ -71.868234572600358, 41.330941099408108 ], [ -71.874514, 41.332842014122328 ], [ -71.882316877016393, 41.335204109069842 ], [ -71.88630172749086, 41.336410407099706 ], [ -71.892381361898288, 41.33557197624998 ], [ -71.905839712213876, 41.333715960684962 ], [ -71.911381506440122, 41.332951702354563 ], [ -71.913452125345856, 41.332666147228565 ], [ -71.916710111714934, 41.33221684450799 ], [ -71.922092, 41.334518 ], [ -71.923282, 41.335113 ], [ -71.936284, 41.337959 ], [ -71.937292718624889, 41.33794177167163 ], [ -71.945652, 41.337799 ], [ -71.956747166189132, 41.329870779129301 ], [ -71.960338426212076, 41.328519821280949 ], [ -71.970955207031736, 41.324526007611098 ], [ -71.979447071157892, 41.329987318558821 ], [ -71.980275029620216, 41.329949251596346 ], [ -71.982193509497961, 41.329861045841042 ], [ -71.98815330880015, 41.320576701612758 ], [ -72.000315132256773, 41.319229108062579 ], [ -72.003096340725023, 41.318920935640385 ], [ -72.013204664853006, 41.317800880539565 ], [ -72.019944020645767, 41.31705412472359 ], [ -72.021897555003264, 41.31683766291507 ], [ -72.054719, 41.318303913412088 ], [ -72.054985475995551, 41.318315817841061 ], [ -72.075179120685917, 41.31921793965703 ], [ -72.082351529836245, 41.319538356643008 ], [ -72.084487335655069, 41.319633770673235 ], [ -72.092344571315152, 41.315317141379708 ], [ -72.094442705113153, 41.314164462981545 ], [ -72.09982, 41.306998 ], [ -72.102081991584853, 41.305508855539955 ], [ -72.11182, 41.299098 ], [ -72.125596701986083, 41.299282501164932 ], [ -72.134221, 41.299398 ], [ -72.154959651318961, 41.307633279616304 ], [ -72.161580000103982, 41.310262207725671 ], [ -72.173922, 41.317597 ], [ -72.177521714693313, 41.322364189728951 ], [ -72.177622, 41.322497 ], [ -72.184122, 41.323997 ], [ -72.191022, 41.323197 ], [ -72.191616117294089, 41.322768550028329 ], [ -72.201422, 41.315697 ], [ -72.203022, 41.313197 ], [ -72.204022, 41.299097 ], [ -72.21292389863919, 41.291365441244281 ], [ -72.213911566396362, 41.291979662459781 ], [ -72.224483903207897, 41.298554498501403 ], [ -72.225275932570455, 41.29904705405383 ], [ -72.235531, 41.300413 ], [ -72.248160654019358, 41.299487539993038 ], [ -72.248324244469501, 41.299449530363717 ], [ -72.25189460905662, 41.298619969503022 ], [ -72.250515, 41.294386 ], [ -72.251323, 41.289997 ], [ -72.261487, 41.282926 ], [ -72.279966075892361, 41.2812368325012 ], [ -72.317760346283208, 41.277782068120366 ], [ -72.327595015023974, 41.278460336392428 ], [ -72.329228229853641, 41.279615537200954 ], [ -72.333893936241651, 41.282915671202709 ], [ -72.34125625803739, 41.280185476924594 ], [ -72.348642634646126, 41.277446362320212 ], [ -72.348492346574787, 41.27541988090789 ], [ -72.348068, 41.269698 ], [ -72.348828122169664, 41.269542273614803 ], [ -72.36140427595933, 41.266965794401578 ], [ -72.364059337151417, 41.26642185146919 ], [ -72.386629, 41.261798 ], [ -72.394379137571704, 41.272321323044935 ], [ -72.39799389587769, 41.277229528742097 ], [ -72.398688, 41.278172 ], [ -72.40593, 41.278398 ], [ -72.416642636751519, 41.278511426548476 ], [ -72.431773245728237, 41.278671631061414 ], [ -72.451925, 41.278885 ], [ -72.47208334064895, 41.270297120521057 ], [ -72.472539, 41.270103 ], [ -72.479993298739473, 41.270543888278766 ], [ -72.482926062684058, 41.270717348089455 ], [ -72.485693, 41.270881 ], [ -72.4861947192895, 41.270699212395321 ], [ -72.486228867859282, 41.270686839367499 ], [ -72.486228937985501, 41.270686813958719 ], [ -72.487233, 41.273699 ], [ -72.494233, 41.292099 ], [ -72.499033, 41.305099 ], [ -72.499233, 41.305599 ], [ -72.499533, 41.307399 ], [ -72.512034, 41.341599 ], [ -72.51395, 41.346403 ], [ -72.524062, 41.376179 ], [ -72.527982, 41.388259 ], [ -72.538782, 41.421491 ], [ -72.547294, 41.419554 ], [ -72.569999, 41.41477 ], [ -72.604944, 41.440226 ], [ -72.60896, 41.44309 ], [ -72.619538, 41.450996 ], [ -72.631512, 41.459463 ], [ -72.637069, 41.463759 ], [ -72.627903, 41.485415 ], [ -72.633512, 41.50024 ], [ -72.648077, 41.498451 ], [ -72.676876, 41.495045 ], [ -72.67719, 41.496801 ], [ -72.6791, 41.510167 ], [ -72.679232, 41.511095 ], [ -72.681131, 41.525586 ], [ -72.682156, 41.530921 ], [ -72.686828, 41.536391 ], [ -72.690148, 41.541929 ], [ -72.691181, 41.54372 ], [ -72.694257, 41.549055 ], [ -72.698697, 41.549124 ], [ -72.700845, 41.548934 ], [ -72.711194, 41.547704 ], [ -72.712163, 41.548615 ], [ -72.722398, 41.547954 ], [ -72.733584, 41.546158 ], [ -72.735404, 41.543842 ], [ -72.748905, 41.54428 ], [ -72.748942, 41.546099 ], [ -72.750242, 41.559199 ], [ -72.750667, 41.562741 ], [ -72.752181, 41.578894 ], [ -72.752941, 41.592498 ], [ -72.74284, 41.594398 ], [ -72.73154, 41.595798 ], [ -72.72994, 41.601498 ], [ -72.725067, 41.60278 ], [ -72.724139, 41.602959 ], [ -72.714615, 41.60435 ], [ -72.712205, 41.602348 ], [ -72.710924, 41.602416 ], [ -72.708713, 41.603788 ], [ -72.706002, 41.603651 ], [ -72.705262, 41.603114 ], [ -72.696396, 41.600321 ], [ -72.694825, 41.601245 ], [ -72.688888, 41.601069 ], [ -72.684661, 41.601908 ], [ -72.681137, 41.600459 ], [ -72.680374, 41.599574 ], [ -72.680725, 41.597621 ], [ -72.679733, 41.597094 ], [ -72.676803, 41.597979 ], [ -72.675094, 41.599528 ], [ -72.6734, 41.59952 ], [ -72.67192, 41.598605 ], [ -72.671569, 41.597445 ], [ -72.672825, 41.596577 ], [ -72.67317, 41.595114 ], [ -72.666641, 41.590869 ], [ -72.668044, 41.585528 ], [ -72.667571, 41.58388 ], [ -72.665878, 41.582347 ], [ -72.659834, 41.57889 ], [ -72.657863, 41.579027 ], [ -72.657645, 41.578884 ], [ -72.657472, 41.578746 ], [ -72.655974, 41.575533 ], [ -72.655897, 41.573458 ], [ -72.65309, 41.572573 ], [ -72.652434, 41.572795 ], [ -72.651793, 41.573191 ], [ -72.651152, 41.573596 ], [ -72.648802, 41.575236 ], [ -72.648451, 41.569308 ], [ -72.647798, 41.566635 ], [ -72.641147, 41.561278 ], [ -72.634259, 41.560657 ], [ -72.627293, 41.560986 ], [ -72.623848, 41.560561 ], [ -72.619757, 41.561129 ], [ -72.618799, 41.56127 ], [ -72.614017, 41.562125 ], [ -72.608089, 41.562758 ], [ -72.603151, 41.560488 ], [ -72.595211, 41.558093 ], [ -72.58395, 41.558123 ], [ -72.576457, 41.557597 ], [ -72.56573, 41.55485 ], [ -72.560802, 41.554049 ], [ -72.554393, 41.550646 ], [ -72.551585, 41.545497 ], [ -72.551128, 41.542994 ], [ -72.550945, 41.538073 ], [ -72.551341, 41.535304 ], [ -72.553798, 41.530474 ], [ -72.556087, 41.523448 ], [ -72.55598, 41.516635 ], [ -72.554912, 41.51105 ], [ -72.499307, 41.516849 ], [ -72.485055, 41.518734 ], [ -72.480278, 41.519474 ], [ -72.479759, 41.521549 ], [ -72.474739, 41.524944 ], [ -72.470055, 41.529468 ], [ -72.470039, 41.530094 ], [ -72.467827, 41.532245 ], [ -72.464378, 41.533832 ], [ -72.461754, 41.536419 ], [ -72.460045, 41.539089 ], [ -72.460106, 41.54002 ], [ -72.458519, 41.535808 ], [ -72.456719, 41.532589 ], [ -72.450095, 41.522502 ], [ -72.445716, 41.523028 ], [ -72.430823, 41.524562 ], [ -72.438013, 41.535517 ], [ -72.44152, 41.541339 ], [ -72.444861, 41.546962 ], [ -72.446853, 41.550377 ], [ -72.446906, 41.550472 ], [ -72.44741, 41.551433 ], [ -72.448249, 41.552585 ], [ -72.460624, 41.572956 ], [ -72.46673, 41.583899 ], [ -72.417229, 41.590598 ], [ -72.415629, 41.593498 ], [ -72.410629, 41.601798 ], [ -72.408928, 41.601898 ], [ -72.407328, 41.599398 ], [ -72.404528, 41.597198 ], [ -72.400428, 41.595098 ], [ -72.394138, 41.592679 ], [ -72.393928, 41.592598 ], [ -72.384828, 41.588998 ], [ -72.383828, 41.591898 ], [ -72.380991, 41.595765 ], [ -72.378328, 41.596298 ], [ -72.376119, 41.601588 ], [ -72.374527, 41.601413 ], [ -72.371392, 41.599529 ], [ -72.364022, 41.600653 ], [ -72.356191, 41.597615 ], [ -72.352913, 41.598848 ], [ -72.351928, 41.599057 ], [ -72.343142, 41.599406 ], [ -72.328095, 41.605471 ], [ -72.32451, 41.61857 ], [ -72.329226, 41.629598 ], [ -72.333934, 41.642773 ], [ -72.334226, 41.643598 ], [ -72.343926, 41.668498 ], [ -72.351526, 41.687298 ], [ -72.351573, 41.687311 ], [ -72.356478, 41.701497 ], [ -72.350802, 41.711741 ], [ -72.3427, 41.722239 ], [ -72.333605, 41.732447 ], [ -72.330141, 41.736224 ], [ -72.328554, 41.738551 ], [ -72.354571, 41.767153 ], [ -72.366137, 41.765696 ], [ -72.372805, 41.764712 ], [ -72.376529, 41.764277 ], [ -72.380557, 41.763835 ], [ -72.410251, 41.765505 ], [ -72.411137, 41.769709 ], [ -72.411732, 41.772967 ], [ -72.413212, 41.774073 ], [ -72.416996, 41.778491 ], [ -72.416935, 41.782687 ], [ -72.415577, 41.786135 ], [ -72.41753, 41.790293 ], [ -72.424528, 41.796898 ], [ -72.421227, 41.797098 ], [ -72.420527, 41.802998 ], [ -72.426128, 41.802098 ], [ -72.425528, 41.799798 ], [ -72.429428, 41.804898 ], [ -72.449128, 41.802098 ], [ -72.455205, 41.801097 ], [ -72.470529, 41.798898 ], [ -72.473369, 41.798515 ], [ -72.473509, 41.798499 ], [ -72.473629, 41.799098 ], [ -72.476029, 41.812998 ], [ -72.485229, 41.812298 ], [ -72.490129, 41.811498 ], [ -72.49723, 41.810798 ], [ -72.50233, 41.810198 ], [ -72.50753, 41.809698 ], [ -72.50643, 41.815498 ], [ -72.50543, 41.820298 ], [ -72.50533, 41.820998 ], [ -72.50443, 41.824698 ], [ -72.50263, 41.833598 ], [ -72.49913, 41.849898 ], [ -72.49833, 41.853998 ], [ -72.49693, 41.860197 ], [ -72.51493, 41.857498 ], [ -72.51833, 41.856898 ], [ -72.51733, 41.869897 ], [ -72.51693, 41.873497 ], [ -72.51593, 41.892397 ], [ -72.51523, 41.899197 ], [ -72.51463, 41.916597 ], [ -72.51413, 41.932497 ], [ -72.513817, 41.938593 ], [ -72.51333, 41.945397 ], [ -72.50553, 41.946397 ], [ -72.492729, 41.947496 ], [ -72.491229, 41.947596 ], [ -72.457828, 41.951796 ], [ -72.447428, 41.953096 ], [ -72.430128, 41.954996 ], [ -72.406727, 41.957496 ], [ -72.404468, 41.979905 ], [ -72.397427872735193, 42.033110634247073 ], [ -72.367060634685984, 42.032655338959955 ], [ -72.336226394167952, 42.032193041915811 ], [ -72.321709098964703, 42.031975384449709 ], [ -72.321038640080673, 42.031965332275412 ], [ -72.321036534640911, 42.031965300708542 ], [ -72.317148, 42.031907 ], [ -72.301972049524082, 42.031843939858341 ], [ -72.288273413627294, 42.031787018354628 ], [ -72.270598524593936, 42.031713574453434 ], [ -72.249523, 42.031626 ], [ -72.241255690790439, 42.031525705242487 ], [ -72.205075365751071, 42.031086784084962 ], [ -72.203903616907425, 42.031072569028701 ], [ -72.198765785944332, 42.031010239497043 ], [ -72.150288582193767, 42.030422138910467 ], [ -72.143065128757684, 42.030334507676102 ], [ -72.135687, 42.030245 ] ] ] } },
{ "type": "Feature", "properties": { "DISTRICT": "3", "STARTCONG": "103", "ENDCONG": "107", "ST": "09", "STA": "CT", "ELECT_YEAR": "1992-2000", "TYPE": "US Cong" }, "geometry": { "type": "Polygon", "coordinates": [ [ [ -72.700845, 41.548934 ], [ -72.698697, 41.549124 ], [ -72.694257, 41.549055 ], [ -72.691181, 41.54372 ], [ -72.690148, 41.541929 ], [ -72.686828, 41.536391 ], [ -72.682156, 41.530921 ], [ -72.681131, 41.525586 ], [ -72.679232, 41.511095 ], [ -72.6791, 41.510167 ], [ -72.67719, 41.496801 ], [ -72.676876, 41.495045 ], [ -72.648077, 41.498451 ], [ -72.633512, 41.50024 ], [ -72.627903, 41.485415 ], [ -72.637069, 41.463759 ], [ -72.631512, 41.459463 ], [ -72.619538, 41.450996 ], [ -72.60896, 41.44309 ], [ -72.604944, 41.440226 ], [ -72.569999, 41.41477 ], [ -72.547294, 41.419554 ], [ -72.538782, 41.421491 ], [ -72.527982, 41.388259 ], [ -72.524062, 41.376179 ], [ -72.51395, 41.346403 ], [ -72.512034, 41.341599 ], [ -72.499533, 41.307399 ], [ -72.499233, 41.305599 ], [ -72.499033, 41.305099 ], [ -72.494233, 41.292099 ], [ -72.487233, 41.273699 ], [ -72.486228937985501, 41.270686813958719 ], [ -72.499534, 41.265866 ], [ -72.506634, 41.260099 ], [ -72.518660401875451, 41.261253212575625 ], [ -72.521312450205883, 41.265599623927514 ], [ -72.522189702368607, 41.265472023686051 ], [ -72.529415929312094, 41.264420936732407 ], [ -72.533246664837662, 41.262689737683949 ], [ -72.536745893965033, 41.256206955255593 ], [ -72.53777601011609, 41.255646387283534 ], [ -72.547235, 41.250499 ], [ -72.571136, 41.268098 ], [ -72.58250791709844, 41.271453647668423 ], [ -72.583336, 41.271698 ], [ -72.584372995153473, 41.271486368336028 ], [ -72.58481417714907, 41.271396331194083 ], [ -72.585015603399441, 41.271355223796064 ], [ -72.598036, 41.268698 ], [ -72.617237, 41.271998 ], [ -72.619113004486977, 41.271612006730791 ], [ -72.631377716568053, 41.269088507269657 ], [ -72.641538, 41.266998 ], [ -72.653838, 41.265897 ], [ -72.654792305799646, 41.266246912126576 ], [ -72.662838, 41.269197 ], [ -72.663093078716443, 41.26913793535666 ], [ -72.666513463868526, 41.268345929532607 ], [ -72.667110556382667, 41.268207670030328 ], [ -72.672339, 41.266997 ], [ -72.674281068730252, 41.265548155074264 ], [ -72.674332416326507, 41.265509848137413 ], [ -72.684939, 41.257597 ], [ -72.685150371237469, 41.255377602006696 ], [ -72.685539, 41.251297 ], [ -72.690439, 41.246697 ], [ -72.694744, 41.24497 ], [ -72.701184261163306, 41.244770913004224 ], [ -72.706383362678338, 41.244610193822986 ], [ -72.707071187581207, 41.244588931176914 ], [ -72.710595, 41.24448 ], [ -72.713673973359775, 41.249007098714664 ], [ -72.71120760834954, 41.251018134087261 ], [ -72.712459762463325, 41.25416749171567 ], [ -72.722439050685665, 41.259138163482945 ], [ -72.732812752809195, 41.254727449026795 ], [ -72.738975966854909, 41.258199482421389 ], [ -72.743222163138299, 41.260591567977258 ], [ -72.752344220154527, 41.265730459203873 ], [ -72.754444057005585, 41.266913397783689 ], [ -72.757476695808037, 41.266913397783711 ], [ -72.75787407197528, 41.26688404510665 ], [ -72.761033930106805, 41.266650638317742 ], [ -72.766308486628191, 41.266261026743642 ], [ -72.767446348327979, 41.266176977196316 ], [ -72.770650995554419, 41.265940262006083 ], [ -72.77147832461209, 41.265879150332495 ], [ -72.778224698464669, 41.26538082116965 ], [ -72.786142, 41.264796 ], [ -72.789678488016122, 41.263434130721272 ], [ -72.798951806205935, 41.259863060468305 ], [ -72.80564921588946, 41.25728394908618 ], [ -72.810975967231286, 41.255232665729707 ], [ -72.818737317745132, 41.252243840438105 ], [ -72.819372326276351, 41.254061282950026 ], [ -72.825872512996057, 41.256392252697815 ], [ -72.825888113277216, 41.256397846965392 ], [ -72.826882962740981, 41.256754600410133 ], [ -72.840621861641651, 41.256711932706011 ], [ -72.846441991096668, 41.256693857635803 ], [ -72.847767020671782, 41.256689742606667 ], [ -72.848583541529649, 41.256306683366461 ], [ -72.850209971918787, 41.255543666496543 ], [ -72.850241630545128, 41.255479413815848 ], [ -72.853520011350625, 41.248825784787769 ], [ -72.854055, 41.24774 ], [ -72.859773095371253, 41.245823508438527 ], [ -72.861344, 41.245297 ], [ -72.88045424806559, 41.242730079459868 ], [ -72.881445, 41.242597 ], [ -72.895445, 41.243697 ], [ -72.900593675623796, 41.245779610364679 ], [ -72.900852928862037, 41.245884476843074 ], [ -72.904345, 41.247297 ], [ -72.905245, 41.248297 ], [ -72.903045, 41.252797 ], [ -72.896710789473687, 41.2553917368421 ], [ -72.894745, 41.256197 ], [ -72.893845, 41.259897 ], [ -72.895337103911217, 41.26229128688167 ], [ -72.896105755061654, 41.263524693853014 ], [ -72.903366423698088, 41.275175439848496 ], [ -72.90797864714699, 41.282576389618811 ], [ -72.908053810746722, 41.282696999999494 ], [ -72.908200206558561, 41.282931912306374 ], [ -72.915234941224156, 41.282199126972039 ], [ -72.916498167193382, 41.282067540848608 ], [ -72.916826714143639, 41.282033317185856 ], [ -72.919818592108683, 41.28020494803409 ], [ -72.920061651005327, 41.280056412099832 ], [ -72.920424350017143, 41.274896071781292 ], [ -72.920748484656556, 41.270284410337545 ], [ -72.920846, 41.268897 ], [ -72.930210217922735, 41.262316738756951 ], [ -72.935646, 41.258497 ], [ -72.941862528152384, 41.256872287138627 ], [ -72.955515874338957, 41.253303934095683 ], [ -72.960126620318945, 41.25209889840535 ], [ -72.962047, 41.251597 ], [ -72.965494097776883, 41.249018798770194 ], [ -72.96954306389047, 41.245990439817433 ], [ -72.974932912473207, 41.241959189431171 ], [ -72.975992315904151, 41.241166825708063 ], [ -72.979315814844384, 41.238681068236268 ], [ -72.980352548037871, 41.237905660351871 ], [ -72.984302550044646, 41.234951320007973 ], [ -72.984804615893481, 41.234575807947429 ], [ -72.984986927681803, 41.234439450783412 ], [ -72.986247, 41.233497 ], [ -72.992443924649024, 41.227777250729972 ], [ -72.996752988608691, 41.22379999316523 ], [ -72.997948, 41.222697 ], [ -72.999361797813947, 41.220856117429769 ], [ -72.999694930777622, 41.220422350549917 ], [ -73.003589126853257, 41.21535178274322 ], [ -73.00369577070002, 41.215212923567698 ], [ -73.003923838925488, 41.214915959732416 ], [ -73.007548, 41.210197 ], [ -73.012573373134316, 41.206190283582124 ], [ -73.014948, 41.204297 ], [ -73.020149, 41.204097 ], [ -73.020227260869575, 41.204697 ], [ -73.020449, 41.206397 ], [ -73.022549, 41.207197 ], [ -73.034881203810855, 41.208513558536424 ], [ -73.035085475101454, 41.208535366083204 ], [ -73.045730170034943, 41.209671769940712 ], [ -73.048806614961492, 41.210000204330264 ], [ -73.050044064849999, 41.210132311716684 ], [ -73.05065, 41.210197 ], [ -73.054516666666629, 41.20864144444446 ], [ -73.054924508841665, 41.208477370006236 ], [ -73.05935, 41.206697 ], [ -73.074521310840495, 41.197124733130366 ], [ -73.075175457645912, 41.196712002295214 ], [ -73.07945, 41.194015 ], [ -73.07994573299618, 41.193599633501904 ], [ -73.082014035776623, 41.191866636728371 ], [ -73.086450731373475, 41.18814920269169 ], [ -73.090400461875859, 41.184839788672846 ], [ -73.092222636403775, 41.183313018701128 ], [ -73.105493, 41.172194 ], [ -73.107987, 41.168738 ], [ -73.107987044748, 41.168737828935797 ], [ -73.108609978882086, 41.166356455783095 ], [ -73.110352, 41.159697 ], [ -73.109952, 41.156997 ], [ -73.108351507918485, 41.15371800987301 ], [ -73.111052, 41.150797 ], [ -73.113157726647984, 41.150358329795758 ], [ -73.130253, 41.146797 ], [ -73.13712984100664, 41.149169018390722 ], [ -73.164253003164248, 41.158524569782685 ], [ -73.161682, 41.165761 ], [ -73.158955, 41.174097 ], [ -73.155554, 41.177896 ], [ -73.155154, 41.180596 ], [ -73.154454, 41.183596 ], [ -73.154754, 41.184796 ], [ -73.154854, 41.184996 ], [ -73.154855, 41.188696 ], [ -73.155655, 41.189696 ], [ -73.153854, 41.192496 ], [ -73.153955, 41.192896 ], [ -73.154155, 41.193196 ], [ -73.154855, 41.195596 ], [ -73.156555, 41.200596 ], [ -73.156755, 41.201296 ], [ -73.158155, 41.205996 ], [ -73.161973, 41.21766 ], [ -73.162755, 41.220196 ], [ -73.161055, 41.224596 ], [ -73.159155, 41.225896 ], [ -73.157755, 41.227996 ], [ -73.157555, 41.228496 ], [ -73.153555, 41.229896 ], [ -73.154155, 41.230596 ], [ -73.149955, 41.232896 ], [ -73.147655, 41.236196 ], [ -73.143554, 41.236296 ], [ -73.143054, 41.234996 ], [ -73.140954, 41.236496 ], [ -73.139654, 41.236496 ], [ -73.139954, 41.237196 ], [ -73.140654, 41.237996 ], [ -73.143154, 41.241096 ], [ -73.143054, 41.243896 ], [ -73.144955, 41.248696 ], [ -73.146755, 41.255096 ], [ -73.140654, 41.257196 ], [ -73.139954, 41.257396 ], [ -73.124654, 41.262896 ], [ -73.120154, 41.264496 ], [ -73.117653, 41.265396 ], [ -73.113653, 41.266796 ], [ -73.108353, 41.268496 ], [ -73.105753, 41.266796 ], [ -73.106653, 41.266396 ], [ -73.107353, 41.265196 ], [ -73.107153, 41.264096 ], [ -73.104753, 41.263696 ], [ -73.103053, 41.261796 ], [ -73.103053, 41.259896 ], [ -73.098353, 41.259296 ], [ -73.096852, 41.258896 ], [ -73.095152, 41.258196 ], [ -73.094552, 41.256496 ], [ -73.091152, 41.257196 ], [ -73.089252, 41.255596 ], [ -73.086752, 41.254596 ], [ -73.087852, 41.260096 ], [ -73.087752, 41.265296 ], [ -73.088652, 41.271696 ], [ -73.086852, 41.276596 ], [ -73.08153, 41.282856 ], [ -73.075451, 41.285749 ], [ -73.071251, 41.287296 ], [ -73.068751, 41.289196 ], [ -73.065685, 41.29419 ], [ -73.065051, 41.297596 ], [ -73.066151, 41.299496 ], [ -73.067851, 41.300996 ], [ -73.065551, 41.304696 ], [ -73.065051, 41.306096 ], [ -73.061751, 41.310096 ], [ -73.058751, 41.311796 ], [ -73.0567, 41.312042 ], [ -73.054688, 41.311488 ], [ -73.053223, 41.311088 ], [ -73.049351, 41.311196 ], [ -73.04075, 41.313896 ], [ -73.03365, 41.313096 ], [ -73.02765, 41.311797 ], [ -73.021549, 41.313397 ], [ -73.02445, 41.325997 ], [ -73.02265, 41.328497 ], [ -73.02495, 41.328696 ], [ -73.03395, 41.330696 ], [ -73.03465, 41.339496 ], [ -73.03095, 41.339096 ], [ -73.03015, 41.342596 ], [ -73.03485, 41.342796 ], [ -73.03515, 41.352096 ], [ -73.03345, 41.352196 ], [ -73.03535, 41.353996 ], [ -73.03525, 41.361196 ], [ -73.03735, 41.368396 ], [ -73.03775, 41.369896 ], [ -73.03605, 41.377696 ], [ -73.03375, 41.380996 ], [ -73.03275, 41.385096 ], [ -73.03355, 41.386596 ], [ -73.03375, 41.389096 ], [ -73.03335, 41.388996 ], [ -73.03165, 41.389396 ], [ -73.03015, 41.388496 ], [ -73.010549, 41.389796 ], [ -73.000649, 41.390497 ], [ -72.965748, 41.393397 ], [ -72.965148, 41.393397 ], [ -72.954548, 41.394497 ], [ -72.953548, 41.395497 ], [ -72.952924, 41.396945 ], [ -72.953532, 41.399745 ], [ -72.944779, 41.406193 ], [ -72.942447, 41.407097 ], [ -72.938955, 41.408577 ], [ -72.940047, 41.411197 ], [ -72.949648, 41.417497 ], [ -72.952548, 41.419397 ], [ -72.950748, 41.427797 ], [ -72.955348, 41.428897 ], [ -72.96166, 41.432385 ], [ -72.963548, 41.437473 ], [ -72.963292, 41.439329 ], [ -72.957948, 41.445097 ], [ -72.958148, 41.448797 ], [ -72.957148, 41.450097 ], [ -72.952548, 41.452897 ], [ -72.949048, 41.455797 ], [ -72.947448, 41.460097 ], [ -72.948048, 41.464097 ], [ -72.935947, 41.462697 ], [ -72.926747, 41.460297 ], [ -72.918747, 41.459697 ], [ -72.917947, 41.459597 ], [ -72.913247, 41.457997 ], [ -72.908246, 41.456197 ], [ -72.886646, 41.448097 ], [ -72.880569, 41.454945 ], [ -72.878445, 41.456697 ], [ -72.876545, 41.459397 ], [ -72.877445, 41.461097 ], [ -72.871345, 41.469297 ], [ -72.864197, 41.478965 ], [ -72.855991, 41.48996 ], [ -72.853045, 41.493897 ], [ -72.846296, 41.502817 ], [ -72.848681, 41.510161 ], [ -72.849593, 41.514689 ], [ -72.850797, 41.516509 ], [ -72.840844, 41.513697 ], [ -72.828427, 41.511868 ], [ -72.82324, 41.510577 ], [ -72.816807, 41.508913 ], [ -72.815431, 41.508529 ], [ -72.800599, 41.505281 ], [ -72.796087, 41.504705 ], [ -72.793079, 41.503425 ], [ -72.777227, 41.498093 ], [ -72.77288, 41.49638 ], [ -72.768343, 41.495498 ], [ -72.759945, 41.495754 ], [ -72.744742, 41.497698 ], [ -72.747042, 41.527198 ], [ -72.747242, 41.528198 ], [ -72.748905, 41.54428 ], [ -72.735404, 41.543842 ], [ -72.733584, 41.546158 ], [ -72.722398, 41.547954 ], [ -72.712163, 41.548615 ], [ -72.711194, 41.547704 ], [ -72.700845, 41.548934 ] ] ] } },
{ "type": "Feature", "properties": { "DISTRICT": "4", "STARTCONG": "103", "ENDCONG": "107", "ST": "09", "STA": "CT", "ELECT_YEAR": "1992-2000", "TYPE": "US Cong" }, "geometry": { "type": "Polygon", "coordinates": [ [ [ -73.241359, 41.364795 ], [ -73.240359, 41.363795 ], [ -73.236452, 41.357508 ], [ -73.235859, 41.354995 ], [ -73.231954, 41.359001 ], [ -73.231705, 41.360674 ], [ -73.231659, 41.360695 ], [ -73.231359, 41.361595 ], [ -73.230659, 41.362295 ], [ -73.230359, 41.362795 ], [ -73.228158, 41.362696 ], [ -73.226758, 41.363796 ], [ -73.22559, 41.364335 ], [ -73.209858, 41.360996 ], [ -73.208558, 41.361496 ], [ -73.203757, 41.359596 ], [ -73.202457, 41.357396 ], [ -73.197957, 41.355496 ], [ -73.197084, 41.355593 ], [ -73.197051, 41.355634 ], [ -73.193457, 41.355296 ], [ -73.189557, 41.360596 ], [ -73.186857, 41.358296 ], [ -73.185657, 41.349096 ], [ -73.181256, 41.349396 ], [ -73.179856, 41.348596 ], [ -73.178456, 41.348796 ], [ -73.177856, 41.346196 ], [ -73.176556, 41.343796 ], [ -73.176456, 41.341896 ], [ -73.175326, 41.34227 ], [ -73.176449, 41.338766 ], [ -73.176856, 41.337496 ], [ -73.178856, 41.334696 ], [ -73.189257, 41.320496 ], [ -73.192115, 41.31636 ], [ -73.195, 41.312845 ], [ -73.196403, 41.310944 ], [ -73.203757, 41.301496 ], [ -73.205157, 41.299696 ], [ -73.205457, 41.299196 ], [ -73.204911, 41.299218 ], [ -73.203908, 41.299258 ], [ -73.198305, 41.2935 ], [ -73.190757, 41.285796 ], [ -73.188073, 41.282996 ], [ -73.179034, 41.273733 ], [ -73.178956, 41.273596 ], [ -73.174256, 41.269096 ], [ -73.173856, 41.268596 ], [ -73.164856, 41.268796 ], [ -73.155265, 41.269096 ], [ -73.149247, 41.259324 ], [ -73.149789, 41.258641 ], [ -73.148668, 41.25824 ], [ -73.147355, 41.256196 ], [ -73.146955, 41.255496 ], [ -73.146755, 41.255096 ], [ -73.144955, 41.248696 ], [ -73.143054, 41.243896 ], [ -73.143154, 41.241096 ], [ -73.140654, 41.237996 ], [ -73.139954, 41.237196 ], [ -73.139654, 41.236496 ], [ -73.140954, 41.236496 ], [ -73.143054, 41.234996 ], [ -73.143554, 41.236296 ], [ -73.147655, 41.236196 ], [ -73.149955, 41.232896 ], [ -73.154155, 41.230596 ], [ -73.153555, 41.229896 ], [ -73.157555, 41.228496 ], [ -73.157755, 41.227996 ], [ -73.159155, 41.225896 ], [ -73.161055, 41.224596 ], [ -73.162755, 41.220196 ], [ -73.161973, 41.21766 ], [ -73.158155, 41.205996 ], [ -73.156755, 41.201296 ], [ -73.156555, 41.200596 ], [ -73.154855, 41.195596 ], [ -73.154155, 41.193196 ], [ -73.153955, 41.192896 ], [ -73.153854, 41.192496 ], [ -73.155655, 41.189696 ], [ -73.154855, 41.188696 ], [ -73.154854, 41.184996 ], [ -73.154754, 41.184796 ], [ -73.154454, 41.183596 ], [ -73.155154, 41.180596 ], [ -73.155554, 41.177896 ], [ -73.158955, 41.174097 ], [ -73.161682, 41.165761 ], [ -73.164253003164248, 41.158524569782685 ], [ -73.170074131738332, 41.160532442877262 ], [ -73.170701391701613, 41.16494489073483 ], [ -73.174627575221635, 41.165917431459455 ], [ -73.176427971017972, 41.166363400992807 ], [ -73.177774286274214, 41.1666968918774 ], [ -73.181087278513488, 41.16555168586968 ], [ -73.185246870522477, 41.164113834702434 ], [ -73.202656, 41.158096 ], [ -73.220273301351696, 41.147450026262135 ], [ -73.227929612226831, 41.142823387773149 ], [ -73.228119031762532, 41.142708923283827 ], [ -73.228295329405228, 41.142602388234259 ], [ -73.235058, 41.143996 ], [ -73.236010840909088, 41.142696 ], [ -73.239062580152677, 41.138532386768404 ], [ -73.245401202850061, 41.129884343398324 ], [ -73.247958, 41.126396 ], [ -73.262358, 41.117496 ], [ -73.26584408770421, 41.118981812553791 ], [ -73.286348553189171, 41.127721062627252 ], [ -73.286759, 41.127896 ], [ -73.296359, 41.125696 ], [ -73.298157742150039, 41.124605220294775 ], [ -73.298662891449908, 41.124298891450273 ], [ -73.298925508353278, 41.124139637280152 ], [ -73.31186, 41.116296 ], [ -73.319709109816372, 41.113665713199843 ], [ -73.33066, 41.109996 ], [ -73.347068513648026, 41.107640953392163 ], [ -73.347300397664881, 41.107607672031065 ], [ -73.370311170510504, 41.10430503026241 ], [ -73.372295816476438, 41.104020182173784 ], [ -73.383282923109405, 41.094991999683373 ], [ -73.392162, 41.087696 ], [ -73.393900614957275, 41.087392131954125 ], [ -73.400154205047883, 41.086299154931218 ], [ -73.401504299455723, 41.084996511232418 ], [ -73.413396780427036, 41.073522005960861 ], [ -73.413669970741921, 41.073258417251644 ], [ -73.417660392934636, 41.070169044701004 ], [ -73.417707938935422, 41.070132234733855 ], [ -73.418478780598576, 41.069535451496378 ], [ -73.418529738559826, 41.069496 ], [ -73.420542634577188, 41.067937622113313 ], [ -73.435063, 41.056696 ], [ -73.446673790424427, 41.056999530237881 ], [ -73.446930964616541, 41.057006253306746 ], [ -73.447922409483681, 41.057032171739962 ], [ -73.450364, 41.057096 ], [ -73.453448623572854, 41.056103847884231 ], [ -73.461359496077051, 41.053559359486272 ], [ -73.464642662585021, 41.052503347133239 ], [ -73.468238867922523, 41.051346647571584 ], [ -73.477364, 41.035997 ], [ -73.489020310477912, 41.044888001102258 ], [ -73.493327114418307, 41.04817307133559 ], [ -73.495176318400254, 41.04743299691863 ], [ -73.515880455895541, 41.039146943764692 ], [ -73.516903477043257, 41.038737517986462 ], [ -73.516899003548701, 41.03843683209714 ], [ -73.516766974887744, 41.029562527069146 ], [ -73.516766, 41.029497 ], [ -73.516870855731071, 41.029315723990365 ], [ -73.522666, 41.019297 ], [ -73.528866, 41.016397 ], [ -73.531168621989792, 41.021918758297794 ], [ -73.530188985205953, 41.028776226490805 ], [ -73.532786164465165, 41.031669576817336 ], [ -73.534908447096768, 41.031878015742592 ], [ -73.535337781050359, 41.031920182561663 ], [ -73.536563053522855, 41.031345026632543 ], [ -73.539502500461253, 41.029965218979285 ], [ -73.551493612695808, 41.024336463373665 ], [ -73.552694498850386, 41.023472065589331 ], [ -73.561968, 41.016797 ], [ -73.564229538461532, 41.014456109311752 ], [ -73.567668, 41.010897 ], [ -73.570068, 41.001597 ], [ -73.583968, 41.000897 ], [ -73.584870008610281, 41.009419403366124 ], [ -73.58498825199834, 41.010536596524652 ], [ -73.595698906280674, 41.015994885712288 ], [ -73.595802053992301, 41.015983123257797 ], [ -73.603951707483645, 41.015053777107802 ], [ -73.621255970437261, 41.009413721301172 ], [ -73.641953242826403, 41.002667766756282 ], [ -73.643477925064133, 41.002170820256339 ], [ -73.643927040937953, 41.001765772664044 ], [ -73.651175, 40.995229 ], [ -73.65733585247709, 40.985171240835143 ], [ -73.657336, 40.985171 ], [ -73.657615185494564, 40.985498370400038 ], [ -73.657615656997464, 40.985498923280112 ], [ -73.659671, 40.987909 ], [ -73.658772, 40.993497 ], [ -73.6588550783394, 40.994327783394006 ], [ -73.6588631, 40.994408 ], [ -73.658972657603073, 40.995503576030742 ], [ -73.659372, 40.999497 ], [ -73.657795437038573, 41.002898161874178 ], [ -73.657715626735069, 41.003070338798345 ], [ -73.657715397201486, 41.003070833977347 ], [ -73.657144860727939, 41.00430166772712 ], [ -73.655571, 41.007697 ], [ -73.655167, 41.009492555555646 ], [ -73.654797760563412, 41.011133619718102 ], [ -73.654671, 41.011697 ], [ -73.655017806341405, 41.0122419813937 ], [ -73.655371, 41.012797 ], [ -73.65898100983793, 41.016604297048652 ], [ -73.660551660264858, 41.018260783596666 ], [ -73.662672, 41.020497 ], [ -73.666275258884369, 41.02493178016536 ], [ -73.666450047224004, 41.025146904275658 ], [ -73.670472, 41.030097 ], [ -73.670860038507271, 41.03057484975632 ], [ -73.671722915261597, 41.031637438749662 ], [ -73.675304905548913, 41.036048478257229 ], [ -73.67532226416229, 41.036069854509925 ], [ -73.679973, 41.041797 ], [ -73.681778791255411, 41.044029158635126 ], [ -73.682906283095718, 41.045422863826595 ], [ -73.687173, 41.050697 ], [ -73.689011044894386, 41.052923105358694 ], [ -73.694273, 41.059296 ], [ -73.706253914817239, 41.074297322419646 ], [ -73.714519119643654, 41.084646198474317 ], [ -73.716875, 41.087596 ], [ -73.722575, 41.093596 ], [ -73.727775, 41.100696 ], [ -73.696000218675721, 41.115410360501329 ], [ -73.695958756540463, 41.115429560910584 ], [ -73.682857548158665, 41.121496507561318 ], [ -73.669971760327172, 41.127463696621142 ], [ -73.668594603401559, 41.128101434557493 ], [ -73.660663619615335, 41.131774138182713 ], [ -73.660519508184166, 41.131840873734077 ], [ -73.639672, 41.141495 ], [ -73.633889325540338, 41.144129850737933 ], [ -73.632153, 41.144921 ], [ -73.614386611029659, 41.152916826637579 ], [ -73.597233887253324, 41.160636471068742 ], [ -73.593535594766394, 41.162300900775364 ], [ -73.586141363549956, 41.165628700871551 ], [ -73.578988014844271, 41.168848090935768 ], [ -73.564941, 41.17517 ], [ -73.555229654623133, 41.179659403442621 ], [ -73.546380224984318, 41.183750356688009 ], [ -73.536098737308905, 41.188503328019387 ], [ -73.524008564695208, 41.194092426176987 ], [ -73.514617, 41.198434 ], [ -73.512744630553769, 41.199302662628135 ], [ -73.509487, 41.200814 ], [ -73.503965390735203, 41.203277258804881 ], [ -73.501954619743572, 41.20417428883944 ], [ -73.495885253213459, 41.20688190899665 ], [ -73.485357942688012, 41.211578273607074 ], [ -73.479766, 41.205295 ], [ -73.470966, 41.189996 ], [ -73.470766, 41.188196 ], [ -73.472366, 41.185796 ], [ -73.473466, 41.181996 ], [ -73.472966, 41.180596 ], [ -73.470566, 41.179596 ], [ -73.468666, 41.177396 ], [ -73.465266, 41.175796 ], [ -73.465866, 41.170296 ], [ -73.466866, 41.165396 ], [ -73.463971, 41.161366 ], [ -73.458265, 41.160196 ], [ -73.452565, 41.159796 ], [ -73.450165, 41.157796 ], [ -73.44905, 41.153803 ], [ -73.437464, 41.156296 ], [ -73.436764, 41.156396 ], [ -73.435164, 41.156896 ], [ -73.422764, 41.159896 ], [ -73.419964, 41.160596 ], [ -73.419264, 41.160896 ], [ -73.417064, 41.161496 ], [ -73.394963, 41.171596 ], [ -73.387163, 41.170396 ], [ -73.379163, 41.184796 ], [ -73.378463, 41.183596 ], [ -73.377763, 41.182696 ], [ -73.376763, 41.181396 ], [ -73.371863, 41.174696 ], [ -73.370863, 41.175496 ], [ -73.364162, 41.179196 ], [ -73.354762, 41.184996 ], [ -73.347462, 41.189396 ], [ -73.345662, 41.190296 ], [ -73.342162, 41.192696 ], [ -73.338462, 41.194596 ], [ -73.337862, 41.196696 ], [ -73.336662, 41.197696 ], [ -73.333462, 41.198896 ], [ -73.333162, 41.203096 ], [ -73.331862, 41.205996 ], [ -73.329162, 41.213496 ], [ -73.318461, 41.213096 ], [ -73.318306, 41.213212 ], [ -73.301761, 41.212796 ], [ -73.29086, 41.219996 ], [ -73.28836, 41.223696 ], [ -73.28436, 41.225196 ], [ -73.28236, 41.229096 ], [ -73.27946, 41.231696 ], [ -73.26426, 41.213896 ], [ -73.262159, 41.212796 ], [ -73.260059, 41.215496 ], [ -73.255559, 41.221996 ], [ -73.251259, 41.230296 ], [ -73.249059, 41.231896 ], [ -73.248159, 41.231496 ], [ -73.248343, 41.231696 ], [ -73.239859, 41.235896 ], [ -73.235959, 41.237896 ], [ -73.236859, 41.239096 ], [ -73.241359, 41.244496 ], [ -73.243759, 41.247396 ], [ -73.246374, 41.250611 ], [ -73.247759, 41.252096 ], [ -73.25446, 41.260396 ], [ -73.27086, 41.279095 ], [ -73.27176, 41.280095 ], [ -73.27456, 41.283495 ], [ -73.27526, 41.290295 ], [ -73.27466, 41.293795 ], [ -73.27806, 41.297895 ], [ -73.27806, 41.298695 ], [ -73.27616, 41.301495 ], [ -73.27316, 41.302895 ], [ -73.27216, 41.303895 ], [ -73.27086, 41.307095 ], [ -73.27096, 41.310095 ], [ -73.27276, 41.317695 ], [ -73.27366, 41.318795 ], [ -73.273715, 41.318818 ], [ -73.305861, 41.332295 ], [ -73.292561, 41.339095 ], [ -73.292161, 41.339295 ], [ -73.26936, 41.350695 ], [ -73.26136, 41.354695 ], [ -73.241359, 41.364795 ] ] ] } },
{ "type": "Feature", "properties": { "DISTRICT": "5", "STARTCONG": "103", "ENDCONG": "107", "ST": "09", "STA": "CT", "ELECT_YEAR": "1992-2000", "TYPE": "US Cong" }, "geometry": { "type": "Polygon", "coordinates": [ [ [ -72.950549, 41.642898 ], [ -72.938501, 41.644311 ], [ -72.935038, 41.618067 ], [ -72.934047, 41.612197 ], [ -72.933847, 41.606597 ], [ -72.941048, 41.577697 ], [ -72.942648, 41.570997 ], [ -72.945448, 41.559797 ], [ -72.946348, 41.556797 ], [ -72.903846, 41.561697 ], [ -72.884046, 41.563797 ], [ -72.879745, 41.563197 ], [ -72.878819, 41.561906 ], [ -72.876845, 41.560497 ], [ -72.871977, 41.554881 ], [ -72.869929, 41.554593 ], [ -72.868201, 41.548849 ], [ -72.862537, 41.547841 ], [ -72.859658, 41.547219 ], [ -72.853081, 41.546113 ], [ -72.844145, 41.544698 ], [ -72.845744, 41.553497 ], [ -72.848539, 41.567328 ], [ -72.840244, 41.569098 ], [ -72.829444, 41.570698 ], [ -72.827844, 41.570398 ], [ -72.829644, 41.562398 ], [ -72.825743, 41.564298 ], [ -72.825774, 41.563406 ], [ -72.826144, 41.555897 ], [ -72.821243, 41.554197 ], [ -72.819143, 41.554297 ], [ -72.810243, 41.562398 ], [ -72.809243, 41.561998 ], [ -72.805243, 41.566598 ], [ -72.801243, 41.573098 ], [ -72.780042, 41.575898 ], [ -72.768241, 41.577298 ], [ -72.752181, 41.578894 ], [ -72.750667, 41.562741 ], [ -72.750242, 41.559199 ], [ -72.748942, 41.546099 ], [ -72.748905, 41.54428 ], [ -72.747242, 41.528198 ], [ -72.747042, 41.527198 ], [ -72.744742, 41.497698 ], [ -72.759945, 41.495754 ], [ -72.768343, 41.495498 ], [ -72.77288, 41.49638 ], [ -72.777227, 41.498093 ], [ -72.793079, 41.503425 ], [ -72.796087, 41.504705 ], [ -72.800599, 41.505281 ], [ -72.815431, 41.508529 ], [ -72.816807, 41.508913 ], [ -72.82324, 41.510577 ], [ -72.828427, 41.511868 ], [ -72.840844, 41.513697 ], [ -72.850797, 41.516509 ], [ -72.849593, 41.514689 ], [ -72.848681, 41.510161 ], [ -72.846296, 41.502817 ], [ -72.853045, 41.493897 ], [ -72.855991, 41.48996 ], [ -72.864197, 41.478965 ], [ -72.871345, 41.469297 ], [ -72.877445, 41.461097 ], [ -72.876545, 41.459397 ], [ -72.878445, 41.456697 ], [ -72.880569, 41.454945 ], [ -72.886646, 41.448097 ], [ -72.908246, 41.456197 ], [ -72.913247, 41.457997 ], [ -72.917947, 41.459597 ], [ -72.918747, 41.459697 ], [ -72.926747, 41.460297 ], [ -72.935947, 41.462697 ], [ -72.948048, 41.464097 ], [ -72.947448, 41.460097 ], [ -72.949048, 41.455797 ], [ -72.952548, 41.452897 ], [ -72.957148, 41.450097 ], [ -72.958148, 41.448797 ], [ -72.957948, 41.445097 ], [ -72.963292, 41.439329 ], [ -72.963548, 41.437473 ], [ -72.96166, 41.432385 ], [ -72.955348, 41.428897 ], [ -72.950748, 41.427797 ], [ -72.952548, 41.419397 ], [ -72.949648, 41.417497 ], [ -72.940047, 41.411197 ], [ -72.938955, 41.408577 ], [ -72.942447, 41.407097 ], [ -72.944779, 41.406193 ], [ -72.953532, 41.399745 ], [ -72.952924, 41.396945 ], [ -72.953548, 41.395497 ], [ -72.954548, 41.394497 ], [ -72.965148, 41.393397 ], [ -72.965748, 41.393397 ], [ -73.000649, 41.390497 ], [ -73.010549, 41.389796 ], [ -73.03015, 41.388496 ], [ -73.03165, 41.389396 ], [ -73.03335, 41.388996 ], [ -73.03375, 41.389096 ], [ -73.03355, 41.386596 ], [ -73.03275, 41.385096 ], [ -73.03375, 41.380996 ], [ -73.03605, 41.377696 ], [ -73.03775, 41.369896 ], [ -73.03735, 41.368396 ], [ -73.03525, 41.361196 ], [ -73.03535, 41.353996 ], [ -73.03345, 41.352196 ], [ -73.03515, 41.352096 ], [ -73.03485, 41.342796 ], [ -73.03015, 41.342596 ], [ -73.03095, 41.339096 ], [ -73.03465, 41.339496 ], [ -73.03395, 41.330696 ], [ -73.02495, 41.328696 ], [ -73.02265, 41.328497 ], [ -73.02445, 41.325997 ], [ -73.021549, 41.313397 ], [ -73.02765, 41.311797 ], [ -73.03365, 41.313096 ], [ -73.04075, 41.313896 ], [ -73.049351, 41.311196 ], [ -73.053223, 41.311088 ], [ -73.054688, 41.311488 ], [ -73.0567, 41.312042 ], [ -73.058751, 41.311796 ], [ -73.061751, 41.310096 ], [ -73.065051, 41.306096 ], [ -73.065551, 41.304696 ], [ -73.067851, 41.300996 ], [ -73.066151, 41.299496 ], [ -73.065051, 41.297596 ], [ -73.065685, 41.29419 ], [ -73.068751, 41.289196 ], [ -73.071251, 41.287296 ], [ -73.075451, 41.285749 ], [ -73.08153, 41.282856 ], [ -73.086852, 41.276596 ], [ -73.088652, 41.271696 ], [ -73.087752, 41.265296 ], [ -73.087852, 41.260096 ], [ -73.086752, 41.254596 ], [ -73.089252, 41.255596 ], [ -73.091152, 41.257196 ], [ -73.094552, 41.256496 ], [ -73.095152, 41.258196 ], [ -73.096852, 41.258896 ], [ -73.098353, 41.259296 ], [ -73.103053, 41.259896 ], [ -73.103053, 41.261796 ], [ -73.104753, 41.263696 ], [ -73.107153, 41.264096 ], [ -73.107353, 41.265196 ], [ -73.106653, 41.266396 ], [ -73.105753, 41.266796 ], [ -73.108353, 41.268496 ], [ -73.113653, 41.266796 ], [ -73.117653, 41.265396 ], [ -73.120154, 41.264496 ], [ -73.124654, 41.262896 ], [ -73.139954, 41.257396 ], [ -73.140654, 41.257196 ], [ -73.146755, 41.255096 ], [ -73.146955, 41.255496 ], [ -73.147355, 41.256196 ], [ -73.148668, 41.25824 ], [ -73.149789, 41.258641 ], [ -73.149247, 41.259324 ], [ -73.155265, 41.269096 ], [ -73.164856, 41.268796 ], [ -73.173856, 41.268596 ], [ -73.174256, 41.269096 ], [ -73.178956, 41.273596 ], [ -73.179034, 41.273733 ], [ -73.188073, 41.282996 ], [ -73.190757, 41.285796 ], [ -73.198305, 41.2935 ], [ -73.203908, 41.299258 ], [ -73.204911, 41.299218 ], [ -73.205457, 41.299196 ], [ -73.205157, 41.299696 ], [ -73.203757, 41.301496 ], [ -73.196403, 41.310944 ], [ -73.195, 41.312845 ], [ -73.192115, 41.31636 ], [ -73.189257, 41.320496 ], [ -73.178856, 41.334696 ], [ -73.176856, 41.337496 ], [ -73.176449, 41.338766 ], [ -73.175326, 41.34227 ], [ -73.176456, 41.341896 ], [ -73.176556, 41.343796 ], [ -73.177856, 41.346196 ], [ -73.178456, 41.348796 ], [ -73.179856, 41.348596 ], [ -73.181256, 41.349396 ], [ -73.185657, 41.349096 ], [ -73.186857, 41.358296 ], [ -73.189557, 41.360596 ], [ -73.193457, 41.355296 ], [ -73.197051, 41.355634 ], [ -73.197084, 41.355593 ], [ -73.197957, 41.355496 ], [ -73.202457, 41.357396 ], [ -73.203757, 41.359596 ], [ -73.208558, 41.361496 ], [ -73.209858, 41.360996 ], [ -73.22559, 41.364335 ], [ -73.226758, 41.363796 ], [ -73.228158, 41.362696 ], [ -73.230359, 41.362795 ], [ -73.230659, 41.362295 ], [ -73.231359, 41.361595 ], [ -73.231659, 41.360695 ], [ -73.231705, 41.360674 ], [ -73.231954, 41.359001 ], [ -73.235859, 41.354995 ], [ -73.236452, 41.357508 ], [ -73.240359, 41.363795 ], [ -73.241359, 41.364795 ], [ -73.26136, 41.354695 ], [ -73.26936, 41.350695 ], [ -73.292161, 41.339295 ], [ -73.292561, 41.339095 ], [ -73.305861, 41.332295 ], [ -73.273715, 41.318818 ], [ -73.27366, 41.318795 ], [ -73.27276, 41.317695 ], [ -73.27096, 41.310095 ], [ -73.27086, 41.307095 ], [ -73.27216, 41.303895 ], [ -73.27316, 41.302895 ], [ -73.27616, 41.301495 ], [ -73.27806, 41.298695 ], [ -73.27806, 41.297895 ], [ -73.27466, 41.293795 ], [ -73.27526, 41.290295 ], [ -73.27456, 41.283495 ], [ -73.27176, 41.280095 ], [ -73.27086, 41.279095 ], [ -73.25446, 41.260396 ], [ -73.247759, 41.252096 ], [ -73.246374, 41.250611 ], [ -73.243759, 41.247396 ], [ -73.241359, 41.244496 ], [ -73.236859, 41.239096 ], [ -73.235959, 41.237896 ], [ -73.239859, 41.235896 ], [ -73.248343, 41.231696 ], [ -73.248159, 41.231496 ], [ -73.249059, 41.231896 ], [ -73.251259, 41.230296 ], [ -73.255559, 41.221996 ], [ -73.260059, 41.215496 ], [ -73.262159, 41.212796 ], [ -73.26426, 41.213896 ], [ -73.27946, 41.231696 ], [ -73.28236, 41.229096 ], [ -73.28436, 41.225196 ], [ -73.28836, 41.223696 ], [ -73.29086, 41.219996 ], [ -73.301761, 41.212796 ], [ -73.318306, 41.213212 ], [ -73.318461, 41.213096 ], [ -73.329162, 41.213496 ], [ -73.331862, 41.205996 ], [ -73.333162, 41.203096 ], [ -73.333462, 41.198896 ], [ -73.336662, 41.197696 ], [ -73.337862, 41.196696 ], [ -73.338462, 41.194596 ], [ -73.342162, 41.192696 ], [ -73.345662, 41.190296 ], [ -73.347462, 41.189396 ], [ -73.354762, 41.184996 ], [ -73.364162, 41.179196 ], [ -73.370863, 41.175496 ], [ -73.371863, 41.174696 ], [ -73.376763, 41.181396 ], [ -73.377763, 41.182696 ], [ -73.378463, 41.183596 ], [ -73.379163, 41.184796 ], [ -73.387163, 41.170396 ], [ -73.394963, 41.171596 ], [ -73.417064, 41.161496 ], [ -73.419264, 41.160896 ], [ -73.419964, 41.160596 ], [ -73.422764, 41.159896 ], [ -73.435164, 41.156896 ], [ -73.436764, 41.156396 ], [ -73.437464, 41.156296 ], [ -73.44905, 41.153803 ], [ -73.450165, 41.157796 ], [ -73.452565, 41.159796 ], [ -73.458265, 41.160196 ], [ -73.463971, 41.161366 ], [ -73.466866, 41.165396 ], [ -73.465866, 41.170296 ], [ -73.465266, 41.175796 ], [ -73.468666, 41.177396 ], [ -73.470566, 41.179596 ], [ -73.472966, 41.180596 ], [ -73.473466, 41.181996 ], [ -73.472366, 41.185796 ], [ -73.470766, 41.188196 ], [ -73.470966, 41.189996 ], [ -73.479766, 41.205295 ], [ -73.485357942688012, 41.211578273607074 ], [ -73.482709, 41.21276 ], [ -73.49286801542415, 41.22527801426854 ], [ -73.499245727967775, 41.233136679039568 ], [ -73.502661522745683, 41.237345646738 ], [ -73.50638455188033, 41.241933190892951 ], [ -73.517398470581014, 41.25550462332923 ], [ -73.518384, 41.256719 ], [ -73.525213689272533, 41.264832990358705 ], [ -73.52624374954604, 41.266056750151314 ], [ -73.535890252614266, 41.277517247074051 ], [ -73.540512366674847, 41.283008534807259 ], [ -73.548146778238035, 41.292078572893359 ], [ -73.548882444698407, 41.292952579063851 ], [ -73.550961, 41.295422 ], [ -73.54988649146776, 41.301860590496318 ], [ -73.549878036392357, 41.301911254373309 ], [ -73.549709612935004, 41.302920468948557 ], [ -73.54922128214389, 41.305846608570889 ], [ -73.548929, 41.307598 ], [ -73.549072385730938, 41.309450454722253 ], [ -73.549572297773537, 41.315909008289502 ], [ -73.549574, 41.315931 ], [ -73.549507055599079, 41.317085651680536 ], [ -73.548973, 41.326297 ], [ -73.54858376546342, 41.329971850826247 ], [ -73.54801201877595, 41.335369839928852 ], [ -73.544728, 41.366375 ], [ -73.543425, 41.376622 ], [ -73.542440847233209, 41.389435180436962 ], [ -73.542405651669384, 41.389893409205101 ], [ -73.54237949640418, 41.390233937773267 ], [ -73.541169, 41.405994 ], [ -73.537673, 41.433905 ], [ -73.537469, 41.43589 ], [ -73.537227125754612, 41.438407427146032 ], [ -73.536969, 41.441094 ], [ -73.536067, 41.451331 ], [ -73.535986, 41.45306 ], [ -73.535885, 41.455236 ], [ -73.535857, 41.455709 ], [ -73.535769, 41.457159 ], [ -73.534714147369399, 41.471275188595854 ], [ -73.534369, 41.475894 ], [ -73.534269, 41.476394 ], [ -73.534269, 41.476911 ], [ -73.53415, 41.47806 ], [ -73.534062398607475, 41.47889728488866 ], [ -73.534055, 41.478968 ], [ -73.533969, 41.479693 ], [ -73.532369149955059, 41.499168775752118 ], [ -73.532323101070048, 41.499729351889215 ], [ -73.530637186359996, 41.520252835908146 ], [ -73.512868, 41.522993 ], [ -73.485583, 41.528238 ], [ -73.479791, 41.529278 ], [ -73.46927, 41.531527 ], [ -73.46784, 41.531911 ], [ -73.465667, 41.532494 ], [ -73.465663, 41.532495 ], [ -73.450566, 41.535094 ], [ -73.445666, 41.524694 ], [ -73.445086, 41.522574 ], [ -73.442766, 41.514094 ], [ -73.444566, 41.508894 ], [ -73.44226, 41.49561 ], [ -73.441466, 41.491294 ], [ -73.439366, 41.492594 ], [ -73.438839, 41.49291 ], [ -73.430765, 41.497994 ], [ -73.425465, 41.499294 ], [ -73.417465, 41.502094 ], [ -73.414165, 41.503594 ], [ -73.402464, 41.509094 ], [ -73.395064, 41.511794 ], [ -73.393607, 41.512394 ], [ -73.386964, 41.514794 ], [ -73.385064, 41.512494 ], [ -73.384964, 41.510994 ], [ -73.387464, 41.509094 ], [ -73.388564, 41.506494 ], [ -73.387064, 41.505194 ], [ -73.381964, 41.503594 ], [ -73.378964, 41.501894 ], [ -73.376764, 41.498994 ], [ -73.375263, 41.489194 ], [ -73.362963, 41.484594 ], [ -73.358863, 41.482094 ], [ -73.350663, 41.479795 ], [ -73.349263, 41.479395 ], [ -73.347663, 41.478095 ], [ -73.336662, 41.475695 ], [ -73.331262, 41.472495 ], [ -73.326774, 41.469515 ], [ -73.312873, 41.467415 ], [ -73.310473, 41.468815 ], [ -73.305033, 41.471151 ], [ -73.302761, 41.471439 ], [ -73.300601, 41.470847 ], [ -73.299177, 41.469535 ], [ -73.298265, 41.467631 ], [ -73.298313, 41.464767 ], [ -73.300793, 41.455903 ], [ -73.300073, 41.452479 ], [ -73.298863, 41.449657 ], [ -73.296137, 41.447775 ], [ -73.293948, 41.447355 ], [ -73.291263, 41.448108 ], [ -73.287798, 41.450315 ], [ -73.283195, 41.451612 ], [ -73.278251, 41.452635 ], [ -73.273692, 41.451645 ], [ -73.270238, 41.448003 ], [ -73.267488, 41.443576 ], [ -73.265784, 41.436799 ], [ -73.265465, 41.436515 ], [ -73.263678, 41.434532 ], [ -73.258438, 41.433364 ], [ -73.25695, 41.433852 ], [ -73.252982, 41.436716 ], [ -73.249559, 41.438348 ], [ -73.247922, 41.439029 ], [ -73.246759, 41.439495 ], [ -73.245259, 41.439895 ], [ -73.244334, 41.439558 ], [ -73.242344, 41.436072 ], [ -73.242289, 41.429841 ], [ -73.238411, 41.426253 ], [ -73.236771, 41.426187 ], [ -73.235897, 41.426159 ], [ -73.229969, 41.429124 ], [ -73.226769, 41.429824 ], [ -73.226479, 41.430309 ], [ -73.218235, 41.42907 ], [ -73.211835, 41.42277 ], [ -73.207688, 41.420544 ], [ -73.193861, 41.429136 ], [ -73.189317, 41.43176 ], [ -73.188981, 41.431888 ], [ -73.177572, 41.439136 ], [ -73.164628, 41.447856 ], [ -73.164484, 41.449472 ], [ -73.165636, 41.450672 ], [ -73.166356, 41.452336 ], [ -73.165412, 41.452864 ], [ -73.1657, 41.455424 ], [ -73.158836, 41.461872 ], [ -73.158116, 41.464992 ], [ -73.158292, 41.473744 ], [ -73.156964, 41.480736 ], [ -73.1585, 41.480576 ], [ -73.157796, 41.478352 ], [ -73.15818, 41.476864 ], [ -73.160484, 41.473808 ], [ -73.164164, 41.471088 ], [ -73.174484, 41.468912 ], [ -73.177236, 41.468896 ], [ -73.181877, 41.471104 ], [ -73.194501, 41.475727 ], [ -73.197685, 41.476143 ], [ -73.203749, 41.475999 ], [ -73.210038, 41.475871 ], [ -73.210966, 41.476063 ], [ -73.212358, 41.476767 ], [ -73.21319, 41.477791 ], [ -73.213542, 41.481615 ], [ -73.201685, 41.482143 ], [ -73.196485, 41.483279 ], [ -73.194741, 41.484543 ], [ -73.198933, 41.488975 ], [ -73.202021, 41.491455 ], [ -73.201685, 41.496991 ], [ -73.204069, 41.497791 ], [ -73.204213, 41.498879 ], [ -73.206485, 41.501455 ], [ -73.211638, 41.503391 ], [ -73.20711, 41.508831 ], [ -73.197877, 41.509311 ], [ -73.185333, 41.510816 ], [ -73.155812, 41.514208 ], [ -73.156228, 41.517888 ], [ -73.15642, 41.518496 ], [ -73.158068, 41.52632 ], [ -73.159257, 41.532108 ], [ -73.162548, 41.5472 ], [ -73.164676, 41.557088 ], [ -73.145155, 41.557796 ], [ -73.131455, 41.560796 ], [ -73.118754, 41.563796 ], [ -73.098453, 41.568996 ], [ -73.093853, 41.570196 ], [ -73.089353, 41.575296 ], [ -73.086753, 41.579596 ], [ -73.085853, 41.581096 ], [ -73.085538, 41.581546 ], [ -73.085153, 41.582096 ], [ -73.082653, 41.586096 ], [ -73.082253, 41.586796 ], [ -73.078753, 41.587396 ], [ -73.075053, 41.587696 ], [ -73.064152, 41.588496 ], [ -73.058052, 41.588596 ], [ -73.057552, 41.589196 ], [ -73.059652, 41.592896 ], [ -73.060652, 41.600797 ], [ -73.059252, 41.602297 ], [ -73.059652, 41.605797 ], [ -73.058052, 41.606897 ], [ -73.050752, 41.609597 ], [ -73.046404, 41.611287 ], [ -73.036351, 41.615197 ], [ -73.03433, 41.615105 ], [ -73.01865, 41.614097 ], [ -73.02147, 41.627105 ], [ -73.004046, 41.628577 ], [ -73.003022, 41.629153 ], [ -72.98325, 41.639598 ], [ -72.98323, 41.639599 ], [ -72.97315, 41.640398 ], [ -72.964049, 41.641298 ], [ -72.95431, 41.642537 ], [ -72.950549, 41.642898 ] ] ] } },
{ "type": "Feature", "properties": { "DISTRICT": "6", "STARTCONG": "103", "ENDCONG": "107", "ST": "09", "STA": "CT", "ELECT_YEAR": "1992-2000", "TYPE": "US Cong" }, "geometry": { "type": "Polygon", "coordinates": [ [ [ -73.053254, 42.039861 ], [ -73.008743232672288, 42.038859808175552 ], [ -73.008295755978892, 42.038849742970356 ], [ -73.008151271217542, 42.038846493038449 ], [ -72.999549, 42.038653 ], [ -72.984685837572471, 42.038549801833604 ], [ -72.978999785941497, 42.038510322341573 ], [ -72.954594685564331, 42.038340872426573 ], [ -72.924057691368574, 42.038128847440419 ], [ -72.863733, 42.03771 ], [ -72.863619, 42.037709 ], [ -72.847142, 42.036894 ], [ -72.836476897026188, 42.036767038267051 ], [ -72.834889503216687, 42.036748141284079 ], [ -72.813541, 42.036494 ], [ -72.816741, 41.997595 ], [ -72.79470637227648, 41.999974644608308 ], [ -72.783878787175851, 42.001143977025912 ], [ -72.77475687883522, 42.0021291037217 ], [ -72.77025395966298, 42.00261539954041 ], [ -72.766739, 42.002995 ], [ -72.766203748053655, 42.007187806913059 ], [ -72.766139, 42.007695 ], [ -72.763265373901646, 42.009741692879032 ], [ -72.763238, 42.012795 ], [ -72.761238, 42.014595 ], [ -72.759738, 42.016995 ], [ -72.761354236697315, 42.018182546292955 ], [ -72.761869384256968, 42.019041128886663 ], [ -72.76230980221321, 42.019775161658657 ], [ -72.762150544380162, 42.021527034857428 ], [ -72.760557929014453, 42.021845556696093 ], [ -72.758151, 42.020865 ], [ -72.757467, 42.020947 ], [ -72.754038, 42.025395 ], [ -72.751738, 42.030195 ], [ -72.753538, 42.032095 ], [ -72.757538, 42.033295 ], [ -72.755838, 42.036195 ], [ -72.751360136521029, 42.036239321961659 ], [ -72.718969755780918, 42.036559922448639 ], [ -72.714928790071255, 42.036599919989492 ], [ -72.714270978455062, 42.03660643101896 ], [ -72.712634366916816, 42.036622630225132 ], [ -72.69912428280908, 42.036756353245558 ], [ -72.698443298854755, 42.03676309363523 ], [ -72.697583094152165, 42.03677160795457 ], [ -72.695927, 42.036788 ], [ -72.69289725383139, 42.036535889399751 ], [ -72.692136816544959, 42.036472612052357 ], [ -72.686354153743082, 42.035991426332906 ], [ -72.686303524416715, 42.035987213376096 ], [ -72.672870975988829, 42.034869466984631 ], [ -72.643134, 42.032395 ], [ -72.616936038900818, 42.031204217415421 ], [ -72.616918820035067, 42.031203434762006 ], [ -72.607933, 42.030795 ], [ -72.606933, 42.024995 ], [ -72.590233, 42.024695 ], [ -72.589633, 42.024695 ], [ -72.582332, 42.024695 ], [ -72.575129780085504, 42.029004778008364 ], [ -72.573231, 42.030141 ], [ -72.561518331650902, 42.031219812069281 ], [ -72.561290046080913, 42.031240838638141 ], [ -72.552998248014802, 42.032004566557589 ], [ -72.552979403064484, 42.032006302298612 ], [ -72.531570321314518, 42.033978216391567 ], [ -72.531139580959888, 42.034017890347982 ], [ -72.528131, 42.034295 ], [ -72.524731196710533, 42.034280915637673 ], [ -72.522287536024365, 42.034270792286513 ], [ -72.521932317038406, 42.03426932072113 ], [ -72.511982708821392, 42.034228102487127 ], [ -72.509205957944516, 42.034216599243599 ], [ -72.479476083382352, 42.034093437316244 ], [ -72.469455303807777, 42.034051924240821 ], [ -72.46171246035766, 42.034019847969432 ], [ -72.460103315448833, 42.034013181766156 ], [ -72.460089903659167, 42.034013126205124 ], [ -72.458495336185365, 42.034006520391763 ], [ -72.458170649862538, 42.034005175313979 ], [ -72.45668, 42.033999 ], [ -72.45003209223124, 42.033899328074909 ], [ -72.441412536181247, 42.033770095273432 ], [ -72.407698978922411, 42.033264628700962 ], [ -72.397427872735193, 42.033110634247073 ], [ -72.404468, 41.979905 ], [ -72.406727, 41.957496 ], [ -72.430128, 41.954996 ], [ -72.447428, 41.953096 ], [ -72.457828, 41.951796 ], [ -72.491229, 41.947596 ], [ -72.492729, 41.947496 ], [ -72.50553, 41.946397 ], [ -72.51333, 41.945397 ], [ -72.51793, 41.944997 ], [ -72.52333, 41.944597 ], [ -72.52483, 41.944597 ], [ -72.548031, 41.941797 ], [ -72.559832, 41.940297 ], [ -72.577232, 41.938697 ], [ -72.603933, 41.936297 ], [ -72.623434, 41.934297 ], [ -72.624034, 41.929397 ], [ -72.622634, 41.917097 ], [ -72.621734, 41.904597 ], [ -72.634134, 41.903497 ], [ -72.635434, 41.903297 ], [ -72.639835, 41.897597 ], [ -72.642735, 41.900097 ], [ -72.652406, 41.904593 ], [ -72.653863, 41.90458 ], [ -72.654135, 41.905397 ], [ -72.662035, 41.907597 ], [ -72.674136, 41.915897 ], [ -72.678036, 41.917197 ], [ -72.688436, 41.918597 ], [ -72.695037, 41.921197 ], [ -72.695492, 41.92241 ], [ -72.696437, 41.922697 ], [ -72.703537, 41.924597 ], [ -72.713637, 41.926997 ], [ -72.724037, 41.928297 ], [ -72.729838, 41.914497 ], [ -72.738394, 41.892725 ], [ -72.741917, 41.894634 ], [ -72.742955, 41.895137 ], [ -72.749139, 41.896797 ], [ -72.753839, 41.899197 ], [ -72.760739, 41.903197 ], [ -72.760439, 41.905297 ], [ -72.765039, 41.902597 ], [ -72.766639, 41.897597 ], [ -72.766939, 41.895897 ], [ -72.77134, 41.885197 ], [ -72.77034, 41.880897 ], [ -72.77214, 41.878298 ], [ -72.78444, 41.855698 ], [ -72.78514, 41.843298 ], [ -72.784241, 41.837598 ], [ -72.78344, 41.836398 ], [ -72.784341, 41.833198 ], [ -72.783141, 41.826898 ], [ -72.798441, 41.824898 ], [ -72.797839, 41.814158 ], [ -72.798312, 41.810627 ], [ -72.797241, 41.804699 ], [ -72.797941, 41.796599 ], [ -72.798441, 41.793999 ], [ -72.798741, 41.792899 ], [ -72.800041, 41.791899 ], [ -72.796742, 41.758799 ], [ -72.794942, 41.7474 ], [ -72.782141, 41.7481 ], [ -72.781141, 41.7459 ], [ -72.779041, 41.73 ], [ -72.776322, 41.731928 ], [ -72.770641, 41.7382 ], [ -72.768741, 41.7394 ], [ -72.768541, 41.7376 ], [ -72.76224, 41.7357 ], [ -72.76254, 41.7338 ], [ -72.76234, 41.7266 ], [ -72.76204, 41.7186 ], [ -72.761969, 41.715795 ], [ -72.75894, 41.697999 ], [ -72.75824, 41.693499 ], [ -72.75754, 41.688599 ], [ -72.75444, 41.672199 ], [ -72.75204, 41.659899 ], [ -72.75094, 41.654099 ], [ -72.75024, 41.650199 ], [ -72.75174, 41.649999 ], [ -72.75404, 41.649899 ], [ -72.768941, 41.648899 ], [ -72.771541, 41.648699 ], [ -72.788942, 41.647599 ], [ -72.791042, 41.647499 ], [ -72.796542, 41.647199 ], [ -72.814343, 41.645698 ], [ -72.823343, 41.633698 ], [ -72.825243, 41.629898 ], [ -72.825243, 41.627698 ], [ -72.821043, 41.627498 ], [ -72.820343, 41.627498 ], [ -72.818243, 41.627598 ], [ -72.822493, 41.62163 ], [ -72.822943, 41.617698 ], [ -72.819443, 41.615698 ], [ -72.818943, 41.612098 ], [ -72.818543, 41.609298 ], [ -72.818343, 41.606898 ], [ -72.820343, 41.606898 ], [ -72.823743, 41.604298 ], [ -72.824643, 41.596898 ], [ -72.826843, 41.586798 ], [ -72.834144, 41.583198 ], [ -72.836744, 41.580498 ], [ -72.840244, 41.569098 ], [ -72.848539, 41.567328 ], [ -72.845744, 41.553497 ], [ -72.844145, 41.544698 ], [ -72.853081, 41.546113 ], [ -72.859658, 41.547219 ], [ -72.862537, 41.547841 ], [ -72.868201, 41.548849 ], [ -72.869929, 41.554593 ], [ -72.871977, 41.554881 ], [ -72.876845, 41.560497 ], [ -72.878819, 41.561906 ], [ -72.879745, 41.563197 ], [ -72.884046, 41.563797 ], [ -72.903846, 41.561697 ], [ -72.946348, 41.556797 ], [ -72.945448, 41.559797 ], [ -72.942648, 41.570997 ], [ -72.941048, 41.577697 ], [ -72.933847, 41.606597 ], [ -72.934047, 41.612197 ], [ -72.935038, 41.618067 ], [ -72.938501, 41.644311 ], [ -72.950549, 41.642898 ], [ -72.95431, 41.642537 ], [ -72.964049, 41.641298 ], [ -72.97315, 41.640398 ], [ -72.98323, 41.639599 ], [ -72.98325, 41.639598 ], [ -73.003022, 41.629153 ], [ -73.004046, 41.628577 ], [ -73.02147, 41.627105 ], [ -73.01865, 41.614097 ], [ -73.03433, 41.615105 ], [ -73.036351, 41.615197 ], [ -73.046404, 41.611287 ], [ -73.050752, 41.609597 ], [ -73.058052, 41.606897 ], [ -73.059652, 41.605797 ], [ -73.059252, 41.602297 ], [ -73.060652, 41.600797 ], [ -73.059652, 41.592896 ], [ -73.057552, 41.589196 ], [ -73.058052, 41.588596 ], [ -73.064152, 41.588496 ], [ -73.075053, 41.587696 ], [ -73.078753, 41.587396 ], [ -73.082253, 41.586796 ], [ -73.082653, 41.586096 ], [ -73.085153, 41.582096 ], [ -73.085538, 41.581546 ], [ -73.085853, 41.581096 ], [ -73.086753, 41.579596 ], [ -73.089353, 41.575296 ], [ -73.093853, 41.570196 ], [ -73.098453, 41.568996 ], [ -73.118754, 41.563796 ], [ -73.131455, 41.560796 ], [ -73.145155, 41.557796 ], [ -73.164676, 41.557088 ], [ -73.162548, 41.5472 ], [ -73.159257, 41.532108 ], [ -73.158068, 41.52632 ], [ -73.15642, 41.518496 ], [ -73.156228, 41.517888 ], [ -73.155812, 41.514208 ], [ -73.185333, 41.510816 ], [ -73.197877, 41.509311 ], [ -73.20711, 41.508831 ], [ -73.211638, 41.503391 ], [ -73.206485, 41.501455 ], [ -73.204213, 41.498879 ], [ -73.204069, 41.497791 ], [ -73.201685, 41.496991 ], [ -73.202021, 41.491455 ], [ -73.198933, 41.488975 ], [ -73.194741, 41.484543 ], [ -73.196485, 41.483279 ], [ -73.201685, 41.482143 ], [ -73.213542, 41.481615 ], [ -73.21319, 41.477791 ], [ -73.212358, 41.476767 ], [ -73.210966, 41.476063 ], [ -73.210038, 41.475871 ], [ -73.203749, 41.475999 ], [ -73.197685, 41.476143 ], [ -73.194501, 41.475727 ], [ -73.181877, 41.471104 ], [ -73.177236, 41.468896 ], [ -73.174484, 41.468912 ], [ -73.164164, 41.471088 ], [ -73.160484, 41.473808 ], [ -73.15818, 41.476864 ], [ -73.157796, 41.478352 ], [ -73.1585, 41.480576 ], [ -73.156964, 41.480736 ], [ -73.158292, 41.473744 ], [ -73.158116, 41.464992 ], [ -73.158836, 41.461872 ], [ -73.1657, 41.455424 ], [ -73.165412, 41.452864 ], [ -73.166356, 41.452336 ], [ -73.165636, 41.450672 ], [ -73.164484, 41.449472 ], [ -73.164628, 41.447856 ], [ -73.177572, 41.439136 ], [ -73.188981, 41.431888 ], [ -73.189317, 41.43176 ], [ -73.193861, 41.429136 ], [ -73.207688, 41.420544 ], [ -73.211835, 41.42277 ], [ -73.218235, 41.42907 ], [ -73.226479, 41.430309 ], [ -73.226769, 41.429824 ], [ -73.229969, 41.429124 ], [ -73.235897, 41.426159 ], [ -73.236771, 41.426187 ], [ -73.238411, 41.426253 ], [ -73.242289, 41.429841 ], [ -73.242344, 41.436072 ], [ -73.244334, 41.439558 ], [ -73.245259, 41.439895 ], [ -73.246759, 41.439495 ], [ -73.247922, 41.439029 ], [ -73.249559, 41.438348 ], [ -73.252982, 41.436716 ], [ -73.25695, 41.433852 ], [ -73.258438, 41.433364 ], [ -73.263678, 41.434532 ], [ -73.265465, 41.436515 ], [ -73.265784, 41.436799 ], [ -73.267488, 41.443576 ], [ -73.270238, 41.448003 ], [ -73.273692, 41.451645 ], [ -73.278251, 41.452635 ], [ -73.283195, 41.451612 ], [ -73.287798, 41.450315 ], [ -73.291263, 41.448108 ], [ -73.293948, 41.447355 ], [ -73.296137, 41.447775 ], [ -73.298863, 41.449657 ], [ -73.300073, 41.452479 ], [ -73.300793, 41.455903 ], [ -73.298313, 41.464767 ], [ -73.298265, 41.467631 ], [ -73.299177, 41.469535 ], [ -73.300601, 41.470847 ], [ -73.302761, 41.471439 ], [ -73.305033, 41.471151 ], [ -73.310473, 41.468815 ], [ -73.312873, 41.467415 ], [ -73.326774, 41.469515 ], [ -73.331262, 41.472495 ], [ -73.336662, 41.475695 ], [ -73.347663, 41.478095 ], [ -73.349263, 41.479395 ], [ -73.350663, 41.479795 ], [ -73.358863, 41.482094 ], [ -73.362963, 41.484594 ], [ -73.375263, 41.489194 ], [ -73.376764, 41.498994 ], [ -73.378964, 41.501894 ], [ -73.381964, 41.503594 ], [ -73.387064, 41.505194 ], [ -73.388564, 41.506494 ], [ -73.387464, 41.509094 ], [ -73.384964, 41.510994 ], [ -73.385064, 41.512494 ], [ -73.386964, 41.514794 ], [ -73.393607, 41.512394 ], [ -73.395064, 41.511794 ], [ -73.402464, 41.509094 ], [ -73.414165, 41.503594 ], [ -73.417465, 41.502094 ], [ -73.425465, 41.499294 ], [ -73.430765, 41.497994 ], [ -73.438839, 41.49291 ], [ -73.439366, 41.492594 ], [ -73.441466, 41.491294 ], [ -73.44226, 41.49561 ], [ -73.444566, 41.508894 ], [ -73.442766, 41.514094 ], [ -73.445086, 41.522574 ], [ -73.445666, 41.524694 ], [ -73.450566, 41.535094 ], [ -73.465663, 41.532495 ], [ -73.465667, 41.532494 ], [ -73.46784, 41.531911 ], [ -73.46927, 41.531527 ], [ -73.479791, 41.529278 ], [ -73.485583, 41.528238 ], [ -73.512868, 41.522993 ], [ -73.530637186359996, 41.520252835908146 ], [ -73.530067, 41.527194 ], [ -73.52711669915351, 41.557455012859201 ], [ -73.525717192701805, 41.571809644788338 ], [ -73.521364950705561, 41.61645026209051 ], [ -73.521041, 41.619773 ], [ -73.520017, 41.641197 ], [ -73.519795332113404, 41.644378263382265 ], [ -73.518226746376953, 41.666889798283222 ], [ -73.517950665612901, 41.670851967268241 ], [ -73.516785, 41.687581 ], [ -73.516589718219294, 41.68972331821918 ], [ -73.516266352951519, 41.693270762850858 ], [ -73.515991463629092, 41.696286407226893 ], [ -73.511921, 41.740941 ], [ -73.510961, 41.758749 ], [ -73.507954367822521, 41.791590130641389 ], [ -73.505008, 41.823773 ], [ -73.504944, 41.824285 ], [ -73.502017272500879, 41.858329959881473 ], [ -73.501984, 41.858717 ], [ -73.500980274201126, 41.867933548497149 ], [ -73.500935949265767, 41.868340554989288 ], [ -73.49977804901286, 41.878972785273518 ], [ -73.499459336711098, 41.881899309020469 ], [ -73.498304, 41.892508 ], [ -73.498301846192945, 41.892544206260204 ], [ -73.49656034651295, 41.921819433294885 ], [ -73.496527, 41.92238 ], [ -73.496086201518338, 41.926865422387849 ], [ -73.493487326436508, 41.953310732342075 ], [ -73.493206097509258, 41.956172426696384 ], [ -73.492975, 41.958524 ], [ -73.489615, 42.000092 ], [ -73.487314, 42.049638 ], [ -73.436754613914502, 42.050518350398022 ], [ -73.436245796895491, 42.050527210024384 ], [ -73.432812, 42.050587 ], [ -73.42805221798757, 42.0504630803038 ], [ -73.426375883526731, 42.050419437368845 ], [ -73.373290463722441, 42.049037372165927 ], [ -73.340925405420947, 42.048194756226749 ], [ -73.327843775211207, 42.047854179360712 ], [ -73.32595970111592, 42.047805127977888 ], [ -73.29626418261185, 42.047032012818306 ], [ -73.29442, 42.046984 ], [ -73.293097, 42.04694 ], [ -73.233810683092187, 42.045033580015939 ], [ -73.232958560297931, 42.045006179023446 ], [ -73.231056, 42.044945 ], [ -73.229798, 42.044877 ], [ -73.17220505076817, 42.04324065872904 ], [ -73.12727582730804, 42.041964121520856 ], [ -73.053254, 42.039861 ] ] ] } }
]
}
