{
"type": "FeatureCollection",
"name": "Delaware_CD_1992_2000",
"crs": { "type": "name", "properties": { "name": "urn:ogc:def:crs:OGC:1.3:CRS84" } },
"features": [
{ "type": "Feature", "properties": { "STATENAME": "Delaware", "DISTRICT": "0", "STARTCONG": "103", "ENDCONG": "112", "ST": "11", "STA": "DE", "ELECT_YEAR": "1992-2000", "TYPE": "US Cong" }, "geometry": { "type": "MultiPolygon", "coordinates": [ [ [ [ -75.073287815894361, 38.704827652218775 ], [ -75.070352792395568, 38.688300243984926 ], [ -75.06551, 38.66103 ], [ -75.065217, 38.632394 ], [ -75.06192, 38.608869 ], [ -75.061259, 38.608602 ], [ -75.061198017088714, 38.608555930963327 ], [ -75.060478, 38.608012 ], [ -75.060032, 38.607709 ], [ -75.054781505944518, 38.545768078199217 ], [ -75.05358925196505, 38.531702866482298 ], [ -75.049748, 38.486387 ], [ -75.04931231547117, 38.467471074918969 ], [ -75.049056256702499, 38.456353883088525 ], [ -75.048939, 38.451263 ], [ -75.05251, 38.451273 ], [ -75.053483, 38.451274 ], [ -75.064894816454455, 38.451289104397375 ], [ -75.065353294457424, 38.451289711227474 ], [ -75.065353726742217, 38.451289711799667 ], [ -75.065674840688473, 38.451290136818081 ], [ -75.066327, 38.451291 ], [ -75.069909, 38.451276 ], [ -75.070365883969075, 38.451275492245308 ], [ -75.07321995219111, 38.451272320397599 ], [ -75.085481720785438, 38.4512586933714 ], [ -75.087113069175572, 38.4512568803843 ], [ -75.089785000492128, 38.451253910953142 ], [ -75.141894, 38.451196 ], [ -75.185413, 38.451013 ], [ -75.185839417074561, 38.451015432686852 ], [ -75.20497641605769, 38.451124608256855 ], [ -75.21840863863396, 38.451201238378182 ], [ -75.227183146188437, 38.451251296480962 ], [ -75.236271242727597, 38.451303143592504 ], [ -75.252723, 38.451397 ], [ -75.26035, 38.451492 ], [ -75.331353353310575, 38.451911525375579 ], [ -75.34125, 38.45197 ], [ -75.355797, 38.452008 ], [ -75.371054, 38.452107 ], [ -75.393563, 38.452114 ], [ -75.394786, 38.45216 ], [ -75.410884, 38.4524 ], [ -75.424831, 38.45261 ], [ -75.428728, 38.452671 ], [ -75.444004660490549, 38.452982459422174 ], [ -75.477574945339299, 38.453666887902259 ], [ -75.47915, 38.453699 ], [ -75.500142, 38.454144 ], [ -75.502961, 38.45422 ], [ -75.521304, 38.454657 ], [ -75.52273, 38.454657 ], [ -75.533763, 38.454958 ], [ -75.536367467495296, 38.455019916100198 ], [ -75.552217870139145, 38.45539672829716 ], [ -75.555421134085947, 38.455472879607122 ], [ -75.555421472397995, 38.455472887649826 ], [ -75.557687786357633, 38.455526764813797 ], [ -75.557756321891688, 38.455528394111511 ], [ -75.557867106286579, 38.455531027792965 ], [ -75.557867458299938, 38.45553103616141 ], [ -75.558028177894755, 38.455534856954152 ], [ -75.559212, 38.455563 ], [ -75.559934, 38.455579 ], [ -75.560253088074759, 38.455588273722256 ], [ -75.560803788033894, 38.455604278828254 ], [ -75.562373570940693, 38.455649901751372 ], [ -75.562850976601183, 38.455663776690194 ], [ -75.563191479996831, 38.455673672810306 ], [ -75.564194865199767, 38.455702834400562 ], [ -75.564300310616389, 38.455705898982387 ], [ -75.57411, 38.455991 ], [ -75.581177746027848, 38.456313445899248 ], [ -75.582779324911371, 38.45638651340073 ], [ -75.583601, 38.456424 ], [ -75.589307, 38.456286 ], [ -75.593082, 38.456404 ], [ -75.598069, 38.456855 ], [ -75.630457, 38.457904 ], [ -75.648013862079225, 38.458367506363174 ], [ -75.662843, 38.458759 ], [ -75.665585, 38.4589 ], [ -75.690330750500749, 38.45998776423307 ], [ -75.693521, 38.460128 ], [ -75.696369, 38.492373 ], [ -75.696688, 38.496467 ], [ -75.698777, 38.522001 ], [ -75.700179, 38.542717 ], [ -75.701485769210464, 38.559705942570872 ], [ -75.701565, 38.560736 ], [ -75.703445, 38.58512 ], [ -75.703981, 38.592066 ], [ -75.705774, 38.61474 ], [ -75.70586, 38.616268 ], [ -75.706235, 38.621296 ], [ -75.706585, 38.626125 ], [ -75.707346, 38.63528 ], [ -75.712865165345747, 38.70549993245146 ], [ -75.717609260833555, 38.765858708431061 ], [ -75.720441046830345, 38.801887312206418 ], [ -75.722028, 38.822078 ], [ -75.72261, 38.830008 ], [ -75.722882, 38.833156 ], [ -75.724002, 38.846682 ], [ -75.724061, 38.847781 ], [ -75.725565, 38.868152 ], [ -75.725829, 38.869296 ], [ -75.730904530192575, 38.932910327869031 ], [ -75.732868093389826, 38.957520713047053 ], [ -75.738632846005544, 39.029773433268652 ], [ -75.739743701468456, 39.04369637746408 ], [ -75.742662429570004, 39.0802783540001 ], [ -75.743811, 39.094674 ], [ -75.745427293123484, 39.111196560532186 ], [ -75.745793, 39.114935 ], [ -75.746121, 39.120318 ], [ -75.747668, 39.143306 ], [ -75.749356, 39.164815 ], [ -75.751028, 39.177762 ], [ -75.752580267902673, 39.199256103937117 ], [ -75.755953, 39.245958 ], [ -75.760086686968975, 39.296600102312176 ], [ -75.760132826199012, 39.297165357404239 ], [ -75.766667, 39.377216 ], [ -75.769820161411317, 39.415861935943255 ], [ -75.77223289803959, 39.445433040311514 ], [ -75.779503411155815, 39.534542269910659 ], [ -75.779570688752301, 39.535366840982292 ], [ -75.779638573795197, 39.53619885706928 ], [ -75.780786, 39.550262 ], [ -75.782455025653718, 39.572222101134614 ], [ -75.782455060933259, 39.572222565322981 ], [ -75.782862307113803, 39.577580881590798 ], [ -75.78429684220481, 39.596455687744836 ], [ -75.785056491189167, 39.606450721965118 ], [ -75.785383798338543, 39.610757245406724 ], [ -75.786211803581153, 39.621651672839583 ], [ -75.78689, 39.630575 ], [ -75.78745, 39.637455 ], [ -75.787511595603334, 39.638513342998969 ], [ -75.787512208144548, 39.638523867755062 ], [ -75.788150360614253, 39.64948867956079 ], [ -75.788345737338744, 39.652845665731043 ], [ -75.788447989004339, 39.654602566038321 ], [ -75.788449674208138, 39.654631521410785 ], [ -75.788658, 39.658211 ], [ -75.788655096730949, 39.659768465595839 ], [ -75.788633435707581, 39.671388573165338 ], [ -75.788620835162604, 39.67814816552027 ], [ -75.788618438614009, 39.679433799710324 ], [ -75.788616, 39.680742 ], [ -75.788653008568303, 39.68177207181796 ], [ -75.788658, 39.681911 ], [ -75.788468570979035, 39.694962155360891 ], [ -75.788395, 39.700031 ], [ -75.788395, 39.700287 ], [ -75.788359, 39.721811 ], [ -75.773558, 39.722411 ], [ -75.766058, 39.737811 ], [ -75.760346, 39.747231 ], [ -75.754474852801494, 39.75561835314069 ], [ -75.753066, 39.757631 ], [ -75.744394, 39.767855 ], [ -75.736489, 39.775759 ], [ -75.727049, 39.784126 ], [ -75.7246841571461, 39.785972829657339 ], [ -75.719418210003923, 39.790085283615966 ], [ -75.716969, 39.791998 ], [ -75.705698045853794, 39.79958395784422 ], [ -75.701208, 39.802606 ], [ -75.685991, 39.811054 ], [ -75.680713973602806, 39.813353488907815 ], [ -75.662822, 39.82115 ], [ -75.641518, 39.828363 ], [ -75.634706, 39.830164 ], [ -75.617251, 39.833999 ], [ -75.595756, 39.837156 ], [ -75.593666, 39.837455 ], [ -75.579849, 39.838526 ], [ -75.579777407801217, 39.838529669243236 ], [ -75.570464, 39.839007 ], [ -75.553332332975785, 39.838568771098672 ], [ -75.540705538439283, 39.838245777061466 ], [ -75.539346, 39.838211 ], [ -75.518444, 39.836311 ], [ -75.498843, 39.833312 ], [ -75.481242, 39.829112 ], [ -75.473203233376012, 39.826731939494579 ], [ -75.463341, 39.823812 ], [ -75.459602193127836, 39.822449035303315 ], [ -75.459598296101305, 39.822447614660433 ], [ -75.454231325494177, 39.820491110429096 ], [ -75.45374, 39.820312 ], [ -75.450166916311105, 39.818768881606616 ], [ -75.436888635857173, 39.813034350712599 ], [ -75.43685145041259, 39.813018291322848 ], [ -75.433542892811545, 39.811589414606189 ], [ -75.428038, 39.809212 ], [ -75.415041, 39.801786 ], [ -75.405337, 39.796213 ], [ -75.437938, 39.783413 ], [ -75.448639, 39.774113 ], [ -75.448135, 39.773969 ], [ -75.447339, 39.773313 ], [ -75.452339, 39.769013 ], [ -75.459439, 39.765813 ], [ -75.463339, 39.761213 ], [ -75.463039, 39.758313 ], [ -75.465092881745221, 39.753486057979423 ], [ -75.466249, 39.750769 ], [ -75.466263, 39.750737 ], [ -75.469239, 39.743613 ], [ -75.470297264246284, 39.741865328877076 ], [ -75.471882222418373, 39.739247848755156 ], [ -75.474168, 39.735473 ], [ -75.474837086257438, 39.733043160433525 ], [ -75.475384, 39.731057 ], [ -75.47544, 39.728713 ], [ -75.47724, 39.724713 ], [ -75.477432, 39.720561 ], [ -75.476888, 39.718337 ], [ -75.47764, 39.715013 ], [ -75.47894, 39.713813 ], [ -75.481740666666681, 39.714546333333367 ], [ -75.483141, 39.715513 ], [ -75.485241, 39.715813 ], [ -75.488553, 39.714833 ], [ -75.491341, 39.711113 ], [ -75.492405250367966, 39.70900621865934 ], [ -75.496241, 39.701413 ], [ -75.504042, 39.698313 ], [ -75.507162, 39.696961 ], [ -75.509042, 39.694513 ], [ -75.509701921599756, 39.686593940803064 ], [ -75.509742, 39.686113 ], [ -75.529744, 39.692613 ], [ -75.530468279245881, 39.691812976948931 ], [ -75.533571277374051, 39.688385472924587 ], [ -75.556560995111681, 39.66299153235164 ], [ -75.561622439103374, 39.65740077176023 ], [ -75.562246, 39.656712 ], [ -75.58266439776736, 39.652038096651751 ], [ -75.587147, 39.651012 ], [ -75.591972247775672, 39.645366020772023 ], [ -75.611969, 39.621968 ], [ -75.613153, 39.62096 ], [ -75.613377, 39.620288 ], [ -75.614065, 39.61832 ], [ -75.614929, 39.615952 ], [ -75.614273, 39.61464 ], [ -75.613345, 39.613056 ], [ -75.613665, 39.61256 ], [ -75.613233, 39.607408 ], [ -75.613477, 39.606861 ], [ -75.613473, 39.606832 ], [ -75.613793, 39.606192 ], [ -75.611905, 39.597568 ], [ -75.611873, 39.597408 ], [ -75.60464, 39.58992 ], [ -75.603584, 39.58896 ], [ -75.602348286616845, 39.588373471253362 ], [ -75.592224, 39.583568 ], [ -75.591984, 39.583248 ], [ -75.587744, 39.580672 ], [ -75.5872, 39.580256 ], [ -75.586608, 39.57888 ], [ -75.586016, 39.578448 ], [ -75.571599, 39.567728 ], [ -75.570783, 39.56728 ], [ -75.563034, 39.56224 ], [ -75.563975963701282, 39.560888005040496 ], [ -75.564649, 39.559922 ], [ -75.565636, 39.558509 ], [ -75.569359, 39.540589 ], [ -75.569418, 39.539124 ], [ -75.570362, 39.527223 ], [ -75.560728, 39.520472 ], [ -75.566933, 39.508273 ], [ -75.576436, 39.509195 ], [ -75.587729, 39.496353 ], [ -75.587729, 39.495369 ], [ -75.593068, 39.479186 ], [ -75.593068, 39.477996 ], [ -75.589901, 39.462022 ], [ -75.589439, 39.460812 ], [ -75.580185, 39.450786 ], [ -75.579276495395348, 39.448708805364966 ], [ -75.578914, 39.44788 ], [ -75.570985, 39.442486 ], [ -75.571321000909904, 39.441058890809849 ], [ -75.57183, 39.438897 ], [ -75.55589, 39.430351 ], [ -75.538512, 39.416502 ], [ -75.535977, 39.409384 ], [ -75.523583, 39.391583 ], [ -75.521682, 39.387871 ], [ -75.512996, 39.366153 ], [ -75.512399751410442, 39.365678172894718 ], [ -75.511788, 39.365191 ], [ -75.505276, 39.359169 ], [ -75.494158, 39.354613 ], [ -75.491797, 39.351845 ], [ -75.494122, 39.34658 ], [ -75.493148, 39.345527 ], [ -75.491688, 39.343963 ], [ -75.490377, 39.342818 ], [ -75.479845, 39.337472 ], [ -75.479963, 39.336577 ], [ -75.469324, 39.33082 ], [ -75.460423, 39.328236 ], [ -75.439027, 39.313384 ], [ -75.436936, 39.309379 ], [ -75.435551, 39.297546 ], [ -75.435374, 39.296676 ], [ -75.427953, 39.285049 ], [ -75.408376, 39.264698 ], [ -75.402964, 39.254626 ], [ -75.404823, 39.245898 ], [ -75.405106687587036, 39.245315463985619 ], [ -75.405927, 39.243631 ], [ -75.405716, 39.223834 ], [ -75.404745, 39.222666 ], [ -75.396892, 39.216141 ], [ -75.393015, 39.204512 ], [ -75.39479, 39.188354 ], [ -75.398584, 39.186616 ], [ -75.400144, 39.186456 ], [ -75.408266, 39.174625 ], [ -75.410625, 39.156246 ], [ -75.401193, 39.088762 ], [ -75.402035, 39.066885 ], [ -75.400294, 39.065645 ], [ -75.39590921038824, 39.059358962486186 ], [ -75.395806, 39.059211 ], [ -75.396277, 39.057884 ], [ -75.387914, 39.051174 ], [ -75.379873, 39.04879 ], [ -75.345763, 39.024857 ], [ -75.34089, 39.01996 ], [ -75.318354, 38.988191 ], [ -75.314951, 38.980775 ], [ -75.311607, 38.967637 ], [ -75.312546, 38.951065 ], [ -75.312546, 38.94928 ], [ -75.311914783734494, 38.94587485442316 ], [ -75.311882, 38.945698 ], [ -75.311542, 38.944633 ], [ -75.302552, 38.939002 ], [ -75.312282, 38.924594 ], [ -75.304078, 38.91316 ], [ -75.291878658489921, 38.902495590163511 ], [ -75.263115, 38.877351 ], [ -75.232029, 38.844254 ], [ -75.227287425694925, 38.840548113385829 ], [ -75.205329, 38.823386 ], [ -75.190552, 38.806861 ], [ -75.190311179263901, 38.806734650723008 ], [ -75.160748, 38.791224 ], [ -75.159022, 38.790193 ], [ -75.134022, 38.782242 ], [ -75.113331, 38.782998 ], [ -75.105265155591781, 38.785833570763423 ], [ -75.097103, 38.788703 ], [ -75.093654, 38.793992 ], [ -75.097197, 38.803101 ], [ -75.093805, 38.803812 ], [ -75.089473, 38.797198 ], [ -75.082153, 38.772157 ], [ -75.080217, 38.750112 ], [ -75.079221, 38.738238 ], [ -75.078216419856261, 38.732581109639128 ], [ -75.077707262694219, 38.729713995193308 ], [ -75.073691441334987, 38.707100507081236 ], [ -75.073287815894361, 38.704827652218775 ] ] ], [ [ [ -75.55587, 39.605824 ], [ -75.561934, 39.605216 ], [ -75.567694, 39.613744 ], [ -75.571759, 39.623584 ], [ -75.570798, 39.626768 ], [ -75.559446, 39.629812 ], [ -75.559102, 39.629056 ], [ -75.559614, 39.624208 ], [ -75.558446, 39.617296 ], [ -75.556878, 39.612144 ], [ -75.557502, 39.609184 ], [ -75.556734, 39.606688 ], [ -75.55587, 39.605824 ] ] ], [ [ [ -75.564927, 39.583248 ], [ -75.576271, 39.588144 ], [ -75.578719, 39.591504 ], [ -75.579615, 39.598656 ], [ -75.565823, 39.590608 ], [ -75.564927, 39.583248 ] ] ] ] } }
]
}
